{"type":"FeatureCollection","features":[{"type":"Feature","geometry":{"type":"Point","coordinates":[-17.935077,28.595008]},"properties":{"municipio":"Tazacorte"}},{"type":"Feature","geometry":{"type":"Point","coordinates":[-17.840884,28.448839]},"properties":{"municipio":"Fuencaliente"}},{"type":"Feature","geometry":{"type":"Point","coordinates":[-17.754536,28.570071]},"properties":{"municipio":"Villa de Mazo"}},{"type":"Feature","geometry":{"type":"Point","coordinates":[-17.771362,28.841299]},"properties":{"municipio":"Barlovento"}}]}