{"type":"FeatureCollection","name":"lugares-interes-cultural-la-palma-20260514","crs":{"type":"name","properties":{"name":"urn:ogc:def:crs:OGC:1.3:CRS84"}},"features":[{"type":"Feature","properties":{"id":1,"tipo":"bic_actividades","nombre":"Artesanía de la Seda de El Paso","municipio":"","direccion":"El Paso","telefono":"","email":"","descripcion":"EN TRAMITE -Hoy en día, las labores del preparado y tejido de la seda perduran en El Paso, con ancestrales técnicas medievales. Los artesanos guardaron celosamente los viejos saberes populares de la hoy llamada \"artesanía\" -elaborada con las manos y el gusto propio de la cultura popular-, que en tiempos remotos fue el único medio de vida y pervivencia de la familia. Esa cultura fue pasando de generación en generación como lo mejor y mas apreciado de las herencias y legados tradicionales","url_imagen":"http://www.cabildodelapalma.es/portal/RecursosWeb/IMAGENES/1/1_636_1.jpg","longitud":-17.8799559542332,"latitud":28.6517123070884},"geometry":{"type":"Point","coordinates":[-17.879956,28.651712]}},{"type":"Feature","properties":{"id":2,"tipo":"bic_actividades","nombre":"Baile del Borrachito Fogatero","municipio":"","direccion":"Villa de Mazo","telefono":"","email":"","descripcion":"EN TRAMITE - El último fin de semana del mes de agosto, en el barrio de Lodero de la Villa de Mazo, sale a la plaza \"El Borrachito Fogatero\", envuelto en llamas y amparado en la oscuridad de la noche. La danza del Borrachito Fogatero se celebra como fin de fiesta en la verbena del domingo. Pasada la media noche aparecen varios mascarones y una comparsa de cabezudos portando bengalas, conocidos como cabezones","url_imagen":"http://www.cabildodelapalma.es/portal/RecursosWeb/IMAGENES/1/1_634_1.jpg","longitud":-17.7686315038687,"latitud":28.618340270618},"geometry":{"type":"Point","coordinates":[-17.768632,28.61834]}},{"type":"Feature","properties":{"id":3,"tipo":"bic_actividades","nombre":"La Danza del Diablo","municipio":"","direccion":"Tijarafe","telefono":"","email":"","descripcion":"D. 101/2007, de 15 de mayo BOC 105, de 25.05.2007 Tras varias horas de verbena, la Plaza de Candelaria, que luce sus mejores galas bulle de excitación cada siete de septiembre, víspera del día de Candelaria. La emoción se desborda y parece que el momento no llega nunca. De pronto, dos enormes y llamativos ojos rojos se alzan desafiantes. El diablo ya llegó. Durante unos veinte minutos, más de quinientos cohetes salen disparados de la carcasa y después del último bramido, el diablo huye, corre y","url_imagen":"http://www.cabildodelapalma.es/portal/RecursosWeb/IMAGENES/1/1_630_1.JPG","longitud":-17.9552322039919,"latitud":28.7109084785162},"geometry":{"type":"Point","coordinates":[-17.955232,28.710908]}},{"type":"Feature","properties":{"id":4,"tipo":"bic_actividades","nombre":"Batalla de Lepanto","municipio":"","direccion":"Barlovento","telefono":"","email":"","descripcion":"Representación de la Batalla de Lepanto, que se celebra en agosto .D. 157/2009, de 15 de diciembre En Barlovento se representa el ocaso del poderío musulmán de casi un siglo en el Mediterráneo, mientras, la Virgen del Rosario contempla la escena. Las tropas desfilan en dirección a la iglesia: los cristianos victoriosos bajo el mando de D. Juan de Austria, y la marinería turca, malherida, cabizbaja y encadenada precedida por Alí Bajá. Cristianos y moros rinden pleitesía a la Virgen","url_imagen":"http://www.cabildodelapalma.es/portal/RecursosWeb/IMAGENES/1/1_631_1.JPG","longitud":-17.8033867079573,"latitud":28.8297597409987},"geometry":{"type":"Point","coordinates":[-17.803387,28.82976]}},{"type":"Feature","properties":{"id":5,"tipo":"bic_monumento","nombre":"Antigua Iglesia de San José","municipio":"Breña Baja","direccion":"Carretera San José,174 38712 Breña Baja (Santa Cruz de Tenerife)","telefono":"922434004","email":"","descripcion":"D. 76/1996, de 30 de abril (B.O.C. 79, de 1.07.1996) La iglesia de San José pasó a ser desde el 2 de agosto de 1637, la primera parroquia que bajo la advocación, del Santo cuyo nombre toma, hubo en el Archipiélago Canario. Consta de una nave, con arco toral de piedra y capilla colateral en el lado del Evangelio. El Coro fue rematado en 1658 y el púlpito de estilo barroco en 1699","url_imagen":"http://www.cabildodelapalma.es/portal/RecursosWeb/IMAGENES/1/1_612_1.JPG","longitud":-17.7750000003106,"latitud":28.6456659996703},"geometry":{"type":"Point","coordinates":[-17.775,28.645666]}},{"type":"Feature","properties":{"id":6,"tipo":"bic_monumento","nombre":"Casona de Fierro-Torres y Santa Cruz","municipio":"Breña Baja","direccion":"Camino El Lindero San José,S/N 38712 Breña Baja (Santa Cruz de Tenerife)","telefono":"","email":"","descripcion":"D. 5/1993, de 14 de enero (B.O.C. 10, de 22.01.1993) Edificación fabricada, con toda seguridad, por la familia Molina de Santa Cruz de La Palma, a finales del siglo XVIII y principios del XIX. Construcción en planta rectangular de dos alturas, con una galería abierta, en la fachada este, sostenida por dos columnas de orden toscano.","url_imagen":"http://www.cabildodelapalma.es/portal/RecursosWeb/IMAGENES/1/3_606_1.jpg","longitud":-17.776999999644,"latitud":28.6485049998298},"geometry":{"type":"Point","coordinates":[-17.777,28.648505]}},{"type":"Feature","properties":{"id":7,"tipo":"bic_monumento","nombre":"Castillo de Santa Catalina","municipio":"Santa Cruz de La Palma","direccion":"Calle Castillete,9 38700 Santa Cruz de La Palma (Santa Cruz de Tenerife)","telefono":"","email":"","descripcion":"D. 3145/1951, de 22 de junio (B.O.E. 184, de 3.07.1951) Se levanta al norte de la ciudad, en planta cuadrada con cuatro baluartes en la esquinas y en su frente y puerta de entrada blasonadas las Reales Armas de España talladas sobre arco rebajado de piedra. Baluarte máximo en la defensa de la ciudad ante las incursiones corsarias","url_imagen":"http://www.cabildodelapalma.es/portal/RecursosWeb/IMAGENES/1/1_623_1.JPG","longitud":-17.761000000017,"latitud":28.6869170003898},"geometry":{"type":"Point","coordinates":[-17.761,28.686917]}},{"type":"Feature","properties":{"id":8,"tipo":"bic_monumento","nombre":"Ermita de El Buen Jesús","municipio":"Tijarafe","direccion":"Carretera Las Palmeras,13 38780 Tijarafe (Santa Cruz de Tenerife)","telefono":"","email":"","descripcion":"D. 1/1997, de 21 de enero (B.O.C. 70, de 30.05.1997) Se ubica en un promontorio junto al Barranco del Jurado, en un magnífico escenario natural. Construida en la segunda mitad del siglo XVI, está constituida por una nave rectangular, con puerta de entrada hacia el poniente y sobre ella la espadaña con una campana","url_imagen":"http://www.cabildodelapalma.es/portal/RecursosWeb/IMAGENES/1/1_628_1.JPG","longitud":-17.9540000002986,"latitud":28.7024410001724},"geometry":{"type":"Point","coordinates":[-17.954,28.702441]}},{"type":"Feature","properties":{"id":9,"tipo":"bic_monumento","nombre":"Ermita de Nuestra Señora de Bonanza","municipio":"El Paso","direccion":"Calle Sagrado Corazón,S/n 38750 El Paso (Santa Cruz de Tenerife)","telefono":"922487357","email":"","descripcion":"D. 50/1986, de 14 de marzo de 1986 (B.O.C. 38, de 2.04.1986) La ermita de Nuestra Señora de Bonanza se comenzó a construir en 1691 por parte del alférez D. Salvador Fernández. fue erigida en iglesia parroquial en virtud de Real Orden de 3 de noviembre de 1860. La única nave de esta iglesia la recubren tres tirantes ornamentales mudéjares en la techumbre.","url_imagen":"http://www.cabildodelapalma.es/portal/RecursosWeb/IMAGENES/1/1_617_1.JPG","longitud":-17.8789999998921,"latitud":28.6516209999869},"geometry":{"type":"Point","coordinates":[-17.879,28.651621]}},{"type":"Feature","properties":{"id":10,"tipo":"bic_monumento","nombre":"Iglesia de Nuestra Señora de Candelaria","municipio":"Tijarafe","direccion":"Calle La Luz,10 38780 Tijarafe (Santa Cruz de Tenerife)","telefono":"922490004","email":"","descripcion":"D. 77/1996, de 30 de abril (B.O.C. 73, de 17.06.1996) Parroquia edificada entre los siglos XVII y XVIII, con un definido estilo mudéjar, de una nave sobria y sencilla, con una original espadaña de puro estilo canario, con la fecha 1686, colocada en la parte posterior del templo, con la balconada y escalera exterior. Es de destacar el Retablo Mayor, obra de Antonio de Orbarán, de gran valor e interés artístico, siendo uno de los pocos ejemplos conservados en Canarias que muestran una solución","url_imagen":"http://www.cabildodelapalma.es/portal/RecursosWeb/IMAGENES/1/1_627_1.JPG","longitud":-17.9550000002694,"latitud":28.7111409996943},"geometry":{"type":"Point","coordinates":[-17.955,28.711141]}},{"type":"Feature","properties":{"id":11,"tipo":"bic_monumento","nombre":"Iglesia de Nuestra Señora del Rosario","municipio":"Barlovento","direccion":"Plaza del Rosario, 4, 38726 Barlovento (Santa Cruz de Tenerife)","telefono":"922186055","email":"","descripcion":"D. 82/1997, de 27 de mayo (B.O.C. 20.06.1997) No se sabe la época de su fundación, en el libro primero de bautismos de 1581 se le daba el título de parroquia y por Real Cédula de Felipe IV de 24 de mayo de 1660 se erigió en iglesia parroquial. Consta de una nave con techumbre a dos aguas, artesonado mudéjar en el interior y sencilla fachada con puerta principal sobre la que aparece un pequeño balcón y rematando el conjunto la tradicional espadaña.","url_imagen":"http://www.cabildodelapalma.es/portal/RecursosWeb/IMAGENES/1/0_275_1.jpg","longitud":-17.8030000003311,"latitud":28.8297279996076},"geometry":{"type":"Point","coordinates":[-17.803,28.829728]}},{"type":"Feature","properties":{"id":12,"tipo":"bic_monumento","nombre":"Iglesia de San Antonio Abad","municipio":"Fuencaliente","direccion":"Plaza San Antonio Abad,3 38740 Fuencaliente (Santa Cruz de Tenerife)","telefono":"","email":"","descripcion":"D. 64/1996, de 18 de abril (B.O.C. 60, de 17.05.1996) Este templo fue ermita aneja a la parroquia de Mazo, y su antigüedad data desde antes de 1576. Se erigió en iglesia parroquial el 29 de julio de 1832. Iglesia de una nave, con el presbiterio en planta rectangular y en el techo los frescos, obra de Ubaldo Bordanova Moreno, realizados en 1904. En el exterior destaca su campanario construido en 1866.","url_imagen":"http://www.cabildodelapalma.es/portal/RecursosWeb/IMAGENES/1/3_616_1.JPG","longitud":-17.8449999999477,"latitud":28.4952139999194},"geometry":{"type":"Point","coordinates":[-17.845,28.495214]}},{"type":"Feature","properties":{"id":13,"tipo":"bic_monumento","nombre":"Iglesia de San Francisco","municipio":"Santa Cruz de La Palma","direccion":"Plaza San Francisco, 38700 Santa Cruz de La Palma (Santa Cruz de Tenerife)","telefono":"922411578","email":"","descripcion":"R.D. 3300/1976, de 10 de diciembre (B.O.E. 73, de 26.03.1977) En 1508 los franciscanos iniciaron la construcción del Real Convento de la Inmaculada Concepción. La iglesia quedo definida en el siglo XVI y se prolonga a lo largo del XVIII. Esta formada por una única nave con capilla mayor, en torno al cual surgieron una serie de capillas laterales. En la década de 1540-1550 se construyó la capilla de Montserrat, una de las primeras muestras del arte renacentista en Canarias","url_imagen":"http://www.cabildodelapalma.es/portal/RecursosWeb/IMAGENES/1/1_655_1.JPG","longitud":-17.7619999995336,"latitud":28.6870859996805},"geometry":{"type":"Point","coordinates":[-17.762,28.687086]}},{"type":"Feature","properties":{"id":14,"tipo":"bic_monumento","nombre":"Iglesia de San Juan Bautista","municipio":"Puntallana","direccion":"Calle Llano San Juan ,9 38715 Puntallana (Santa Cruz de Tenerife)","telefono":"922430140","email":"","descripcion":"D. 160/1994, de 29 de julio (B.O.C. 103, de 22.08.1994) Su fábrica debió iniciarse en los primeros años después de la conquista y fue declarada iglesia parroquial y bautismal en los Sinodales de 1515 por el ilustrísimo señor obispo D. Fernando Vásquez de Arce. Presenta planta en cruz latina, de una sola nave y dos capillas abiertas al presbiterio, con artesonado de par e hilera y decoración de perillones y ornamentación curvilínea en relieve, en el almizate del presbiterio y crucero","url_imagen":"http://www.cabildodelapalma.es/portal/RecursosWeb/IMAGENES/1/1_620_1.JPG","longitud":-17.7450000003827,"latitud":28.7404479999386},"geometry":{"type":"Point","coordinates":[-17.745,28.740448]}},{"type":"Feature","properties":{"id":15,"tipo":"bic_monumento","nombre":"Iglesia de San Mauro Abad y Casa Parroquial","municipio":"Puntagorda","direccion":"Camino El Calvario,S/N 38789 Puntagorda (Santa Cruz de Tenerife)","telefono":"922493078","email":"","descripcion":"D. 602/1985, de 20 de diciembre (B.O.C.A.C 13, de 31.01.1986) Se desconoce la fecha de su fundación, solo que el obispo fray Juan de Arzóloras, el 2 de mayo de 1571, visitó la iglesia bautismal de San Amaro en Puntagorda. Es de una sola nave, donde conviven el gótico y el mudéjar y la única iglesia de la isla con dos arcos torales, el del antepresbiterio, es de línea ojival. El retablo tiene un diseño similar al retablo mayor de El Salvador, en Santa Cruz de La Palma y fue realizado por Martín d","url_imagen":"http://www.cabildodelapalma.es/portal/RecursosWeb/IMAGENES/1/0_893_1.JPG","longitud":-17.9900000000056,"latitud":28.7743199995673},"geometry":{"type":"Point","coordinates":[-17.99,28.77432]}},{"type":"Feature","properties":{"id":16,"tipo":"bic_monumento","nombre":"Iglesia de San Nicolás de Bari de las Manchas","municipio":"El Paso","direccion":"Calle Tamanca,1 38750 El Paso (Santa Cruz de Tenerife)","telefono":"922462051","email":"","descripcion":"D. 94/1996, de 31 de mayo (B.O.C. 75, de 21.06.1996) Fundada por D. Nicolás Massieu y Vandala, es de una nave y separada del presbiterio mediante dos escalones y un arco toral de cantería. El artesonado de la nave y del presbiterio es una estructura de par y nudillo, con almizate y faldones laterales, reforzada mediante tirantes simples apoyados en ménsulas o en cada una de las esquinas.","url_imagen":"http://www.cabildodelapalma.es/portal/RecursosWeb/IMAGENES/1/1_618_1.JPG","longitud":-17.8809999999421,"latitud":28.6021519995728},"geometry":{"type":"Point","coordinates":[-17.881,28.602152]}},{"type":"Feature","properties":{"id":17,"tipo":"bic_monumento","nombre":"Iglesia Parroquial de San Andrés","municipio":"San Andrés y Sauces","direccion":"Calle La Iglesia,7 38729 San Andrés y Sauces (Santa Cruz de Tenerife)","telefono":"922450857","email":"","descripcion":"D. 602/1985, de 20 de diciembre (B.O.C.A.C 13, de 31.01.1986 Es de la primeras parroquias de la isla, declarada iglesia parroquial y bautismal en los Sinodales de 1515 por el ilustrísimo señor obispo D. Fernando Vásquez de Arce. La planta es en cruz latina, con arcos torales de medio punto, sobre pilastras seudoclásicas, con molduras a la altura de las impostas. El artesonado de las capillas es de estilo mudéjar, destacando en belleza y elegancia el del presbiterio. Los retablos son magníficos e","url_imagen":"http://www.cabildodelapalma.es/portal/RecursosWeb/IMAGENES/1/1_621_1.JPG","longitud":-17.7610000003408,"latitud":28.7996469999564},"geometry":{"type":"Point","coordinates":[-17.761,28.799647]}},{"type":"Feature","properties":{"id":18,"tipo":"bic_monumento","nombre":"Quinta Verde","municipio":"Santa Cruz de La Palma","direccion":"Avenida El Puente,S/N 38700 Santa Cruz de La Palma (Santa Cruz de Tenerife)","telefono":"","email":"","descripcion":"D. 70/2005, de 26 de abril (B.O.C. 89, de 9.05.2005) La Quinta Verde, en Santa Cruz de La Palma, es uno de los ejemplos más representativos, existentes en Canarias, del tipo arquitectónico de hacienda de campo próxima al núcleo urbano construida por las clases aristocráticas como lugar temporal de descanso y recreo. El edificio fabricado entre 1672 y 1690 aproximadamente, está articulado en dos núcleos bien diferenciados, separados por un patio intermedio: las casas que son de la vivienda o casa","url_imagen":"http://www.cabildodelapalma.es/portal/RecursosWeb/IMAGENES/1/1_626_1.JPG","longitud":-17.7699999995608,"latitud":28.6865169995628},"geometry":{"type":"Point","coordinates":[-17.77,28.686517]}},{"type":"Feature","properties":{"id":19,"tipo":"bic_monumento","nombre":"Teatro Chico","municipio":"Santa Cruz de La Palma","direccion":"Calle Diaz Pimienta,1 38700 Santa Cruz de La Palma (Santa Cruz de Tenerife)","telefono":"922420007","email":"","descripcion":"D. 2/1997, de 21 de enero (B.O.C. 70, de 30.05.1997) Creado en 1866 por la Sociedad \"Terpsícore y Melponeme\" como lugar de celebración de espectáculos y festejos públicos. Antiguamente era un oratorio del antiguo Hospital de Dolores fundado hacia el año 1514, remodelado en el siglo XIX, para la representación de piezas escénicas de carácter profano y donde es irreconocible el carácter sagrado del edificio.","url_imagen":"http://www.cabildodelapalma.es/portal/RecursosWeb/IMAGENES/1/1_625_1.JPG","longitud":-17.7640000001745,"latitud":28.684328999858},"geometry":{"type":"Point","coordinates":[-17.764,28.684329]}},{"type":"Feature","properties":{"id":20,"tipo":"bic_monumento","nombre":"Teatro Circo de Marte","municipio":"Santa Cruz de La Palma","direccion":"Calle Virgen de La Luz,5 38700 Santa Cruz de La Palma (Santa Cruz de Tenerife)","telefono":"922420007","email":"","descripcion":"D. 41/1997, de 20 de marzo (B.O.C. 44, de 7.04.1997) Centro cultural y social de la ciudad que comienza su construcción el 8 de abril de 1870, cuyo destino principal sería la riña de gallos. A principios del siglo XX se reforma el edificio para su adecuación a actuaciones teatrales, salón de baile y espectáculos, sala de cine, etc.","url_imagen":"http://www.cabildodelapalma.es/portal/RecursosWeb/IMAGENES/1/1_624_1.JPG","longitud":-17.7659999996146,"latitud":28.6829170000485},"geometry":{"type":"Point","coordinates":[-17.766,28.682917]}},{"type":"Feature","properties":{"id":21,"tipo":"bic_monumento","nombre":"Templo Parroquial de Nuestra Señora de La Luz","municipio":"Villa de Garafía","direccion":"Carretera General,S/N 38787 Villa de Garafía (Santa Cruz de Tenerife)","telefono":"922400054","email":"","descripcion":"D. 50/1986, de 14 de marzo de 1986 (B.O.C.A.C. 38, de 2.04.1986)El sagrado recinto fue bendecido en 1552, aunque aún tendrían que transcurrir varios años para la finalización de las obras. La iglesia es de dos naves, la principal y la de la capilla del Evangelio. Es de destacar el artesonado de par e hilera, con profusa lacería mudejar, entrelazados con voluminosos rosetones. Como pieza sobresaliente en la parroquia, es la pila bautismal de barro vidriado en color verde, obra andaluza del siglo","url_imagen":"http://www.cabildodelapalma.es/portal/RecursosWeb/IMAGENES/1/1_619_1.JPG","longitud":-17.9449999997892,"latitud":28.8308019997093},"geometry":{"type":"Point","coordinates":[-17.945,28.830802]}},{"type":"Feature","properties":{"id":22,"tipo":"museo","nombre":"Museo del Puro y de la Fiesta de Las Cruces","municipio":"Breña Alta","direccion":"Parque De los Álamos. San Pedro., 38700 Breña Alta","telefono":"922429567","email":"","descripcion":"","url_imagen":"","longitud":-17.7873078105053,"latitud":28.6674913921937},"geometry":{"type":"Point","coordinates":[-17.787308,28.667491]}},{"type":"Feature","properties":{"id":23,"tipo":"museo","nombre":"Museo-Taller de La Seda Las Hilanderas","municipio":"","direccion":"","telefono":"","email":"","descripcion":"","url_imagen":"","longitud":-17.8800101995426,"latitud":28.651663562999},"geometry":{"type":"Point","coordinates":[-17.88001,28.651664]}},{"type":"Feature","properties":{"id":24,"tipo":"museo","nombre":"Casa Museo del Vino Las Manchas","municipio":"","direccion":"","telefono":"","email":"","descripcion":"","url_imagen":"","longitud":-17.8881434457468,"latitud":28.5955444025656},"geometry":{"type":"Point","coordinates":[-17.888143,28.595544]}},{"type":"Feature","properties":{"id":25,"tipo":"museo","nombre":"Museo de Arte Sacro","municipio":"","direccion":"","telefono":"","email":"","descripcion":"","url_imagen":"","longitud":-17.9127865006906,"latitud":28.659191711368},"geometry":{"type":"Point","coordinates":[-17.912787,28.659192]}},{"type":"Feature","properties":{"id":26,"tipo":"museo","nombre":"Museo Arqueológico Benahoarita","municipio":"Los Llanos de Aridane","direccion":"Calle de Las Adelfas,3 38760 Los Llanos de Aridane","telefono":"922464609","email":"mab@cablapalma.es","descripcion":"","url_imagen":"","longitud":-17.9101772885234,"latitud":28.6567930483412},"geometry":{"type":"Point","coordinates":[-17.910177,28.656793]}},{"type":"Feature","properties":{"id":27,"tipo":"museo","nombre":"Museo Etnográfico y Centro de Artesanía Casa Luj","municipio":"","direccion":"","telefono":"","email":"","descripcion":"","url_imagen":"","longitud":-17.7457995901253,"latitud":28.7415134947084},"geometry":{"type":"Point","coordinates":[-17.7458,28.741513]}},{"type":"Feature","properties":{"id":28,"tipo":"museo","nombre":"Museo Insular San Francisco","municipio":"Santa Cruz de La Palma","direccion":"Plaza San Francisco,3 38700 Santa Cruz de La Palma","telefono":"922423100","email":"","descripcion":"","url_imagen":"","longitud":-17.7621616270331,"latitud":28.6870983273314},"geometry":{"type":"Point","coordinates":[-17.762162,28.687098]}},{"type":"Feature","properties":{"id":29,"tipo":"museo","nombre":"Museo Naval","municipio":"Santa Cruz de La Palma","direccion":"Avenida Las Nieves,1-a 38700 Santa Cruz de La Palma","telefono":"","email":"","descripcion":"","url_imagen":"","longitud":-17.7611394807886,"latitud":28.6882076598406},"geometry":{"type":"Point","coordinates":[-17.761139,28.688208]}},{"type":"Feature","properties":{"id":30,"tipo":"museo","nombre":"Museo de Arte Contemporáneo","municipio":"Santa Cruz de La Palma","direccion":"Calle Virgen de La Luz ,13 38700 Santa Cruz de La Palma","telefono":"922423100","email":"","descripcion":"","url_imagen":"","longitud":-17.7662211597693,"latitud":28.6824396303691},"geometry":{"type":"Point","coordinates":[-17.766221,28.68244]}},{"type":"Feature","properties":{"id":31,"tipo":"museo","nombre":"C. Div. Corpus Christi y Museo  Bordado Casa Roja","municipio":"Villa de Mazo","direccion":"Calle Maximiliano Pérez Díaz, 38730 Villa de Mazo","telefono":"922428587","email":"","descripcion":"","url_imagen":"","longitud":-17.7789733656261,"latitud":28.6074266148915},"geometry":{"type":"Point","coordinates":[-17.778973,28.607427]}},{"type":"Feature","properties":{"id":32,"tipo":"museo","nombre":"Museo del Plátano","municipio":"","direccion":"","telefono":"","email":"","descripcion":"","url_imagen":"","longitud":-17.9349049541889,"latitud":28.6426661942796},"geometry":{"type":"Point","coordinates":[-17.934905,28.642666]}},{"type":"Feature","properties":{"id":33,"tipo":"museo","nombre":"Museo Etnográfico Molino del Regente","municipio":"","direccion":"","telefono":"","email":"","descripcion":"","url_imagen":"","longitud":-17.7793085493628,"latitud":28.8030853778541},"geometry":{"type":"Point","coordinates":[-17.779309,28.803085]}},{"type":"Feature","properties":{"id":34,"tipo":"museo","nombre":"Museo Etnográfico Casa del Maestro","municipio":"","direccion":"","telefono":"","email":"","descripcion":"","url_imagen":"","longitud":-17.9554794074683,"latitud":28.7108150190255},"geometry":{"type":"Point","coordinates":[-17.955479,28.710815]}},{"type":"Feature","properties":{"id":35,"tipo":"museo","nombre":"Foro de Arte Contemporáneo al aire libre","municipio":"","direccion":"","telefono":"","email":"","descripcion":"","url_imagen":"","longitud":-17.9122809043475,"latitud":28.6586389999954},"geometry":{"type":"Point","coordinates":[-17.912281,28.658639]}},{"type":"Feature","properties":{"id":36,"tipo":"iglesia","nombre":"Iglesia de Nuestra Señora de La Luz","municipio":"","direccion":"","telefono":"","email":"","descripcion":"","url_imagen":"","longitud":-17.9447754049329,"latitud":28.8307736933885},"geometry":{"type":"Point","coordinates":[-17.944775,28.830774]}},{"type":"Feature","properties":{"id":37,"tipo":"iglesia","nombre":"Iglesia de San Antonio de Padua","municipio":"","direccion":"","telefono":"","email":"","descripcion":"","url_imagen":"","longitud":-17.9186070420655,"latitud":28.8176595942897},"geometry":{"type":"Point","coordinates":[-17.918607,28.81766]}},{"type":"Feature","properties":{"id":38,"tipo":"iglesia","nombre":"Iglesia San Vicente Ferrer","municipio":"","direccion":"","telefono":"","email":"","descripcion":"","url_imagen":"","longitud":-17.8589932448234,"latitud":28.8283266358625},"geometry":{"type":"Point","coordinates":[-17.858993,28.828327]}},{"type":"Feature","properties":{"id":39,"tipo":"iglesia","nombre":"Iglesia de Nuestra Señora Monserrat","municipio":"","direccion":"","telefono":"","email":"","descripcion":"","url_imagen":"","longitud":-17.7739314208829,"latitud":28.8047378934038},"geometry":{"type":"Point","coordinates":[-17.773931,28.804738]}},{"type":"Feature","properties":{"id":40,"tipo":"iglesia","nombre":"Iglesia de San Andr","municipio":"","direccion":"","telefono":"","email":"","descripcion":"","url_imagen":"","longitud":-17.760579384295,"latitud":28.7996327689308},"geometry":{"type":"Point","coordinates":[-17.760579,28.799633]}},{"type":"Feature","properties":{"id":41,"tipo":"iglesia","nombre":"Iglesia de San Pedro","municipio":"","direccion":"","telefono":"","email":"","descripcion":"","url_imagen":"","longitud":-17.7763992413377,"latitud":28.7892800706797},"geometry":{"type":"Point","coordinates":[-17.776399,28.78928]}},{"type":"Feature","properties":{"id":42,"tipo":"iglesia","nombre":"Iglesia de San Juan Bautista","municipio":"","direccion":"","telefono":"","email":"","descripcion":"","url_imagen":"","longitud":-17.7638294912181,"latitud":28.7867417169253},"geometry":{"type":"Point","coordinates":[-17.763829,28.786742]}},{"type":"Feature","properties":{"id":43,"tipo":"iglesia","nombre":"Iglesia del Sagrado Corazsn","municipio":"","direccion":"","telefono":"","email":"","descripcion":"","url_imagen":"","longitud":-17.7478622019827,"latitud":28.7170492080742},"geometry":{"type":"Point","coordinates":[-17.747862,28.717049]}},{"type":"Feature","properties":{"id":44,"tipo":"iglesia","nombre":"Iglesia de Nuestra Señora de Candelaria","municipio":"","direccion":"","telefono":"","email":"","descripcion":"","url_imagen":"","longitud":-17.7663171783527,"latitud":28.7071469510083},"geometry":{"type":"Point","coordinates":[-17.766317,28.707147]}},{"type":"Feature","properties":{"id":45,"tipo":"iglesia","nombre":"Iglesia de Nuestra Señora del Carmen","municipio":"","direccion":"","telefono":"","email":"","descripcion":"","url_imagen":"","longitud":-17.7685549452439,"latitud":28.6969348668289},"geometry":{"type":"Point","coordinates":[-17.768555,28.696935]}},{"type":"Feature","properties":{"id":46,"tipo":"iglesia","nombre":"Iglesia de Nuestra Señora de la Encarnaci","municipio":"","direccion":"","telefono":"","email":"","descripcion":"","url_imagen":"","longitud":-17.7622935747517,"latitud":28.689530643316},"geometry":{"type":"Point","coordinates":[-17.762294,28.689531]}},{"type":"Feature","properties":{"id":47,"tipo":"iglesia","nombre":"Iglesia  de San Francisco de As s","municipio":"","direccion":"","telefono":"","email":"","descripcion":"","url_imagen":"","longitud":-17.7618503880217,"latitud":28.6870680240107},"geometry":{"type":"Point","coordinates":[-17.76185,28.687068]}},{"type":"Feature","properties":{"id":48,"tipo":"iglesia","nombre":"Iglesia de Santo Domingo","municipio":"","direccion":"","telefono":"","email":"","descripcion":"","url_imagen":"","longitud":-17.7663315470124,"latitud":28.6828088906151},"geometry":{"type":"Point","coordinates":[-17.766332,28.682809]}},{"type":"Feature","properties":{"id":49,"tipo":"iglesia","nombre":"Iglesia de San Telmo","municipio":"","direccion":"","telefono":"","email":"","descripcion":"","url_imagen":"","longitud":-17.7676181896759,"latitud":28.6811678698358},"geometry":{"type":"Point","coordinates":[-17.767618,28.681168]}},{"type":"Feature","properties":{"id":50,"tipo":"iglesia","nombre":"Iglesia Matriz de El Salvador","municipio":"","direccion":"","telefono":"","email":"","descripcion":"","url_imagen":"","longitud":-17.764920820915,"latitud":28.6836225340951},"geometry":{"type":"Point","coordinates":[-17.764921,28.683623]}},{"type":"Feature","properties":{"id":51,"tipo":"iglesia","nombre":"Iglesia de San Vicente Ferrer","municipio":"","direccion":"","telefono":"","email":"","descripcion":"","url_imagen":"","longitud":-17.7834292298766,"latitud":28.6895483394359},"geometry":{"type":"Point","coordinates":[-17.783429,28.689548]}},{"type":"Feature","properties":{"id":52,"tipo":"iglesia","nombre":"Iglesia de San Isidro Labrador","municipio":"","direccion":"","telefono":"","email":"","descripcion":"","url_imagen":"","longitud":-17.7970329168901,"latitud":28.6409715337493},"geometry":{"type":"Point","coordinates":[-17.797033,28.640972]}},{"type":"Feature","properties":{"id":53,"tipo":"iglesia","nombre":"Iglesia de San Jos9","municipio":"","direccion":"","telefono":"","email":"","descripcion":"","url_imagen":"","longitud":-17.7750282036465,"latitud":28.6456279857422},"geometry":{"type":"Point","coordinates":[-17.775028,28.645628]}},{"type":"Feature","properties":{"id":54,"tipo":"iglesia","nombre":"Iglesia de Nuestra Señora del Carmen","municipio":"","direccion":"","telefono":"","email":"","descripcion":"","url_imagen":"","longitud":-17.9632201526889,"latitud":28.7807700783275},"geometry":{"type":"Point","coordinates":[-17.96322,28.78077]}},{"type":"Feature","properties":{"id":55,"tipo":"iglesia","nombre":"Iglesia de Santa Cecilia","municipio":"","direccion":"","telefono":"","email":"","descripcion":"","url_imagen":"","longitud":-17.8677376218363,"latitud":28.5532759286418},"geometry":{"type":"Point","coordinates":[-17.867738,28.553276]}},{"type":"Feature","properties":{"id":56,"tipo":"iglesia","nombre":"Iglesia de Nuestra Señora de FCtima","municipio":"","direccion":"","telefono":"","email":"","descripcion":"","url_imagen":"","longitud":-17.9440416466134,"latitud":28.6774161027243},"geometry":{"type":"Point","coordinates":[-17.944042,28.677416]}},{"type":"Feature","properties":{"id":57,"tipo":"iglesia","nombre":"Iglesia del Buen Jes,s","municipio":"","direccion":"","telefono":"","email":"","descripcion":"","url_imagen":"","longitud":-17.9537549290671,"latitud":28.702423919825},"geometry":{"type":"Point","coordinates":[-17.953755,28.702424]}},{"type":"Feature","properties":{"id":58,"tipo":"iglesia","nombre":"Iglesia de Tinizara del Sagrado Coraznn","municipio":"","direccion":"","telefono":"","email":"","descripcion":"","url_imagen":"","longitud":-17.9690817988655,"latitud":28.7444630822447},"geometry":{"type":"Point","coordinates":[-17.969082,28.744463]}},{"type":"Feature","properties":{"id":59,"tipo":"iglesia","nombre":"Iglesia Nuestra Señora del Carmen","municipio":"","direccion":"","telefono":"","email":"","descripcion":"","url_imagen":"","longitud":-17.9439954651663,"latitud":28.651998908108},"geometry":{"type":"Point","coordinates":[-17.943995,28.651999]}},{"type":"Feature","properties":{"id":60,"tipo":"iglesia","nombre":"Iglesia de San Pedro Apdstol y Los Santos M","municipio":"","direccion":"","telefono":"","email":"","descripcion":"","url_imagen":"","longitud":-17.9209411660573,"latitud":28.6580547734867},"geometry":{"type":"Point","coordinates":[-17.920941,28.658055]}},{"type":"Feature","properties":{"id":61,"tipo":"iglesia","nombre":"Iglesia de San Isidro Labrador","municipio":"","direccion":"","telefono":"","email":"","descripcion":"","url_imagen":"","longitud":-17.9087073423642,"latitud":28.6320156182828},"geometry":{"type":"Point","coordinates":[-17.908707,28.632016]}},{"type":"Feature","properties":{"id":62,"tipo":"iglesia","nombre":"Iglesia Santa Marda Madre de la Iglesia","municipio":"","direccion":"","telefono":"","email":"","descripcion":"","url_imagen":"","longitud":-17.8584161883043,"latitud":28.5001618018092},"geometry":{"type":"Point","coordinates":[-17.858416,28.500162]}},{"type":"Feature","properties":{"id":63,"tipo":"iglesia","nombre":"Iglesia La Sagrada Familia","municipio":"","direccion":"","telefono":"","email":"","descripcion":"","url_imagen":"","longitud":-17.8893527549233,"latitud":28.6349646740932},"geometry":{"type":"Point","coordinates":[-17.889353,28.634965]}},{"type":"Feature","properties":{"id":64,"tipo":"iglesia","nombre":"Iglesia San Pgo X","municipio":"","direccion":"","telefono":"","email":"","descripcion":"","url_imagen":"","longitud":-17.9050174174808,"latitud":28.6190607123685},"geometry":{"type":"Point","coordinates":[-17.905017,28.619061]}},{"type":"Feature","properties":{"id":65,"tipo":"iglesia","nombre":"Iglesia de San Nicoles de Bari","municipio":"","direccion":"","telefono":"","email":"","descripcion":"","url_imagen":"","longitud":-17.8805128593451,"latitud":28.6021749351139},"geometry":{"type":"Point","coordinates":[-17.880513,28.602175]}},{"type":"Feature","properties":{"id":66,"tipo":"iglesia","nombre":"Iglesia La Santa Cruz","municipio":"","direccion":"","telefono":"","email":"","descripcion":"","url_imagen":"","longitud":-17.8382853055366,"latitud":28.8292242001017},"geometry":{"type":"Point","coordinates":[-17.838285,28.829224]}},{"type":"Feature","properties":{"id":67,"tipo":"iglesia","nombre":"Iglesia Nuestra Señora MarBa Auxiliadora","municipio":"","direccion":"","telefono":"","email":"","descripcion":"","url_imagen":"","longitud":-17.7830541660763,"latitud":28.8235200615555},"geometry":{"type":"Point","coordinates":[-17.783054,28.82352]}},{"type":"Feature","properties":{"id":68,"tipo":"iglesia","nombre":"Iglesia de San Blas","municipio":"","direccion":"","telefono":"","email":"","descripcion":"","url_imagen":"","longitud":-17.7767603060889,"latitud":28.6061810443124},"geometry":{"type":"Point","coordinates":[-17.77676,28.606181]}},{"type":"Feature","properties":{"id":69,"tipo":"iglesia","nombre":"Iglesia de Santo Domingo de Guzmin","municipio":"","direccion":"","telefono":"","email":"","descripcion":"","url_imagen":"","longitud":-17.8019141584691,"latitud":28.5510071643454},"geometry":{"type":"Point","coordinates":[-17.801914,28.551007]}},{"type":"Feature","properties":{"id":70,"tipo":"iglesia","nombre":"Iglesia de Nuestra Señora del Pilar","municipio":"","direccion":"","telefono":"","email":"","descripcion":"","url_imagen":"","longitud":-17.7634193239842,"latitud":28.6860437013927},"geometry":{"type":"Point","coordinates":[-17.763419,28.686044]}},{"type":"Feature","properties":{"id":71,"tipo":"iglesia","nombre":"Iglesia de San Antonio de Padua","municipio":"","direccion":"","telefono":"","email":"","descripcion":"","url_imagen":"","longitud":-17.7669560710178,"latitud":28.6462532689938},"geometry":{"type":"Point","coordinates":[-17.766956,28.646253]}},{"type":"Feature","properties":{"id":72,"tipo":"iglesia","nombre":"Iglesia de Nuestra Señora del Rosario","municipio":"","direccion":"","telefono":"","email":"","descripcion":"","url_imagen":"","longitud":-17.803215581699,"latitud":28.8297504604645},"geometry":{"type":"Point","coordinates":[-17.803216,28.82975]}},{"type":"Feature","properties":{"id":73,"tipo":"iglesia","nombre":"Iglesia y Mirador de La Concepcisn","municipio":"","direccion":"","telefono":"","email":"","descripcion":"","url_imagen":"","longitud":-17.7793320557259,"latitud":28.6746403156253},"geometry":{"type":"Point","coordinates":[-17.779332,28.67464]}},{"type":"Feature","properties":{"id":74,"tipo":"iglesia","nombre":"Iglesia de San Pedro Ap stol","municipio":"","direccion":"","telefono":"","email":"","descripcion":"","url_imagen":"","longitud":-17.786875531394,"latitud":28.6628575662342},"geometry":{"type":"Point","coordinates":[-17.786876,28.662858]}},{"type":"Feature","properties":{"id":75,"tipo":"iglesia","nombre":"Iglesia Matriz de Nuestra Se","municipio":"","direccion":"","telefono":"","email":"","descripcion":"","url_imagen":"","longitud":-17.9132613682759,"latitud":28.6591674270029},"geometry":{"type":"Point","coordinates":[-17.913261,28.659167]}},{"type":"Feature","properties":{"id":76,"tipo":"iglesia","nombre":"Iglesia de Argual","municipio":"","direccion":"","telefono":"","email":"","descripcion":"","url_imagen":"","longitud":-17.9275368619784,"latitud":28.654737201211},"geometry":{"type":"Point","coordinates":[-17.927537,28.654737]}},{"type":"Feature","properties":{"id":77,"tipo":"iglesia","nombre":"Iglesia del Pino de la Virgen","municipio":"","direccion":"","telefono":"","email":"","descripcion":"","url_imagen":"","longitud":-17.8413793261236,"latitud":28.6629689399402},"geometry":{"type":"Point","coordinates":[-17.841379,28.662969]}},{"type":"Feature","properties":{"id":78,"tipo":"iglesia","nombre":"Iglesia de San Mauro Abad","municipio":"","direccion":"","telefono":"","email":"","descripcion":"","url_imagen":"","longitud":-17.9898702018636,"latitud":28.7743375714982},"geometry":{"type":"Point","coordinates":[-17.98987,28.774338]}},{"type":"Feature","properties":{"id":79,"tipo":"iglesia","nombre":"Iglesia y Mirador de San Bartolomd","municipio":"","direccion":"","telefono":"","email":"","descripcion":"","url_imagen":"","longitud":-17.7567068622758,"latitud":28.7670510444332},"geometry":{"type":"Point","coordinates":[-17.756707,28.767051]}},{"type":"Feature","properties":{"id":80,"tipo":"iglesia","nombre":"Iglesia de Santa Luc","municipio":"","direccion":"","telefono":"","email":"","descripcion":"","url_imagen":"","longitud":-17.7500958522184,"latitud":28.7265386688817},"geometry":{"type":"Point","coordinates":[-17.750096,28.726539]}},{"type":"Feature","properties":{"id":81,"tipo":"iglesia","nombre":"Santuario Insular de las Nieves","municipio":"","direccion":"","telefono":"","email":"","descripcion":"","url_imagen":"","longitud":-17.7820614628459,"latitud":28.6943032807421},"geometry":{"type":"Point","coordinates":[-17.782061,28.694303]}},{"type":"Feature","properties":{"id":82,"tipo":"iglesia","nombre":"Iglesia San Josa","municipio":"","direccion":"","telefono":"","email":"","descripcion":"","url_imagen":"","longitud":-17.7627820662259,"latitud":28.6863183198724},"geometry":{"type":"Point","coordinates":[-17.762782,28.686318]}},{"type":"Feature","properties":{"id":83,"tipo":"iglesia","nombre":"Iglesia de San Sebastian","municipio":"","direccion":"","telefono":"","email":"","descripcion":"","url_imagen":"","longitud":-17.7657575266796,"latitud":28.6835422835167},"geometry":{"type":"Point","coordinates":[-17.765758,28.683542]}},{"type":"Feature","properties":{"id":84,"tipo":"iglesia","nombre":"Iglesia de San Miguel ArcNngel","municipio":"","direccion":"","telefono":"","email":"","descripcion":"","url_imagen":"","longitud":-17.9334359737513,"latitud":28.6440470407079},"geometry":{"type":"Point","coordinates":[-17.933436,28.644047]}},{"type":"Feature","properties":{"id":85,"tipo":"iglesia","nombre":"Iglesia de Nuestra Señora de Candelaria","municipio":"","direccion":"","telefono":"","email":"","descripcion":"","url_imagen":"","longitud":-17.9550981943701,"latitud":28.7109002860708},"geometry":{"type":"Point","coordinates":[-17.955098,28.7109]}},{"type":"Feature","properties":{"id":86,"tipo":"iglesia","nombre":"Iglesia del Santo Cristo del Planto","municipio":"","direccion":"","telefono":"","email":"","descripcion":"","url_imagen":"","longitud":-17.7696794031419,"latitud":28.6918512517006},"geometry":{"type":"Point","coordinates":[-17.769679,28.691851]}},{"type":"Feature","properties":{"id":87,"tipo":"iglesia","nombre":"Iglesia de Nuestra Señora de Las Angustias","municipio":"","direccion":"","telefono":"","email":"","descripcion":"","url_imagen":"","longitud":-17.9350391835164,"latitud":28.6615832382621},"geometry":{"type":"Point","coordinates":[-17.935039,28.661583]}},{"type":"Feature","properties":{"id":88,"tipo":"iglesia","nombre":"Iglesia del Santosimo Cristo","municipio":"","direccion":"","telefono":"","email":"","descripcion":"","url_imagen":"","longitud":-17.7698370688893,"latitud":28.6846314930407},"geometry":{"type":"Point","coordinates":[-17.769837,28.684631]}},{"type":"Feature","properties":{"id":89,"tipo":"iglesia","nombre":"Iglesia de Nuestra Señora de Bonanza","municipio":"","direccion":"","telefono":"","email":"","descripcion":"","url_imagen":"","longitud":-17.8791650703468,"latitud":28.6520134690704},"geometry":{"type":"Point","coordinates":[-17.879165,28.652013]}},{"type":"Feature","properties":{"id":90,"tipo":"iglesia","nombre":"Ermita de Santa Lucía.","municipio":"","direccion":"","telefono":"","email":"","descripcion":"","url_imagen":"","longitud":-17.7499157400013,"latitud":28.7265498301328},"geometry":{"type":"Point","coordinates":[-17.749916,28.72655]}},{"type":"Feature","properties":{"id":91,"tipo":"iglesia","nombre":"Real Santuario de Las Nieves.","municipio":"","direccion":"","telefono":"","email":"","descripcion":"","url_imagen":"","longitud":-17.7821782468795,"latitud":28.6943484517143},"geometry":{"type":"Point","coordinates":[-17.782178,28.694348]}},{"type":"Feature","properties":{"id":92,"tipo":"iglesia","nombre":"eqrgqer","municipio":"","direccion":"","telefono":"","email":"","descripcion":"","url_imagen":"","longitud":-17.7856374965757,"latitud":28.6869131709463},"geometry":{"type":"Point","coordinates":[-17.785637,28.686913]}}]}