{"type":"FeatureCollection","crs":{"type":"name","properties":{"name":"urn:ogc:def:crs:OGC:1.3:CRS84"}},"features":[{"type":"Feature","geometry":{"type":"Point","coordinates":[-17.789675,28.842834]},"properties":{"id":"piscinas-naturales-de-la-fajana","nombre":"Piscinas naturales de la Fajana","municipio":"Barlovento","categoria_lista":"Piscina natural","tipo_recurso":"Recreativo","tipo_ingreso":"Libre","accesible":"No","descripcion":"La zona recreativa está formada por tres piscinas naturales de suelo rocoso, las cuales aunque soportan un fuerte oleaje durante los meses de invierno, en las temporadas de verano es un entorno ideal para el disfrute de un día de baño y esparcimiento. Actividades:  Senderismo. Buceo (verano). Excursiones. Pesca Submarina (verano). Toma de Fotografías. Hitos:  El Faro de Punta Cumplida. Puerto de Talavera. Forma de Acceso:","direccion":"","web_externa":"https://barlovento.es/","imagen":"https://lapalmasmart.lapalma.es/sites/default/files/styles/wide/public/resources/img/121%203%20La%20Palma_Piscinas%20Naturales%20de%20la%20Fajana.jpeg?itok=0acqth6Z","url_ficha":"https://lapalmasmart.lapalma.es/recursos/piscinas-naturales-de-la-fajana"}},{"type":"Feature","geometry":{"type":"Point","coordinates":[-17.762125,28.807941]},"properties":{"id":"piscinas-naturales-del-charco-azul","nombre":"Piscinas naturales del Charco Azul","municipio":"San Andrés y Sauces","categoria_lista":"Playa","tipo_recurso":"Recreativo","tipo_ingreso":"Libre","accesible":"No","descripcion":"Las piscinas naturales de Charco Azul son una zona de ocio y recreo turístico, con área de baño, para tomar el sol, servicios y también dispone de bar y un restaurante. Se encuentran ubicadas entre el pequeño puerto pesquero de Puerto Espíndola y San Andrés, en una costa rocosa. Forma de Acceso: En automóvil. Se llega por la carretera del norte LP-1 con dirección a San Andrés y Sauces. Antes de llegar al casco urbano nos desviamos por la carretera LP-104 que nos lleva hacia las piscinas del Charco Azul. Municipios:","direccion":"","web_externa":"https://sanandresysauces.es/","imagen":"https://lapalmasmart.lapalma.es/sites/default/files/styles/wide/public/resources/img/Piscinas%20naturales%20del%20Charco%20Azul.jpg?itok=EQNxLJPM","url_ficha":"https://lapalmasmart.lapalma.es/recursos/piscinas-naturales-del-charco-azul"}},{"type":"Feature","geometry":{"type":"Point","coordinates":[-17.739239,28.759221]},"properties":{"id":"playa-de-nogales","nombre":"Playa de Nogales","municipio":"Puntallana","categoria_lista":"Playa","tipo_recurso":"Recreativo","tipo_ingreso":"Libre","accesible":"No","descripcion":"Posiblemente la mejor playa de la isla de La Palma. Natural y salvaje, esta playa se encuentra en un paraje rústico y aislado de la costa de Puntallana. Se accede a pie durante un cuarto de hora, más o menos, desde el lugar donde se deja el coche, por un sendero bien acondicionado que bordea el acantilado. La Playa está formada por fina arena negra volcánica y rodeada por acantilados y rocas.","direccion":"","web_externa":"http://puntallana.es/web/","imagen":"https://lapalmasmart.lapalma.es/sites/default/files/styles/wide/public/resources/img/PLAYA-DE-NOGALES-LA-PALMA.jpg?itok=LH43Lmx_","url_ficha":"https://lapalmasmart.lapalma.es/recursos/playa-de-nogales"}},{"type":"Feature","geometry":{"type":"Point","coordinates":[-17.756824,28.767053]},"properties":{"id":"mirador-de-san-bartolo","nombre":"Mirador de San Bartolo","municipio":"Puntallana","categoria_lista":"Mirador","tipo_recurso":"","tipo_ingreso":"","accesible":"No","descripcion":"Este mirador se encuentra en la zona de San Bartolomé, en el barrio de La Galga. Desde aquí, podrá disfrutar de impresionantes vistas del municipio. La Leyenda del Salto del Enamorado, conmemorada con un monumento en el lugar, cuenta la historia de un valiente pastor que se enamoró de una bella campesina. Ella lo retó a saltar el barranco usando su lanza como pértiga a cambio de su amor. Impulsado por la pasión y cegado por el amor, aceptó el reto, pero trágicamente se precipitó a las profundidades del barranco, dejando tras de sí una historia que perdura en la memoria.","direccion":"","web_externa":"","imagen":"https://lapalmasmart.lapalma.es/sites/default/files/styles/wide/public/resources/img/89%201%20La%20Palma_Mirador%20de%20San%20Bartolo_David%20Rosario%20-%20copia.jpeg?itok=GclmeWSy","url_ficha":"https://lapalmasmart.lapalma.es/recursos/mirador-de-san-bartolo"}},{"type":"Feature","geometry":{"type":"Point","coordinates":[-17.803683,28.809098]},"properties":{"id":"area-recreativa-la-laguna-de-barlovento","nombre":"Área recreativa La Laguna de Barlovento","municipio":"Barlovento","categoria_lista":"Área recreativa","tipo_recurso":"Recreativo","tipo_ingreso":"","accesible":"No","descripcion":"La Laguna de Barlovento es un cráter situado a unos 600 metros de altitud en el municipio de Barlovento. Allí se encuentra situada la mayor presa artificial de la Isla. Alrededor de la cual se ha desarrollado un área recreativa y un entorno de alto interés ecológico, debido a la variada fauna y flora que presenta. Actividades:  Observación de flora o fauna. Senderismo. Acampada. Ciclismo. Excursiones. Forma de Acceso:","direccion":"","web_externa":"","imagen":"https://lapalmasmart.lapalma.es/sites/default/files/styles/wide/public/resources/img/laguna%20barlovento.jpg?itok=vbf8kt2m","url_ficha":"https://lapalmasmart.lapalma.es/recursos/area-recreativa-la-laguna-de-barlovento"}},{"type":"Feature","geometry":{"type":"Point","coordinates":[-17.747243,28.739893]},"properties":{"id":"mercadillo-de-puntallana","nombre":"Mercadillo de Puntallana","municipio":"Puntallana","categoria_lista":"Imprescindible","tipo_recurso":"Cultural","tipo_ingreso":"Libre","accesible":"No","descripcion":"El Mercadillo  acoge a agricultores y ganaderos de Puntallana ofreciendo la magnífica oportunidad a los consumidores de obtener productos locales de primera calidad a los mejores precios, tales como: verduras, frutas, miel, repostería y vinos. Forma de Acceso: En automóvil. Por la carretera del norte LP-1 se llega al núcleo urbano del municipio. Allí encontramos la plaza de San Juan en la que se instala el Mercadillo. Municipios: Puntallana. Información:","direccion":"","web_externa":"","imagen":"https://lapalmasmart.lapalma.es/sites/default/files/styles/wide/public/resources/img/puntallana.jpg?itok=Ew6uXHuQ","url_ficha":"https://lapalmasmart.lapalma.es/recursos/mercadillo-de-puntallana"}},{"type":"Feature","geometry":{"type":"Point","coordinates":[-17.808033,28.783204]},"properties":{"id":"mirador-del-espigon-atravesado","nombre":"Mirador del Espigón Atravesado","municipio":"San Andrés y Sauces","categoria_lista":"Imprescindible","tipo_recurso":"","tipo_ingreso":"","accesible":"No","descripcion":"Mirador","direccion":"","web_externa":"","imagen":"https://lapalmasmart.lapalma.es/sites/default/files/styles/wide/public/resources/img/91%201%20La%20Palma_Mirador%20del%20Espig%C3%B3n%20Atravesado_Imanol%20Zuaznabar%20%26%20David%20de%20la%20Iglesia.jpg?itok=LcaU6yYa","url_ficha":"https://lapalmasmart.lapalma.es/recursos/mirador-del-espigon-atravesado"}},{"type":"Feature","geometry":{"type":"Point","coordinates":[-17.760998,28.689237]},"properties":{"id":"castillo-de-la-virgen","nombre":"Castillo de la Virgen","municipio":"Santa Cruz de la Palma","categoria_lista":"Imprescindible","tipo_recurso":"","tipo_ingreso":"","accesible":"No","descripcion":"El Castillo de la Virgen, situado en las alturas de Santa Cruz de La Palma, es una fortificación del siglo XVII construida como parte del sistema defensivo de la ciudad frente a ataques piratas. La estructura actual fue levantada entre 1685 y 1692 sobre los restos de una anterior fortaleza erigida tras el ataque de 1553.","direccion":"","web_externa":"","imagen":"https://lapalmasmart.lapalma.es/sites/default/files/styles/wide/public/resources/img/Castillo%20de%20la%20Virgen.JPG?itok=aHXWB6Lo","url_ficha":"https://lapalmasmart.lapalma.es/recursos/castillo-de-la-virgen"}},{"type":"Feature","geometry":{"type":"Point","coordinates":[-17.761093,28.688142]},"properties":{"id":"barco-de-la-virgen","nombre":"Barco de la Virgen","municipio":"Santa Cruz de la Palma","categoria_lista":"Imprescindible","tipo_recurso":"Cultural","tipo_ingreso":"","accesible":"No","descripcion":"La imagen del Barco de la Virgen evoca ese pasado marinero y emigrante que a lo largo de toda su historia ha caracterizado al palmero, como época en la que se emigra a América, fundamentalmente a Cuba. Es una reproducción de la Santa María con la cuál Colón llegó a las costas americanas en 1.492. Además, el Barco es escenario de uno de los números tradicionales de las Fiestas Lustrales de la Bajada de la Virgen: el diálogo entre El Castillo y La Nave. Hoy día, en su interior y como recuerdo de ese pasado, se encuentra el Museo Naval de Santa Cruz de La Palma.","direccion":"","web_externa":"http://www.museonavaldelbarco.es/","imagen":"https://lapalmasmart.lapalma.es/sites/default/files/styles/wide/public/resources/img/51d786d8-da7c-4c1d-8837-c38daeb6f0a2_source-aspect-ratio_default_0.jpg?itok=BALbncXT","url_ficha":"https://lapalmasmart.lapalma.es/recursos/barco-de-la-virgen"}},{"type":"Feature","geometry":{"type":"Point","coordinates":[-17.761266,28.687698]},"properties":{"id":"plaza-de-la-alameda","nombre":"Plaza de la Alameda","municipio":"Santa Cruz de la Palma","categoria_lista":"Imprescindible","tipo_recurso":"","tipo_ingreso":"","accesible":"No","descripcion":"La Plaza de La Alameda es uno de los espacios más emblemáticos de Santa Cruz de La Palma, presidida por la imponente réplica a escala real del navío Santa María, conocida popularmente como el Barco de la Virgen. Esta singular construcción, inaugurada en 1940 con motivo de las Fiestas Lustrales de la Bajada de la Virgen de las Nieves, rinde homenaje a la tradición marítima de la isla y alberga en su interior el Museo Naval, donde se exponen piezas históricas relacionadas con la navegación y la historia local.","direccion":"","web_externa":"","imagen":"https://lapalmasmart.lapalma.es/sites/default/files/styles/wide/public/resources/img/58%201%20La%20Palma_Plaza%20de%20la%20Alameda.jpg?itok=wKwKETc7","url_ficha":"https://lapalmasmart.lapalma.es/recursos/plaza-de-la-alameda"}},{"type":"Feature","geometry":{"type":"Point","coordinates":[-17.762111,28.687012]},"properties":{"id":"museo-insular-de-la-palma","nombre":"Museo Insular de La Palma","municipio":"Santa Cruz de la Palma","categoria_lista":"Imprescindible","tipo_recurso":"Cultural","tipo_ingreso":"","accesible":"","descripcion":"Descripción: Situado en el antiguo convento franciscano del siglo XVI. El edificio, construido según los modos de arquitectura tradicional de las islas, se organiza en torno a dos grandes patios con corredores de madera: claustro pequeño del siglo XVI, y el grande, del siglo XVIII. Desde 1986 se ha instalado en él el Museo Insular de La Palma que consta de varias secciones: arqueología, etnología, ciencias naturales y náutica. Equipos e instalaciones:","direccion":"","web_externa":"http://www.santacruzdelapalma.es/","imagen":"https://lapalmasmart.lapalma.es/sites/default/files/styles/wide/public/resources/img/museo-insular.jpg?itok=JxP6tfRJ","url_ficha":"https://lapalmasmart.lapalma.es/recursos/museo-insular-de-la-palma"}},{"type":"Feature","geometry":{"type":"Point","coordinates":[-17.761958,28.686804]},"properties":{"id":"plaza-de-san-francisco","nombre":"Plaza de San Francisco","municipio":"Santa Cruz de la Palma","categoria_lista":"Imprescindible","tipo_recurso":"","tipo_ingreso":"","accesible":"No","descripcion":"Descripción:","direccion":"","web_externa":"","imagen":"https://lapalmasmart.lapalma.es/sites/default/files/styles/wide/public/resources/img/57%201%20La%20Palma_Plaza%20de%20San%20Francisco%201_Mauro%20Castro.jpg?itok=IQ43ginL","url_ficha":"https://lapalmasmart.lapalma.es/recursos/plaza-de-san-francisco"}},{"type":"Feature","geometry":{"type":"Point","coordinates":[-17.761872,28.685265]},"properties":{"id":"playa-de-santa-cruz-de-la-palma","nombre":"Playa de Santa Cruz de La Palma","municipio":"Santa Cruz de la Palma","categoria_lista":"Playa","tipo_recurso":"Recreativo","tipo_ingreso":"Libre","accesible":"","descripcion":"Descripción: Se trata de una playa artificial de fina arena negra, característica de las islas volcánicas, que sustituye a la histórica playa de callaos y guijarros conocida como Caleta del Varadero. Fue inaugurada en abril de 2017, seis años después del comienzo de la obra del Frente Litoral de Santa Cruz de La Palma. Gracias la construcción de la playa, de 1230 metros de longitud y 50 de anchura, Santa Cruz de La Palma ha recuperado el contacto directo con el Océano Atlántico, que se había perdido desde 1949 con la construcción de la actual Avenida Marítima.","direccion":"","web_externa":"","imagen":"https://lapalmasmart.lapalma.es/sites/default/files/styles/wide/public/resources/img/116%201%20La%20Palma_Playa%20de%20Santa%20Cruz%20de%20La%20Palma_Sa%C3%BAl%20Santos.jpg?itok=_KsEjXrs","url_ficha":"https://lapalmasmart.lapalma.es/recursos/playa-de-santa-cruz-de-la-palma"}},{"type":"Feature","geometry":{"type":"Point","coordinates":[-17.762893,28.684789]},"properties":{"id":"balcones-de-la-avenida-maritima","nombre":"Balcones de la Avenida Marítima","municipio":"Santa Cruz de la Palma","categoria_lista":"Imprescindible","tipo_recurso":"Arquitectónico","tipo_ingreso":"","accesible":"No","descripcion":"Descripción   Son los balcones de la parte trasera de algunas casas, cuya fachada principal mira hacia la calle Real, los balcones dobles están situados en la Avda. Marítima, frente al mar y son exclusivos de La Isla de La Palma. Las casas tienen el esquema portugués (estrechas y altas) y sus balcones cubiertos de celosías, conocido como balcón de ajimeces, tiene origen árabe y forma de caja cerrada. Hitos Museo Naval, Barco de La Virgen. Real Castillo de Santa Catalina. Forma de Acceso:","direccion":"","web_externa":"","imagen":"https://lapalmasmart.lapalma.es/sites/default/files/styles/wide/public/resources/img/balcones-de-la-palma.jpg?itok=boZi3ekp","url_ficha":"https://lapalmasmart.lapalma.es/recursos/balcones-de-la-avenida-maritima"}},{"type":"Feature","geometry":{"type":"Point","coordinates":[-17.764834,28.683345]},"properties":{"id":"plaza-de-espana-de-santa-cruz-de-la-palma","nombre":"Plaza de España de Santa Cruz de La Palma","municipio":"Santa Cruz de la Palma","categoria_lista":"Imprescindible","tipo_recurso":"Arquitectónico","tipo_ingreso":"Libre","accesible":"No","descripcion":"Descripción Esta plaza fue conocida como la Plaza Principal hasta 1835, después se llamó Plaza de la Constitución y luego Plaza de España (nombre actual). Se encuentra en el centro principal de Santa Cruz de la Palma, donde se exhibe la escultura de bronce del sacerdote Manuel Díaz (1774-1863). A su alrededor, aparecen importantes edificios como el Ayuntamiento de Santa Cruz de la Palma, la Iglesia de El Salvador, la Fuente y la Universidad Nacional de Educación a Distancia (UNED). Hitos:","direccion":"","web_externa":"","imagen":"https://lapalmasmart.lapalma.es/sites/default/files/styles/wide/public/resources/img/46%201%20La%20Palma_Plaza%20de%20Espa%C3%B1a_Santa%20Cruz%20de%20La%20Palma_Dominic%20D%C3%A4hncke.JPG?itok=NfBYyGuX","url_ficha":"https://lapalmasmart.lapalma.es/recursos/plaza-de-espana-de-santa-cruz-de-la-palma"}},{"type":"Feature","geometry":{"type":"Point","coordinates":[-17.764758,28.68319]},"properties":{"id":"ayuntamiento-de-santa-cruz-de-la-palma","nombre":"Ayuntamiento de Santa Cruz de La Palma","municipio":"Santa Cruz de la Palma","categoria_lista":"Imprescindible","tipo_recurso":"Arquitectónico","tipo_ingreso":"Libre","accesible":"","descripcion":"Descripción","direccion":"","web_externa":"","imagen":"https://lapalmasmart.lapalma.es/sites/default/files/styles/wide/public/resources/img/La%20Palma%2018-29_Atrio%20Ayuntamiento_Mauro%20Castro.jpg?itok=1hvReJ-E","url_ficha":"https://lapalmasmart.lapalma.es/recursos/ayuntamiento-de-santa-cruz-de-la-palma"}},{"type":"Feature","geometry":{"type":"Point","coordinates":[-17.765713,28.682216]},"properties":{"id":"palacio-de-salazar","nombre":"Palacio de Salazar","municipio":"Santa Cruz de la Palma","categoria_lista":"Imprescindible","tipo_recurso":"Arquitectónico","tipo_ingreso":"Libre","accesible":"No","descripcion":"Data de la primera mitad del siglo XVII y fue modificada posteriormente por Don Ventura de Salazar, Caballero de la Orden de Calatrava. Su fachada es completamente de piedra con columnas de fuste helicoidal flanqueando la entrada, y en su frontón quebrado se encuentra, sobre el vano del balcón, el escudo de armas de Salazar realizado en mármol. El interior se articula en torno a un patio rodeado de columnas que sostienen la galería perimetral de la segunda planta.","direccion":"","web_externa":"","imagen":"https://lapalmasmart.lapalma.es/sites/default/files/styles/wide/public/resources/img/45%202%20La%20Palma%20_%20Palacio%20Salaza%20_%20Damian%20Martin%20Brito.jpg?itok=0fWjNUTd","url_ficha":"https://lapalmasmart.lapalma.es/recursos/palacio-de-salazar"}},{"type":"Feature","geometry":{"type":"Point","coordinates":[-17.766384,28.682569]},"properties":{"id":"plaza-de-santo-domingo","nombre":"Plaza de Santo Domingo","municipio":"Santa Cruz de la Palma","categoria_lista":"Imprescindible","tipo_recurso":"Arquitectónico","tipo_ingreso":"Libre","accesible":"No","descripcion":"La Iglesida de Santa Domingo fue reconstruida después del incendio provocado por los piratas franceses en 1.553. Su interior es de una sola nave con capillas laterales cubiertas con armaduras mudéjares policromadas y doradas. En él conviven estéticamente un conjunto de estilos artísticos diferentes como el Renacentista, plasmado en su arquitectura, el Barroco, presente en sus retablos de columnas salomónicas y el Neoclásico representado en sus obras escultóricas. Hitos:","direccion":"","web_externa":"","imagen":"https://lapalmasmart.lapalma.es/sites/default/files/styles/wide/public/resources/img/santo%20domingo.jpg?itok=sXb8h65q","url_ficha":"https://lapalmasmart.lapalma.es/recursos/plaza-de-santo-domingo"}},{"type":"Feature","geometry":{"type":"Point","coordinates":[-17.76897,28.669974]},"properties":{"id":"playa-de-bajamar","nombre":"Playa de Bajamar","municipio":"Breña Alta","categoria_lista":"Imprescindible","tipo_recurso":"Recreativo","tipo_ingreso":"Libre","accesible":"","descripcion":"Descripción Se trata de una playa semiurbana de arena negra que ocupa gran parte del litoral de Breña Alta. La playa mide alrededor de 700 metros de largo y 43 de ancho y es considerada la segunda playa más visitada por los bañistas durante los meses de verano, actualmente dispone de bandera azul. Actividades:  Baño. Volley-playa. Fútbol playa (verano). Juegos Infantiles. Hitos:","direccion":"","web_externa":"http://www.balta.org/","imagen":"https://lapalmasmart.lapalma.es/sites/default/files/styles/wide/public/resources/img/Playa%20de%20Bajamar.jpg?itok=CoqURyoq","url_ficha":"https://lapalmasmart.lapalma.es/recursos/playa-de-bajamar"}},{"type":"Feature","geometry":{"type":"Point","coordinates":[-17.778368,28.673467]},"properties":{"id":"mirador-de-la-concepcion","nombre":"Mirador de la Concepción","municipio":"Breña Alta","categoria_lista":"Imprescindible","tipo_recurso":"","tipo_ingreso":"Libre","accesible":"No","descripcion":"El Risco de la Concepción es un edificio volcánico de origen submarino con forma de media luna. Cuenta con una caída de más de 300 metros de altura, cerrando por el sur la ciudad de Santa Cruz de La Palma. El particular origen de su estructura volcánica y sus materiales de color amarilloso le confieren un gran interés científico, geológico y geomorfológico. Dada su situación, el Monumento se incluye en el piso bioclimático infra y termocanario semiárido, correspondiéndole una vegetación potencial del termófilo, convirtiéndose en cardonal – tabaibal al descender de cota.","direccion":"","web_externa":"","imagen":"https://lapalmasmart.lapalma.es/sites/default/files/styles/wide/public/resources/img/102%201%20La%20Palma_Mirador%20de%20la%20Concepci%C3%B3n_Panor%C3%A1mica%20Santa%20Cruz%20de%20La%20Palma_by%20Gio.jpg?itok=IwxmOIiF","url_ficha":"https://lapalmasmart.lapalma.es/recursos/mirador-de-la-concepcion"}},{"type":"Feature","geometry":{"type":"Point","coordinates":[-17.760371,28.65284]},"properties":{"id":"playa-de-los-cancajos","nombre":"Playa de los Cancajos","municipio":"Breña Baja","categoria_lista":"Playa","tipo_recurso":"Recreativo","tipo_ingreso":"Libre","accesible":"No","descripcion":"La playa de Los Cancajos se ha convertido en un núcleo turístico de referencia en la Isla de La Palma junto con Puerto Naos. Posee un paseo marítimo, el cuál discurre a lo largo de una sucesión de calas de arena negra y salientes. Su fama en la zona queda acreditada por su ecoetiqueta bandera azul que viene recibiendo desde hace años, garantizando el cumplimiento de unos criterios de legalidad, sanidad, limpieza y seguridad Actividades:","direccion":"","web_externa":"","imagen":"https://lapalmasmart.lapalma.es/sites/default/files/styles/wide/public/resources/img/131%201%20La%20Palma_Playa%20de%20los%20Cancajos_Sa%C3%BAl%20Santos.jpg?itok=Rrmvo8vs","url_ficha":"https://lapalmasmart.lapalma.es/recursos/playa-de-los-cancajos"}},{"type":"Feature","geometry":{"type":"Point","coordinates":[-17.787221,28.667432]},"properties":{"id":"museo-del-puro-palmero-y-la-fiesta-de-las-cruces","nombre":"Museo del Puro Palmero y la Fiesta de Las Cruces","municipio":"Breña Alta","categoria_lista":"Imprescindible","tipo_recurso":"Cultural","tipo_ingreso":"Residente canario: 2€","accesible":"No","descripcion":"El Museo del Puro Palmero plasma lo que para Breña Alta ha significado uno de los principales motores económicos más importantes para el municipio, sobre todo entre las décadas de los años 20 y los 60. En su interior alberga interesantes paneles interpretativos, equipos multimedia y exposición de utensilios y herramientas que dan a conocer las peculiaridades que conlleva el cultivo y proceso de elaboración del afamado puro palmero.","direccion":"","web_externa":"http://museodelpuropalmero.com/","imagen":"https://lapalmasmart.lapalma.es/sites/default/files/styles/wide/public/resources/img/20221026_0953.jpg?itok=4StlkI5u","url_ficha":"https://lapalmasmart.lapalma.es/recursos/museo-del-puro-palmero-y-la-fiesta-de-las-cruces"}},{"type":"Feature","geometry":{"type":"Point","coordinates":[-17.884986,28.754393]},"properties":{"id":"roque-de-los-muchachos","nombre":"Roque de los Muchachos","municipio":"El Paso","categoria_lista":"Imprescindible","tipo_recurso":"Mirador","tipo_ingreso":"Libre","accesible":"No","descripcion":"El Mirador del Roque de los Muchachos es el mirador por excelencia de la Isla y se encuentra en el punto más alto de La Palma a 2.426 metros sobre el nivel del mar. El nombre de Roque de Los Muchachos proviene de la forma del mismo, pues son una serie de pequeños roques de unos 3 metros de altura, que se asemejan a un grupo de muchachos. Desde allí se observa una impresionante vista del Parque Nacional de La Caldera de Taburiente, donde dependiendo de las condiciones climatológicas es posible divisar las otras tres islas de la provincia (Tenerife, La Gomera y El Hierro).","direccion":"","web_externa":"","imagen":"https://lapalmasmart.lapalma.es/sites/default/files/styles/wide/public/resources/img/La%20Palma_Paisaje%20Cumbre_Abi%C3%A1n%20San%20Gil.jpg?itok=jM5u7qBt","url_ficha":"https://lapalmasmart.lapalma.es/recursos/roque-de-los-muchachos"}},{"type":"Feature","geometry":{"type":"Point","coordinates":[-17.884932,28.754186]},"properties":{"id":"mirador-del-roque-de-los-muchachos","nombre":"Mirador del Roque de los Muchachos","municipio":"Garafía","categoria_lista":"Imprescindible","tipo_recurso":"Mirador","tipo_ingreso":"Libre","accesible":"No","descripcion":"El Mirador del Roque de los Muchachos es el mirador por excelencia de la Isla y se encuentra en el punto más alto de La Palma a 2.426 metros sobre el nivel del mar. El nombre de Roque de Los Muchachos proviene de la forma del mismo, pues son una serie de pequeños roques de unos 3 metros de altura, que se asemejan a un grupo de muchachos. Desde allí se observa una impresionante vista del Parque Nacional de La Caldera de Taburiente, donde dependiendo de las condiciones climatológicas es posible divisar las otras tres islas de la provincia (Tenerife, La Gomera y El Hierro).","direccion":"","web_externa":"","imagen":"https://lapalmasmart.lapalma.es/sites/default/files/styles/wide/public/resources/img/Mirador%20del%20Roque%20de%20los%20Muchachos.JPG?itok=Nc6aS740","url_ficha":"https://lapalmasmart.lapalma.es/recursos/mirador-del-roque-de-los-muchachos"}},{"type":"Feature","geometry":{"type":"Point","coordinates":[-17.899403,28.766977]},"properties":{"id":"centro-de-visitantes-del-roque-de-los-muchachos","nombre":"Centro de Visitantes del Roque de los Muchachos","municipio":"Garafía","categoria_lista":"Imprescindible","tipo_recurso":"","tipo_ingreso":"","accesible":"No","descripcion":"El Centro de Visitantes del Roque de los Muchachos está enclavado alrededor de un entorno paisajístico único a 2426 metros de altitud que garantizan las mejores condiciones para la observación astronómica, albergando en su cercanía uno de los observatorios de Astrofísica más importantes del mundo. El objetivo principal del centro de visitantes es acercar y dar a conocer la importancia de la Astronomía en la Isla de La Palma, promocionando así el patrimonio natural y cultural del punto más alto de la isla de La Palma.","direccion":"","web_externa":"","imagen":"https://lapalmasmart.lapalma.es/sites/default/files/styles/wide/public/resources/img/135%203%20La%20Palma_Centro%20de%20Visitantes%20Roque%20de%20Los%20Muchachos1_Van%20Marty.jpg?itok=freeOrsC","url_ficha":"https://lapalmasmart.lapalma.es/recursos/centro-de-visitantes-del-roque-de-los-muchachos"}},{"type":"Feature","geometry":{"type":"Point","coordinates":[-17.871054,28.724535]},"properties":{"id":"parque-nacional-de-la-caldera-de-taburiente","nombre":"Parque Nacional de La Caldera de Taburiente","municipio":"El Paso","categoria_lista":"Imprescindible","tipo_recurso":"","tipo_ingreso":"Libre","accesible":"No","descripcion":"El Parque Nacional de la Caldera de Taburiente, debido a su impresionante belleza paisajística es uno de los recursos turísticos más emblemáticos e importantes con el que cuenta la Isla de La Palma. Es una enorme depresión de unos 1.500 metros de desnivel y de casi 8 kms de diámetro, que se abren hacia el suroeste por el profundo Barranco de Las Angustias. Fue declarado Parque Nacional en el año 1954 por ser un paraje de inigualables condiciones geológicas, además de poseer un alto porcentaje de flora y fauna exclusiva de la Isla.","direccion":"","web_externa":"http://www.reservasparquesnacionales.es/","imagen":"https://lapalmasmart.lapalma.es/sites/default/files/styles/wide/public/resources/img/LaPalma_CalderadeTaburiente1_JavierCamacho-scaled.jpg?itok=NLhvnOla","url_ficha":"https://lapalmasmart.lapalma.es/recursos/parque-nacional-de-la-caldera-de-taburiente"}},{"type":"Feature","geometry":{"type":"Point","coordinates":[-17.856485,28.697914]},"properties":{"id":"mirador-de-la-cumbrecita","nombre":"Mirador de la Cumbrecita","municipio":"El Paso","categoria_lista":"Imprescindible","tipo_recurso":"Mirador","tipo_ingreso":"Haciendo su solicitud vía online a través de esta web, pulsando la opción «RESERVAS» del menú superior","accesible":"No","descripcion":"El mirador de La Cumbrecita se encuentra en el interior del Parque Nacional de la Caldera de Taburiente y es uno de los miradores más frecuentados de la Isla por su alta belleza y sus vistas hacia el interior de La Caldera. Desde este mirador parte la Ruta de las Galerías, que llega hasta la zona de acampada de la Caldera de Taburiente, siendo un recorrido sólo apto para senderistas expertos. Actividades:  Observación de flora o fauna. Senderismo. Toma de Fotografías. Excursiones. Hitos:","direccion":"","web_externa":"http://www.reservasparquesnacionales.es/","imagen":"https://lapalmasmart.lapalma.es/sites/default/files/styles/wide/public/resources/img/99%201%20La%20Palma_Subida%20Mirador%20La%20Cumbrecita_David%20Rosario.jpg?itok=2AdnnFT5","url_ficha":"https://lapalmasmart.lapalma.es/recursos/mirador-de-la-cumbrecita"}},{"type":"Feature","geometry":{"type":"Point","coordinates":[-17.778025,28.606]},"properties":{"id":"escuela-de-artesania","nombre":"Escuela de Artesanía","municipio":"Villa de Mazo","categoria_lista":"Imprescindible","tipo_recurso":"Cultural","tipo_ingreso":"Libre","accesible":"No","descripcion":"Villa de Mazo ha sido considerado tradicionalmente el municipio artesano por excelencia de la Isla de La Palma y cuenta con el mayor número de artesanos censados con una amplia representación de los distintos oficios artesanales, constituyendo junto al resto de municipios una de las más interesantes, variadas, ricas y mejor conservadas artesanías de Canarias.","direccion":"","web_externa":"","imagen":"https://lapalmasmart.lapalma.es/sites/default/files/styles/wide/public/resources/img/escuela.jpg?itok=jdp5V8f_","url_ficha":"https://lapalmasmart.lapalma.es/recursos/escuela-de-artesania"}},{"type":"Feature","geometry":{"type":"Point","coordinates":[-17.841355,28.663057]},"properties":{"id":"pino-de-la-virgen-y-ermita-de-la-virgen-del-pino","nombre":"Pino de la Virgen y Ermita de la Virgen del Pino","municipio":"El Paso","categoria_lista":"Imprescindible","tipo_recurso":"Arquitectónico","tipo_ingreso":"Libre","accesible":"No","descripcion":"En la parte alta de El Paso, a la vera de un antiguo camino real, se halla esta pequeña ermita inaugurada en 1930, donde se venera a la Virgen María bajo la advocación de Virgen del Pino, ya que según la tradición, la imagen de la Virgen apareció en el gigantesco pino canario que se alza en la plaza de La Ermita. Este pino es uno de los ejemplares más corpulentos de Canarias y recientes estudios cifran su edad en torno a los 600-800 años. En el año 1927, se comenzó a construir la ermita actual en los terrenos donados por los vecinos, quienes crearon una comisión para recaudar fondos.","direccion":"","web_externa":"http://www.lapalmacit.com/","imagen":"https://lapalmasmart.lapalma.es/sites/default/files/styles/wide/public/resources/img/pino1.jpg?itok=g58E5BV_","url_ficha":"https://lapalmasmart.lapalma.es/recursos/pino-de-la-virgen-y-ermita-de-la-virgen-del-pino"}},{"type":"Feature","geometry":{"type":"Point","coordinates":[-17.976363,28.789189]},"properties":{"id":"migo-centro-de-interpretacion-del-gofio","nombre":"MIGO - Centro de Interpretación del Gofio","municipio":"Garafía","categoria_lista":"Imprescindible","tipo_recurso":"","tipo_ingreso":"","accesible":"No","descripcion":"El Museo de Interpretación del Gofio (MIGO) se inauguró el 2 de abril de 2016, en el antiguo molino de Las Tricias. A este molino acudía gente de todos los pagos de Garafía. Debido a la privilegiada situación de las instalaciones, los que vivían en su entorno podían ver sus aspas y saber si estaban o no en funcionamiento para llevar el grano. Los molinos eran importantes puntos de encuentro. Desde el año 2000 este molino es propiedad del Ayuntamiento de la Villa de Garafía, que se ha encargado de su restauración.","direccion":"","web_externa":"","imagen":"https://lapalmasmart.lapalma.es/sites/default/files/styles/wide/public/resources/img/migo2.jpg?itok=VkRlxq-b","url_ficha":"https://lapalmasmart.lapalma.es/recursos/migo-centro-de-interpretacion-del-gofio"}},{"type":"Feature","geometry":{"type":"Point","coordinates":[-17.97374,28.779297]},"properties":{"id":"mercadillo-de-puntagorda","nombre":"Mercadillo de Puntagorda","municipio":"Puntagorda","categoria_lista":"Imprescindible","tipo_recurso":"","tipo_ingreso":"","accesible":"No","descripcion":"El Mercadillo del Agricultor de Puntagorda abre sus puertas en el verano de 2002, con el objetivo de potenciar el comercio local de los productos propios de la zona. Es la manera de dar la oportunidad a agricultores, ganaderos y artesanos de comercializar directamente sus propios productos. Ofrece también una representación de artesanía donde cada fin de semana una veintena de artesanos exponen sus trabajos y venden piezas muy variadas, originales y exclusivas. Un lugar donde el artista-artesano, establece una relación directa con el cliente. Hitos:","direccion":"","web_externa":"","imagen":"https://lapalmasmart.lapalma.es/sites/default/files/styles/wide/public/resources/img/puntagorda.jpg?itok=43BoT7Gg","url_ficha":"https://lapalmasmart.lapalma.es/recursos/mercadillo-de-puntagorda"}},{"type":"Feature","geometry":{"type":"Point","coordinates":[-17.852504,28.653975]},"properties":{"id":"centro-de-visitantes-de-la-caldera-de-taburiente","nombre":"Centro de visitantes de la Caldera de Taburiente","municipio":"Tazacorte","categoria_lista":"Imprescindible","tipo_recurso":"Cultural","tipo_ingreso":"Libre","accesible":"No","descripcion":"El Parque Nacional de la Caldera de Taburiente dispone de un excelente, moderno y equipado Centro de Visitantes; considerado como el más importante de los varios puntos de información gestionados que tiene el Parque, en el cuál pueden adquirirse mapas, guías y folletos. Es el lugar más apropiado para obtener información actualizada sobre el estado de los senderos que integran el parque y dispone de una excelente exposición sobre los valores naturales y culturales del Parque. En su jardín pueden contemplarse algunas de las plantas endémicas de mayor relevancia de La Palma.","direccion":"","web_externa":"http://www.reservasparquesnacionales.es/","imagen":"https://lapalmasmart.lapalma.es/sites/default/files/styles/wide/public/resources/img/LaPalma_CV-Parque-Nacional-Caldera-de-Taburiente1.jpg?itok=L_hzxA-g","url_ficha":"https://lapalmasmart.lapalma.es/recursos/centro-de-visitantes-de-la-caldera-de-taburiente"}},{"type":"Feature","geometry":{"type":"Point","coordinates":[-17.776496,28.577941]},"properties":{"id":"parque-arqueologico-de-belmaco","nombre":"Parque Arqueológico de Belmaco","municipio":"Villa de Mazo","categoria_lista":"Imprescindible","tipo_recurso":"Arqueológico","tipo_ingreso":"Previa presentación de ticket:    Adultos 2,00€","accesible":"No","descripcion":"El conjunto prehispánico de Belmaco es, sin ningún género de dudas, el más emblemático de La Palma. Se trata del primer yacimiento arqueológico descubierto en Canarias. El conjunto está formado por una preciosa estación de grabados rupestres geométricos que cuenta con 4 paneles en los se representan, sobre todo, espirales, círculos concéntricos y meandriformes. La cueva, presenta unas magníficas condiciones de habitabilidad y fue ocupada de manera permanente por los benahoaritas.","direccion":"","web_externa":"","imagen":"https://lapalmasmart.lapalma.es/sites/default/files/styles/wide/public/resources/img/Parque%20Arqueol%C3%B3gico%20de%20Belmaco.jpg?itok=K5_W49mE","url_ficha":"https://lapalmasmart.lapalma.es/recursos/parque-arqueologico-de-belmaco"}},{"type":"Feature","geometry":{"type":"Point","coordinates":[-17.879998,28.651727]},"properties":{"id":"museo-y-taller-de-la-seda-las-hilanderas","nombre":"Museo y Taller de la Seda \"Las Hilanderas\"","municipio":"El Paso","categoria_lista":"Imprescindible","tipo_recurso":"","tipo_ingreso":"","accesible":"No","descripcion":"El Taller de «Las Hilanderas» fue fundado en El Paso en el año 2002 y se trata de un museo y taller artesanal activo que se dedica a la manufactura y venta de diversos artículos de seda. Los productos elaborados en este taller y museo presentan un alto reconocimiento artesanal tanto en La Palma como en el resto del Mundo, entre los cuales sobresalen: fulares, carteras, bolsos, corbatas, bordados, detalles, etc. Actividades:","direccion":"","web_externa":"","imagen":"https://lapalmasmart.lapalma.es/sites/default/files/styles/wide/public/resources/img/2021-06-15.jpg?itok=-z3N_vYW","url_ficha":"https://lapalmasmart.lapalma.es/recursos/museo-y-taller-de-la-seda-las-hilanderas"}},{"type":"Feature","geometry":{"type":"Point","coordinates":[-17.890139,28.655357]},"properties":{"id":"centro-de-interpretacion-petroglifos-de-el-paso-benehauno","nombre":"Centro de interpretación Petroglifos de El Paso \"Benehauno\"","municipio":"El Paso","categoria_lista":"Imprescindible","tipo_recurso":"Cultural","tipo_ingreso":"","accesible":"No","descripcion":"El Paso se Extendía por cuatro cantones independientes en la época aborigen: Aceró, Aridane, Tihuya y Guehebey. Su riqueza arqueológica es muy variada, con extensos poblados de cuevas y cabañas, así como impresionantes vestigios de carácter mágico-religioso; almogarenes, conjuntos de canalillos y cazoletas, amontonamientos de piedra, etc.","direccion":"","web_externa":"","imagen":"https://lapalmasmart.lapalma.es/sites/default/files/styles/wide/public/resources/img/Centro%20de%20Interpretaci%C3%B3n%20Petroglifos%20de%20El%20Paso%20%C2%ABBenehauno%C2%BB.jpg?itok=zl2he8t-","url_ficha":"https://lapalmasmart.lapalma.es/recursos/centro-de-interpretacion-petroglifos-de-el-paso-benehauno"}},{"type":"Feature","geometry":{"type":"Point","coordinates":[-17.866516,28.613761]},"properties":{"id":"nuevo-volcan-tajogaite","nombre":"Nuevo Volcán Tajogaite","municipio":"El Paso","categoria_lista":"Imprescindible","tipo_recurso":"","tipo_ingreso":"","accesible":"","descripcion":"Descripción","direccion":"","web_externa":"","imagen":"https://lapalmasmart.lapalma.es/sites/default/files/styles/wide/public/resources/img/La%20Palma%2022_Nuevo%20Volc%C3%A1n_Sa%C3%BAl%20Santos.jpg?itok=V6L2wj_T","url_ficha":"https://lapalmasmart.lapalma.es/recursos/nuevo-volcan-tajogaite"}},{"type":"Feature","geometry":{"type":"Point","coordinates":[-17.910209,28.65679]},"properties":{"id":"museo-arqueologico-benahorita","nombre":"Museo Arqueológico Benahorita","municipio":"Los Llanos de Aridane","categoria_lista":"Imprescindible","tipo_recurso":"Cultural","tipo_ingreso":"","accesible":"No","descripcion":"El museo se encuentra ubicado en el casco urbano del municipio. Muestra mediante diversas representaciones lo que era el hábitat, las industrias, el aprovechamiento del medio y las creencias mágico-religiosas de los benahoaritas. Equipos e instalaciones: Cuenta con sala de exposición permanente, sala de exposición temporal, auditorio y punto de venta de artesanía. Forma de Acceso:","direccion":"","web_externa":"http://www.cabildodelapalma.es/","imagen":"https://lapalmasmart.lapalma.es/sites/default/files/styles/wide/public/resources/img/2020-08-18.jpg?itok=VZLGa9Ut","url_ficha":"https://lapalmasmart.lapalma.es/recursos/museo-arqueologico-benahorita"}},{"type":"Feature","geometry":{"type":"Point","coordinates":[-17.913203,28.658866]},"properties":{"id":"plaza-de-espana-de-los-llanos-de-aridane","nombre":"Plaza de España de Los Llanos de Aridane","municipio":"Los Llanos de Aridane","categoria_lista":"Imprescindible","tipo_recurso":"","tipo_ingreso":"","accesible":"No","descripcion":"Plaza","direccion":"","web_externa":"","imagen":"https://lapalmasmart.lapalma.es/sites/default/files/styles/wide/public/resources/img/81%201%20La%20Palma_Plaza%20de%20Espa%C3%B1a_Los%20Llanos%20de%20Aridane_Dominic%20D%C3%A4hncke.JPG?itok=fWeYL4lJ","url_ficha":"https://lapalmasmart.lapalma.es/recursos/plaza-de-espana-de-los-llanos-de-aridane"}},{"type":"Feature","geometry":{"type":"Point","coordinates":[-17.97345,28.703321]},"properties":{"id":"el-poris-de-candelaria","nombre":"El Porís de Candelaria","municipio":"Tijarafe","categoria_lista":"Imprescindible","tipo_recurso":"Recreativo","tipo_ingreso":"Libre","accesible":"No","descripcion":"El Poris de Candelaria es un entrante de mar que forma una oquedad de sobrecogedoras dimensiones en cuyos laterales se encuentran numerosas cuevas. Con el tiempo, se convirtió en uno de los lugares predilectos de veraneo para los lugareños, que construyeron pequeños refugios donde pasar los días más calurosos del verano disfrutando del mar. *NO dispone de servicio de socorrista por los que recomendamos esté alerta al estado del mar. Forma de Acceso:","direccion":"","web_externa":"https://visit.tijarafe.com/el-prois-de-candelaria/","imagen":"https://lapalmasmart.lapalma.es/sites/default/files/styles/wide/public/resources/img/poris.jpg?itok=FYrIxddE","url_ficha":"https://lapalmasmart.lapalma.es/recursos/el-poris-de-candelaria"}},{"type":"Feature","geometry":{"type":"Point","coordinates":[-17.94238,28.663375]},"properties":{"id":"mirador-de-el-time","nombre":"Mirador de El Time","municipio":"Tazacorte","categoria_lista":"Imprescindible","tipo_recurso":"Mirador","tipo_ingreso":"Libre","accesible":"No","descripcion":"A la entrada del municipio de Tijarafe por el sur, se encuentra el Mirador del Time (594 metros sobre el nivel del mar) con inmejorables vistas del valle de Aridane, así como del Parque Nacional de La Caldera de Taburiente. En días claros se puede divisar la Isla vecina de El Hierro. Forma de Acceso: En automóvil. En la carretera LP-1 por la entrada sur del municipio se encuentra el mirador después de ascender la pared norte del barranco de Las Angustias. Municipios:","direccion":"","web_externa":"https://visit.tijarafe.com/el-time/","imagen":"https://lapalmasmart.lapalma.es/sites/default/files/styles/wide/public/resources/img/95%201%20La%20Palma_Pareja%20en%20el%20Mirador%20de%20El%20Time_Tijarafe_%C3%81lvaro%20Armas.jpg?itok=Df8YMNtm","url_ficha":"https://lapalmasmart.lapalma.es/recursos/mirador-de-el-time"}},{"type":"Feature","geometry":{"type":"Point","coordinates":[-17.886156,28.601405]},"properties":{"id":"centro-de-visitantes-canos-de-fuego","nombre":"Centro de visitantes \"Caños de Fuego\"","municipio":"Los Llanos de Aridane","categoria_lista":"Imprescindible","tipo_recurso":"","tipo_ingreso":"","accesible":"No","descripcion":"Adéntrate en el interior de los tubos volcánicos de La Palma El Centro de Interpretación de las Cavidades Volcánicas “Caños de Fuego” nace a raíz del descubrimiento de un conjunto de tubos volcánicos en la zona de Las Manchas, procedentes de la solidificación de las lavas emanadas en la erupción del Volcán de San Juan en 1949.","direccion":"","web_externa":"https://lapalmacentrosturisticos.com/","imagen":"https://lapalmasmart.lapalma.es/sites/default/files/styles/wide/public/resources/img/136%201%20La%20Palma_Centro%20Visitantes%20Ca%C3%B1os%20de%20Fuego%20%2819%29_Van%20Marty.jpg?itok=NcvmsHYi","url_ficha":"https://lapalmasmart.lapalma.es/recursos/centro-de-visitantes-canos-de-fuego"}},{"type":"Feature","geometry":{"type":"Point","coordinates":[-17.934875,28.642625]},"properties":{"id":"museo-del-platano","nombre":"Museo del Plátano","municipio":"Tazacorte","categoria_lista":"Imprescindible","tipo_recurso":"Cultural","tipo_ingreso":"Entrada general: 2 € para personas mayores de 12 años","accesible":"No","descripcion":"El Museo del Plátano abrió sus puertas en el año 2004 con el fin de dar a conocer a nuestros visitantes el mundo que rodea a la producción de esta fruta en La Palma: su origen, sus cualidades dietéticas, el transporte desde Canarias hacia el resto del mundo, las plagas que le afectan, los distintos tipos de variedades que existen, el proceso de recolección y empaquetado, la historia de la que ha sido testigo, y un sinfín de datos impresos, junto con fotografías e imágenes de distinto tipo, en diferentes paneles informativos. Equipos e instalaciones:","direccion":"","web_externa":"http://tazacorte.es/site/","imagen":"https://lapalmasmart.lapalma.es/sites/default/files/styles/wide/public/resources/img/14%201%20La%20Palma_Museo%20del%20Pl%C3%A1tano_Ayto.%20Tazacorte.JPG?itok=33yxB5Uc","url_ficha":"https://lapalmasmart.lapalma.es/recursos/museo-del-platano"}},{"type":"Feature","geometry":{"type":"Point","coordinates":[-17.888075,28.595531]},"properties":{"id":"casa-museo-del-vino-las-manchas","nombre":"Casa Museo del Vino \"Las Manchas\"","municipio":"Tazacorte","categoria_lista":"Imprescindible","tipo_recurso":"","tipo_ingreso":"","accesible":"No","descripcion":"Sobre el solar de una antigua vivienda rural de maestros se levanta La Casa-Museo del Vino Las Manchas. En su interior el visitante podrá obtener una visión genérica del rico patrimonio insular vitivinícola, al mismo tiempo que recibe información sobre los climas, la historia de los caldos, el ciclo anual del trabajo de la vid y las diferentes variedades de uvas. Equipos e instalaciones:","direccion":"","web_externa":"http://www.aridane.org/","imagen":"https://lapalmasmart.lapalma.es/sites/default/files/styles/wide/public/resources/img/casamuseo.jpg?itok=rahXy1pN","url_ficha":"https://lapalmasmart.lapalma.es/recursos/casa-museo-del-vino-las-manchas"}},{"type":"Feature","geometry":{"type":"Point","coordinates":[-17.947283,28.651522]},"properties":{"id":"playa-de-tazacorte","nombre":"Playa de Tazacorte","municipio":"Tazacorte","categoria_lista":"Imprescindible","tipo_recurso":"","tipo_ingreso":"","accesible":"No","descripcion":"La Playa del Puerto de Tazacorte es considerada una de las mejores playas de la Isla. De arena negra volcánica apta para el baño durante prácticamente todo el año, es ideal para pasar un día de descanso junto al mar. Se encuentra rodeada de un llamativo puerto deportivo, paseo marítimo y diversos restaurantes en los cuales el pescado fresco es el plato estrella. Actividades: Baño. Pesca con caña. Excursiones con Kayak. Volleyplaya. Hitos:","direccion":"","web_externa":"","imagen":"https://lapalmasmart.lapalma.es/sites/default/files/styles/wide/public/resources/img/124%201%20La%20Palma_Playa%20Tazacorte%2014-Celestino%20Glez._0.jpg?itok=y9nSFOF-","url_ficha":"https://lapalmasmart.lapalma.es/recursos/playa-de-tazacorte"}},{"type":"Feature","geometry":{"type":"Point","coordinates":[-17.909775,28.58439]},"properties":{"id":"playa-de-puerto-naos","nombre":"Playa de Puerto Naos","municipio":"Los Llanos de Aridane","categoria_lista":"Imprescindible","tipo_recurso":"Recreativo","tipo_ingreso":"","accesible":"No","descripcion":"La Playa de Puerto Naos es una de las playas más visitadas de la Isla, debido a la calidad de sus aguas  y a su fina arena negra a lo largo de unos 500 metros. A sus alrededores, hay diversidad de restaurantes y un paseo marítimo. Actividades:  Baño. Ciclismo. Parapente. Buceo. Surf. Canoas. Forma de Acceso:","direccion":"","web_externa":"","imagen":"https://lapalmasmart.lapalma.es/sites/default/files/styles/wide/public/resources/img/125%201%20La%20Palma_Puerto%20%20Naos%2001-Celestino%20Glez..jpg?itok=-rPSW4Uy","url_ficha":"https://lapalmasmart.lapalma.es/recursos/playa-de-puerto-naos"}},{"type":"Feature","geometry":{"type":"Point","coordinates":[-17.89935,28.572647]},"properties":{"id":"playa-del-charco-verde","nombre":"Playa del Charco Verde","municipio":"Los Llanos de Aridane","categoria_lista":"Imprescindible","tipo_recurso":"Recreativo","tipo_ingreso":"Libre","accesible":"No","descripcion":"La Playa es una cala de fina arena negra que se encuentra a unos 2 kilómetros de la Playa de Puerto Naos. Esta acogedora playa tiene 250 metros de longitud y 75 metros de ancho medio. En la misma se encuentra “el muellito” que es una gran roca que se sitúa en medio de la misma. Por la calidad de sus aguas ha obtenido el galardón de Bandera Azul en el año 2009. Actividades: Baño. Buceo. Forma de Acceso:","direccion":"","web_externa":"","imagen":"https://lapalmasmart.lapalma.es/sites/default/files/styles/wide/public/resources/img/126%201%20La%20Palma_Playa%20%20Charco%20Verde.jpg?itok=NdAfe_TV","url_ficha":"https://lapalmasmart.lapalma.es/recursos/playa-del-charco-verde"}},{"type":"Feature","geometry":{"type":"Point","coordinates":[-17.848497,28.486478]},"properties":{"id":"centro-de-visitantes-del-volcan-de-san-antonio","nombre":"Centro de visitantes del Volcán de San Antonio","municipio":"Fuencaliente","categoria_lista":"Imprescindible","tipo_recurso":"","tipo_ingreso":"","accesible":"No","descripcion":"Cuenta con una sala de audiovisuales, distintas salas con paneles explicativos, además de una pequeña tienda de souvenirs y un bar. Se puede disfrutar de un paseo y unas vistas en torno al Volcán que le da nombre. En él se puede aprender un poco más sobre los volcanes de la isla y en particular, sobre los volcanes que marcan el paisaje del municipio de Fuencaliente. Información:","direccion":"","web_externa":"https://turismofuencalientedelapalma.com/fuencaliente/centro-volcan-san-antonio/","imagen":"https://lapalmasmart.lapalma.es/sites/default/files/styles/wide/public/resources/img/Centro%20de%20Visitantes%20del%20Volc%C3%A1n%20de%20San%20Antonio.JPG?itok=TKmNOeUq","url_ficha":"https://lapalmasmart.lapalma.es/recursos/centro-de-visitantes-del-volcan-de-san-antonio"}},{"type":"Feature","geometry":{"type":"Point","coordinates":[-17.842049,28.454459]},"properties":{"id":"salinas-de-fuencaliente","nombre":"Salinas de Fuencaliente","municipio":"Fuencaliente","categoria_lista":"Imprescindible","tipo_recurso":"","tipo_ingreso":"Libre","accesible":"No","descripcion":"Este Espacio Natural ubicado al sur de la Isla, tiene su origen en una explotación en activo de sal marina de muy alta calidad situada sobre lavas basálticas. Sus comienzos datan del año 1967 y desde entonces no ha parado su actividad, siendo en la actualidad la única salina en producción de la provincia de Santa Cruz de Tenerife. Este complejo salinero supone un punto de referencia dentro de las visitas naturales, paisajísticas y con fines científicos de la Isla.","direccion":"","web_externa":"","imagen":"https://lapalmasmart.lapalma.es/sites/default/files/styles/wide/public/resources/img/Galeria-Salinas-de-Fuencaliente.jpg?itok=EwPxlKOU","url_ficha":"https://lapalmasmart.lapalma.es/recursos/salinas-de-fuencaliente"}},{"type":"Feature","geometry":{"type":"Point","coordinates":[-17.843208,28.455359]},"properties":{"id":"faro-de-fuencaliente","nombre":"Faro de Fuencaliente","municipio":"Fuencaliente","categoria_lista":"Imprescindible","tipo_recurso":"","tipo_ingreso":"","accesible":"No","descripcion":"Actualmente conviven el antiguo y el nuevo faro de Fuencaliente. Ubicado en el municipio con este mismo nombre, en la punta sur de la isla, se encuentra junto a Las Salinas, un lugar con mucha historia y preciosas tonalidades en la sal marina, que se pone a secar. Se llega, sin problema, en coche","direccion":"","web_externa":"","imagen":"https://lapalmasmart.lapalma.es/sites/default/files/styles/wide/public/resources/img/LaPalma_CI-ReservaMarinaFaroFuencaliente_RH.jpg?itok=icJMmR26","url_ficha":"https://lapalmasmart.lapalma.es/recursos/faro-de-fuencaliente"}},{"type":"Feature","geometry":{"type":"Point","coordinates":[-17.850854,28.459244]},"properties":{"id":"playa-de-echentive","nombre":"Playa de Echentive","municipio":"Fuencaliente","categoria_lista":"Imprescindible","tipo_recurso":"Recreativo","tipo_ingreso":"Libre","accesible":"No","descripcion":"Esta larga playa de arena negra y charcas naturales, que se formó gracias a la erupción del volcán Teneguía en 1971. Está situada, además, en una zona cercana donde se descubrieron recientemente aguas de lo que pudo ser la Fuente Santa que dio nombre al municipio de Fuencaliente. *NO dispone de servicio de socorrista por los que recomendamos esté alerta al estado del mar. PRECAUCION* Actividades: Baño. Buceo. Forma de Acceso:","direccion":"","web_externa":"","imagen":"https://lapalmasmart.lapalma.es/sites/default/files/styles/wide/public/resources/img/echentive.jpg?itok=jjhcW0Bw","url_ficha":"https://lapalmasmart.lapalma.es/recursos/playa-de-echentive"}}]}