{"type":"FeatureCollection","features":[{"type":"Feature","geometry":{"type":"Point","coordinates":[-17.760712,28.695185]},"properties":{"nombre":"Mirador Barranco del Carmen"}},{"type":"Feature","geometry":{"type":"Point","coordinates":[-17.75518,28.703493]},"properties":{"nombre":"Mirador Barranco de Los Gomeros"}},{"type":"Feature","geometry":{"type":"Point","coordinates":[-17.750504,28.710073]},"properties":{"nombre":"Mirador de San Juanito"}},{"type":"Feature","geometry":{"type":"Point","coordinates":[-17.962976,28.728205]},"properties":{"nombre":"Mirador de La Muralla"}},{"type":"Feature","geometry":{"type":"Point","coordinates":[-17.778421,28.673525]},"properties":{"nombre":"Mirador de La Concepción"}},{"type":"Feature","geometry":{"type":"Point","coordinates":[-17.758165,28.63851]},"properties":{"nombre":"Mirador del Aeropuerto"}},{"type":"Feature","geometry":{"type":"Point","coordinates":[-17.760475,28.643845]},"properties":{"nombre":"Mirador Risco Alto"}},{"type":"Feature","geometry":{"type":"Point","coordinates":[-17.761881,28.646675]},"properties":{"nombre":"Mirador de El Salto"}},{"type":"Feature","geometry":{"type":"Point","coordinates":[-17.779732,28.611544]},"properties":{"nombre":"Mirador de La Ladera"}},{"type":"Feature","geometry":{"type":"Point","coordinates":[-17.782223,28.632584]},"properties":{"nombre":"Mirador Montaña de Las Breñas"}},{"type":"Feature","geometry":{"type":"Point","coordinates":[-17.823181,28.613602]},"properties":{"nombre":"Mirador Llano de Las Ventas"}},{"type":"Feature","geometry":{"type":"Point","coordinates":[-17.910486,28.59189]},"properties":{"nombre":"Mirador de Puerto Naos"}},{"type":"Feature","geometry":{"type":"Point","coordinates":[-17.912191,28.596241]},"properties":{"nombre":"Mirador Las Hoyas"}},{"type":"Feature","geometry":{"type":"Point","coordinates":[-17.967646,28.747147]},"properties":{"nombre":"Mirador Barranco de Garome"}},{"type":"Feature","geometry":{"type":"Point","coordinates":[-17.90073,28.711662]},"properties":{"nombre":"Mirador de Los Brecitos"}},{"type":"Feature","geometry":{"type":"Point","coordinates":[-17.813229,28.659153]},"properties":{"nombre":"Mirador de La Cumbre"}},{"type":"Feature","geometry":{"type":"Point","coordinates":[-17.814547,28.827423]},"properties":{"nombre":"Mirador de La Tosca"}},{"type":"Feature","geometry":{"type":"Point","coordinates":[-17.820889,28.811438]},"properties":{"nombre":"Mirador de Las Mimbreras"}},{"type":"Feature","geometry":{"type":"Point","coordinates":[-17.854017,28.499237]},"properties":{"nombre":"Mirador de Las Indias"}},{"type":"Feature","geometry":{"type":"Point","coordinates":[-17.865942,28.534952]},"properties":{"nombre":"Mirador de El Charco"}},{"type":"Feature","geometry":{"type":"Point","coordinates":[-17.848459,28.617367]},"properties":{"nombre":"Mirador Llano del Jable"}},{"type":"Feature","geometry":{"type":"Point","coordinates":[-17.793634,28.820255]},"properties":{"nombre":"Mirador La Cuesta"}},{"type":"Feature","geometry":{"type":"Point","coordinates":[-17.885279,28.754673]},"properties":{"nombre":"Mirador del Roque de Los Muchachos"}},{"type":"Feature","geometry":{"type":"Point","coordinates":[-17.766392,28.772141]},"properties":{"nombre":"Mirador Jardín de Las Hespérides"}},{"type":"Feature","geometry":{"type":"Point","coordinates":[-17.85936,28.799368]},"properties":{"nombre":"Mirador Barranco de Los Poleos"}},{"type":"Feature","geometry":{"type":"Point","coordinates":[-17.867096,28.76116]},"properties":{"nombre":"Mirador de Los Andenes"}},{"type":"Feature","geometry":{"type":"Point","coordinates":[-17.964462,28.825684]},"properties":{"nombre":"Mirador Puerto de Garafía"}},{"type":"Feature","geometry":{"type":"Point","coordinates":[-17.767731,28.684883]},"properties":{"nombre":"Mirador de Calcina"}},{"type":"Feature","geometry":{"type":"Point","coordinates":[-17.933121,28.661631]},"properties":{"nombre":"Mirador de Las Angustias"}}]}