{"type":"FeatureCollection","name":"puntos-recarga-vehiculos-electricos-la-palma-20260514","crs":{"type":"name","properties":{"name":"urn:ogc:def:crs:OGC:1.3:CRS84"}},"features":[{"type":"Feature","properties":{"id":2,"nombre":"La Marina","municipio":"Santa Cruz de La Palma","propietario":"Autoridad Portuaria","prioridad":"2","ref_catastral":"0","descripcion":"2 Puntos de recarga","longitud":-17.7661877339044,"latitud":28.6797465076644},"geometry":{"type":"Point","coordinates":[-17.766188,28.679747]}},{"type":"Feature","properties":{"id":8,"nombre":"Aeropuerto","municipio":"Villa de Mazo","propietario":"AENA","prioridad":"1","ref_catastral":"0","descripcion":"","longitud":-17.7522767092123,"latitud":28.6209639007962},"geometry":{"type":"Point","coordinates":[-17.752277,28.620964]}},{"type":"Feature","properties":{"id":10,"nombre":"Carretera general de Mazo","municipio":"Villa de Mazo","propietario":"Cabildo (operativa)","prioridad":"2","ref_catastral":"1","descripcion":"Centro de Recarga Exterior en Ctra. general frente al supermercado Spar, en arqueta existente con la línea 11_01 de 150 mm² aluminio, del centro de transformación “C-500017”. En dicha arqueta conectaremos nuestra hornacina con caja general de protecc","longitud":-17.780012901545,"latitud":28.6070947538679},"geometry":{"type":"Point","coordinates":[-17.780013,28.607095]}},{"type":"Feature","properties":{"id":11,"nombre":"Carretera general Fuencaliente","municipio":"Fuencaliente","propietario":"Cabildo (operativa)","prioridad":"2","ref_catastral":"1","descripcion":"Centro de Recarga Exterior en zona de aparcamientos en línea frente al Centro Cultural los Canarios, en arqueta existente con la línea 11_03 de 240 mm² aluminio, del centro de transformación “C-1182 Brisas del Mar”. En dicha arqueta conectaremos nues","longitud":-17.8457964284037,"latitud":28.494602413355},"geometry":{"type":"Point","coordinates":[-17.845796,28.494602]}},{"type":"Feature","properties":{"id":12,"nombre":"Hotel Princess","municipio":"Fuencaliente","propietario":"Privado","prioridad":"1","ref_catastral":"0","descripcion":"","longitud":-17.8734010591332,"latitud":28.5025216631043},"geometry":{"type":"Point","coordinates":[-17.873401,28.502522]}},{"type":"Feature","properties":{"id":13,"nombre":"Hotel Sol","municipio":"Los Llanos de Aridane","propietario":"Privado","prioridad":"1","ref_catastral":"0","descripcion":"","longitud":-17.908527031657,"latitud":28.5821693070158},"geometry":{"type":"Point","coordinates":[-17.908527,28.582169]}},{"type":"Feature","properties":{"id":16,"nombre":"Avd. Carlos Fco Navarro - Los Llanos","municipio":"Los Llanos de Aridane","propietario":"Cabildo (operativa)","prioridad":"1","ref_catastral":"1","descripcion":"Centro de Recarga Exterior en zona de aparcamientos en línea (zona azul) en la Avda Carlos Francisco Lorenzo Navarrro, en arqueta existente frente a la fina Nº 55, con línea de 240 mm² aluminio, del centro de transformación “C-500459 Museo Arqueológi","longitud":-17.9107176598246,"latitud":28.6563474756949},"geometry":{"type":"Point","coordinates":[-17.910718,28.656347]}},{"type":"Feature","properties":{"id":18,"nombre":"Avenida Islas Canarias El Paso","municipio":"El Paso","propietario":"Cabildo (operativa)","prioridad":"2","ref_catastral":"1","descripcion":"Centro de Recarga Exterior en Avda. Islas Canarias frente al edificio de Telefónica, para ello tendremos que realizar un refuerzo de línea desde el centro de transformación “C-500448 Marieta”, hasta la fachada del edificio de CTNE. En este punto inte","longitud":-17.8802527588866,"latitud":28.6528643976286},"geometry":{"type":"Point","coordinates":[-17.880253,28.652864]}},{"type":"Feature","properties":{"id":21,"nombre":"Campo de Futbol de Tijarafe","municipio":"Tijarafe","propietario":"Ayuntamiento","prioridad":"2","ref_catastral":"0","descripcion":"Centro de Recarga Exterior En los aparcamientos del Campo Municipal de Futbol. El centro de transformación “C-500225 Candelaria” ubicado junto al camino peatonal de acceso al Campo, dispone de una salida libre en su CBT desde la que acometeremos al c","longitud":-17.9539978481459,"latitud":28.7127133214179},"geometry":{"type":"Point","coordinates":[-17.953998,28.712713]}},{"type":"Feature","properties":{"id":27,"nombre":"IAC - Observatorio Roque de Los Muchachos","municipio":"Garafía","propietario":"Privado","prioridad":"2","ref_catastral":"0","descripcion":"Aparcamiento de Los Almacenes","longitud":-17.8938174867986,"latitud":28.7637042197411},"geometry":{"type":"Point","coordinates":[-17.893817,28.763704]}},{"type":"Feature","properties":{"id":32,"nombre":"Los Sauces","municipio":"San Andrés y Sauces","propietario":"Cabildo (operativa)","prioridad":"2","ref_catastral":"1","descripcion":"","longitud":-17.7726700572432,"latitud":28.8007232636937},"geometry":{"type":"Point","coordinates":[-17.77267,28.800723]}},{"type":"Feature","properties":{"id":35,"nombre":"Avenida Las Nieves","municipio":"Santa Cruz de La Palma","propietario":"Cabildo (operativa)","prioridad":"2","ref_catastral":"1","descripcion":"Centro de Recarga Exterior en zona de aparcamientos en línea frente al muro de cerramiento del edificio de la Policía Nacional, para ello tendremos que realizar un","longitud":-17.7607847556383,"latitud":28.6881940101245},"geometry":{"type":"Point","coordinates":[-17.760785,28.688194]}},{"type":"Feature","properties":{"id":36,"nombre":"Hotel Taburiente","municipio":"Breña Baja","propietario":"Privado","prioridad":"1","ref_catastral":"0","descripcion":"","longitud":-17.7583657853607,"latitud":28.6496087833082},"geometry":{"type":"Point","coordinates":[-17.758366,28.649609]}},{"type":"Feature","properties":{"id":37,"nombre":"Parador","municipio":"Breña Baja","propietario":"Privado","prioridad":"1","ref_catastral":"0","descripcion":"","longitud":-17.7749354597087,"latitud":28.6511684986439},"geometry":{"type":"Point","coordinates":[-17.774935,28.651168]}},{"type":"Feature","properties":{"id":40,"nombre":"Parque Los Álamos","municipio":"Breña Alta","propietario":"Cabildo (operativa)","prioridad":"2","ref_catastral":"1","descripcion":"Centro de Recarga Exterior en zona de acceso principal al Parque los Álamos, en arqueta existente con la línea 11_01 de 150 mm² aluminio, del centro de","longitud":-17.7871336879885,"latitud":28.6670845374812},"geometry":{"type":"Point","coordinates":[-17.787134,28.667085]}},{"type":"Feature","properties":{"id":48,"nombre":"Santo Domingo - Garafía","municipio":"Los Llanos de Aridane","propietario":"Cabildo (operativa)","prioridad":"1","ref_catastral":"1","descripcion":"","longitud":-17.9479787883209,"latitud":28.827539450448},"geometry":{"type":"Point","coordinates":[-17.947979,28.827539]}},{"type":"Feature","properties":{"id":52,"nombre":"SHELL EL PASO","municipio":"EL PASO","propietario":"Privado","prioridad":"","ref_catastral":"0","descripcion":"Punto de recarga semi-rápida 2 puntos de 7kw c/u Corriente monofásica","longitud":-17.867568801537,"latitud":28.6510691107023},"geometry":{"type":"Point","coordinates":[-17.867569,28.651069]}},{"type":"Feature","properties":{"id":53,"nombre":"RESTAURANTE EL CHIPI-CHIPI","municipio":"S.C. de La Palma","propietario":"Privado","prioridad":"","ref_catastral":"0","descripcion":"1 punto de recarga semi-rapida","longitud":-17.7864210443995,"latitud":28.6818519922925},"geometry":{"type":"Point","coordinates":[-17.786421,28.681852]}},{"type":"Feature","properties":{"id":54,"nombre":"Supermercado SPÂR","municipio":"EL PASO","propietario":"Privado","prioridad":"","ref_catastral":"0","descripcion":"","longitud":-17.8770777515897,"latitud":28.6506541083022},"geometry":{"type":"Point","coordinates":[-17.877078,28.650654]}},{"type":"Feature","properties":{"id":55,"nombre":"Supermercado MERCADONA","municipio":"Breña Alta","propietario":"Privado","prioridad":"","ref_catastral":"0","descripcion":"4 cargadores situados al final del aparcamiento subterraneo.","longitud":-17.7719515601128,"latitud":28.6671071343294},"geometry":{"type":"Point","coordinates":[-17.771952,28.667107]}},{"type":"Feature","properties":{"id":56,"nombre":"AYUMAR","municipio":"Puntagorda","propietario":"Privado","prioridad":"","ref_catastral":"0","descripcion":"","longitud":-17.978976346961,"latitud":28.7615778392177},"geometry":{"type":"Point","coordinates":[-17.978976,28.761578]}},{"type":"Feature","properties":{"id":57,"nombre":"Ramon Pol","municipio":"Los Llanos de Aridane","propietario":"Cabildo (operativa)","prioridad":"1","ref_catastral":"0","descripcion":"","longitud":-17.9167752369397,"latitud":28.6599591334775},"geometry":{"type":"Point","coordinates":[-17.916775,28.659959]}},{"type":"Feature","properties":{"id":59,"nombre":"SPAR - Fuencaliente","municipio":"Fuencaliente","propietario":"Privado","prioridad":"","ref_catastral":"0","descripcion":"","longitud":-17.8452703484989,"latitud":28.4929788069777},"geometry":{"type":"Point","coordinates":[-17.84527,28.492979]}},{"type":"Feature","properties":{"id":60,"nombre":"PCAN - ENDESA","municipio":"Fuencaliente","propietario":"Privado","prioridad":"","ref_catastral":"0","descripcion":"Carga rápida","longitud":-17.8347104916066,"latitud":28.5009227033789},"geometry":{"type":"Point","coordinates":[-17.83471,28.500923]}},{"type":"Feature","properties":{"id":62,"nombre":"Av. Indianos","municipio":"S.C. de La Palma","propietario":"Cabildo (operativa)","prioridad":"1","ref_catastral":"0","descripcion":"","longitud":-17.7687498035192,"latitud":28.6789364546538},"geometry":{"type":"Point","coordinates":[-17.76875,28.678936]}},{"type":"Feature","properties":{"id":63,"nombre":"Puerto de Tazacorte","municipio":"Tazacorte","propietario":"Cabildo (operativa)","prioridad":"","ref_catastral":"0","descripcion":"","longitud":-17.945666349338,"latitud":28.6513659379421},"geometry":{"type":"Point","coordinates":[-17.945666,28.651366]}},{"type":"Feature","properties":{"id":64,"nombre":"Los Cancajos","municipio":"Breña Baja","propietario":"Cabildo (operativa)","prioridad":"1","ref_catastral":"0","descripcion":"","longitud":-17.7601610406219,"latitud":28.6505714392632},"geometry":{"type":"Point","coordinates":[-17.760161,28.650571]}},{"type":"Feature","properties":{"id":65,"nombre":"Aparcamiento El Puente","municipio":"S.C. de La Palma","propietario":"Privado","prioridad":"","ref_catastral":"0","descripcion":"","longitud":-17.7672968539673,"latitud":28.6854851505624},"geometry":{"type":"Point","coordinates":[-17.767297,28.685485]}},{"type":"Feature","properties":{"id":66,"nombre":"Aparcamiento El Puente","municipio":"S.C. de La Palma","propietario":"Privado","prioridad":"","ref_catastral":"0","descripcion":"","longitud":-17.7671651320424,"latitud":28.6854115467911},"geometry":{"type":"Point","coordinates":[-17.767165,28.685412]}},{"type":"Feature","properties":{"id":67,"nombre":"Ayuntamiento de Santo Domingo","municipio":"Tijarafe","propietario":"Ayuntamiento","prioridad":"2","ref_catastral":"0","descripcion":"Cargador en la trasera del Ayuntamiento de Garafía. Alimentado por paneles solares.","longitud":-17.9452248604579,"latitud":28.8297014813369},"geometry":{"type":"Point","coordinates":[-17.945225,28.829701]}},{"type":"Feature","properties":{"id":68,"nombre":"Las Tricias","municipio":"Garafía","propietario":"Ayuntamiento","prioridad":"2","ref_catastral":"0","descripcion":"Cargador en aparcamiento público de Las Tricias","longitud":-17.963109269724,"latitud":28.7812446938512},"geometry":{"type":"Point","coordinates":[-17.963109,28.781245]}},{"type":"Feature","properties":{"id":69,"nombre":"Las Tricias","municipio":"Garafía","propietario":"Ayuntamiento","prioridad":"2","ref_catastral":"0","descripcion":"Cargador en aparcamiento público de Las Tricias","longitud":-17.8588726635225,"latitud":28.8276323718867},"geometry":{"type":"Point","coordinates":[-17.858873,28.827632]}},{"type":"Feature","properties":{"id":70,"nombre":"Supermercado LIDL","municipio":"Los Llanos de Aridane","propietario":"Privado","prioridad":"","ref_catastral":"0","descripcion":"","longitud":-17.9160808369971,"latitud":28.6609406932953},"geometry":{"type":"Point","coordinates":[-17.916081,28.660941]}},{"type":"Feature","properties":{"id":71,"nombre":"IAC - Observatorio Roque de Los Muchachos","municipio":"Garafía","propietario":"Privado","prioridad":"2","ref_catastral":"0","descripcion":"Aparcamiento del GTC","longitud":-17.8919807863159,"latitud":28.7560736179882},"geometry":{"type":"Point","coordinates":[-17.891981,28.756074]}},{"type":"Feature","properties":{"id":80,"nombre":"Llano Negro","municipio":"Villa de Garafía","propietario":"Ayuntamiento","prioridad":"","ref_catastral":"","descripcion":"","longitud":-17.9234958732963,"latitud":28.8058068196846},"geometry":{"type":"Point","coordinates":[-17.923496,28.805807]}},{"type":"Feature","properties":{"id":81,"nombre":"Mercadillo de Puntagorda","municipio":"Puntagorda","propietario":"Ayuntamiento","prioridad":"","ref_catastral":"","descripcion":"","longitud":-17.9742922334094,"latitud":28.7786525166297},"geometry":{"type":"Point","coordinates":[-17.974292,28.778653]}},{"type":"Feature","properties":{"id":82,"nombre":"Puntagorda Ayuntamiento","municipio":"","propietario":"Ayuntamiento","prioridad":"","ref_catastral":"","descripcion":"","longitud":-17.9797217469797,"latitud":28.7657547734798},"geometry":{"type":"Point","coordinates":[-17.979722,28.765755]}},{"type":"Feature","properties":{"id":83,"nombre":"El Molino LP-01","municipio":"","propietario":"Ayuntamiento","prioridad":"","ref_catastral":"0","descripcion":"","longitud":-17.9776276544717,"latitud":28.7597404242681},"geometry":{"type":"Point","coordinates":[-17.977628,28.75974]}},{"type":"Feature","properties":{"id":84,"nombre":"Camino Los Riveroles","municipio":"Tijarafe","propietario":"Ayuntamiento","prioridad":"","ref_catastral":"0","descripcion":"","longitud":-17.9663735634409,"latitud":28.7470703269797},"geometry":{"type":"Point","coordinates":[-17.966374,28.74707]}},{"type":"Feature","properties":{"id":85,"nombre":"La Punta","municipio":"Tijarafe","propietario":"Ayuntamiento","prioridad":"","ref_catastral":"0","descripcion":"","longitud":-17.9437154500486,"latitud":28.6760105243613},"geometry":{"type":"Point","coordinates":[-17.943715,28.676011]}},{"type":"Feature","properties":{"id":88,"nombre":"C.C. Trocadero","municipio":"Los Llanos de Aridane","propietario":"Privado","prioridad":"","ref_catastral":"0","descripcion":"","longitud":-17.9115305935692,"latitud":28.6572000363577},"geometry":{"type":"Point","coordinates":[-17.911531,28.6572]}},{"type":"Feature","properties":{"id":90,"nombre":"Punto Información Turística","municipio":"El Paso","propietario":"Ayuntamiento","prioridad":"","ref_catastral":"0","descripcion":"","longitud":-17.8816433854026,"latitud":28.6517996936227},"geometry":{"type":"Point","coordinates":[-17.881643,28.6518]}},{"type":"Feature","properties":{"id":94,"nombre":"","municipio":"","propietario":"Cabildo","prioridad":"","ref_catastral":"","descripcion":"","longitud":-17.7693406695258,"latitud":28.6782477255059},"geometry":{"type":"Point","coordinates":[-17.769341,28.678248]}},{"type":"Feature","properties":{"id":95,"nombre":"","municipio":"","propietario":"Cabildo","prioridad":"","ref_catastral":"","descripcion":"","longitud":-17.7601395587451,"latitud":28.6505211536714},"geometry":{"type":"Point","coordinates":[-17.76014,28.650521]}},{"type":"Feature","properties":{"id":96,"nombre":"","municipio":"","propietario":"Cabildo","prioridad":"","ref_catastral":"","descripcion":"","longitud":-17.8802262362098,"latitud":28.6529510772988},"geometry":{"type":"Point","coordinates":[-17.880226,28.652951]}},{"type":"Feature","properties":{"id":97,"nombre":"","municipio":"","propietario":"Cabildo","prioridad":"","ref_catastral":"","descripcion":"","longitud":-17.9107226414169,"latitud":28.6563633990679},"geometry":{"type":"Point","coordinates":[-17.910723,28.656363]}},{"type":"Feature","properties":{"id":98,"nombre":"","municipio":"","propietario":"Cabildo","prioridad":"","ref_catastral":"","descripcion":"","longitud":-17.9166272037968,"latitud":28.6598217689713},"geometry":{"type":"Point","coordinates":[-17.916627,28.659822]}},{"type":"Feature","properties":{"id":99,"nombre":"","municipio":"","propietario":"Cabildo","prioridad":"","ref_catastral":"","descripcion":"","longitud":-17.9456623552943,"latitud":28.6513641038109},"geometry":{"type":"Point","coordinates":[-17.945662,28.651364]}},{"type":"Feature","properties":{"id":100,"nombre":"","municipio":"","propietario":"Cabildo","prioridad":"","ref_catastral":"","descripcion":"","longitud":-17.7689287684627,"latitud":28.7955210738166},"geometry":{"type":"Point","coordinates":[-17.768929,28.795521]}},{"type":"Feature","properties":{"id":101,"nombre":"","municipio":"","propietario":"Cabildo","prioridad":"","ref_catastral":"","descripcion":"","longitud":-17.947956001398,"latitud":28.8275354893406},"geometry":{"type":"Point","coordinates":[-17.947956,28.827535]}},{"type":"Feature","properties":{"id":102,"nombre":"","municipio":"","propietario":"Cabildo","prioridad":"","ref_catastral":"","descripcion":"","longitud":-17.7871613765604,"latitud":28.6665978662165},"geometry":{"type":"Point","coordinates":[-17.787161,28.666598]}},{"type":"Feature","properties":{"id":103,"nombre":"","municipio":"","propietario":"Cabildo","prioridad":"","ref_catastral":"","descripcion":"","longitud":-17.7800212668785,"latitud":28.6070344493246},"geometry":{"type":"Point","coordinates":[-17.780021,28.607034]}},{"type":"Feature","properties":{"id":104,"nombre":"","municipio":"","propietario":"Cabildo","prioridad":"","ref_catastral":"","descripcion":"","longitud":-17.8458466404482,"latitud":28.4946333274297},"geometry":{"type":"Point","coordinates":[-17.845847,28.494633]}},{"type":"Feature","properties":{"id":105,"nombre":"","municipio":"","propietario":"Cabildo","prioridad":"","ref_catastral":"","descripcion":"","longitud":-17.7607782212494,"latitud":28.6881887680733},"geometry":{"type":"Point","coordinates":[-17.760778,28.688189]}}]}