{"type":"FeatureCollection","features":[{"type":"Feature","geometry":{"type":"Point","coordinates":[-17.907907,28.580787]},"properties":{"id":1,"nombre":"S1","alias":"Sensor1 CO2","codigo":"HERM-S1","poblacion_codigo":"HERM","poblacion_zona":"Las Hermosas / Hermosillas (Tazacorte)","entidad":"S1","instalacion":"P0","estancia":"","exterior":true,"altura":null,"planta":null,"direccion":"","fecha_instalacion":"2023-07-12"}},{"type":"Feature","geometry":{"type":"Point","coordinates":[-17.908457,28.583429]},"properties":{"id":2,"nombre":"S2","alias":"Sensor2 CO2","codigo":"HERM-S2","poblacion_codigo":"HERM","poblacion_zona":"Las Hermosas / Hermosillas (Tazacorte)","entidad":"S2","instalacion":"P0","estancia":"","exterior":true,"altura":null,"planta":null,"direccion":"","fecha_instalacion":"2023-07-12"}},{"type":"Feature","geometry":{"type":"Point","coordinates":[-17.909077,28.583073]},"properties":{"id":3,"nombre":"S3","alias":"Sensor3 CO2","codigo":"HERM-S3","poblacion_codigo":"HERM","poblacion_zona":"Las Hermosas / Hermosillas (Tazacorte)","entidad":"S3","instalacion":"P0","estancia":"","exterior":true,"altura":null,"planta":null,"direccion":"","fecha_instalacion":"2023-07-12"}},{"type":"Feature","geometry":{"type":"Point","coordinates":[-17.919224,28.593202]},"properties":{"id":4,"nombre":"S4","alias":"Sensor4 CO2","codigo":"HERM-S4","poblacion_codigo":"HERM","poblacion_zona":"Las Hermosas / Hermosillas (Tazacorte)","entidad":"S4","instalacion":"P0","estancia":"","exterior":true,"altura":null,"planta":null,"direccion":"","fecha_instalacion":"2023-07-12"}},{"type":"Feature","geometry":{"type":"Point","coordinates":[-17.920621,28.593296]},"properties":{"id":5,"nombre":"S5","alias":"Sensor5 CO2","codigo":"HERM-S5","poblacion_codigo":"HERM","poblacion_zona":"Las Hermosas / Hermosillas (Tazacorte)","entidad":"S5","instalacion":"P0","estancia":"","exterior":true,"altura":null,"planta":null,"direccion":"","fecha_instalacion":"2023-07-12"}},{"type":"Feature","geometry":{"type":"Point","coordinates":[-17.921757,28.593647]},"properties":{"id":6,"nombre":"S6","alias":"Sensor6 CO2","codigo":"HERM-S6","poblacion_codigo":"HERM","poblacion_zona":"Las Hermosas / Hermosillas (Tazacorte)","entidad":"S6","instalacion":"P0","estancia":"","exterior":true,"altura":null,"planta":null,"direccion":"","fecha_instalacion":"2023-07-12"}},{"type":"Feature","geometry":{"type":"Point","coordinates":[-17.920681,28.59534]},"properties":{"id":7,"nombre":"S7","alias":"Sensor7 CO2","codigo":"HERM-S7","poblacion_codigo":"HERM","poblacion_zona":"Las Hermosas / Hermosillas (Tazacorte)","entidad":"S7","instalacion":"P0","estancia":"","exterior":true,"altura":null,"planta":null,"direccion":"","fecha_instalacion":"2023-07-12"}},{"type":"Feature","geometry":{"type":"Point","coordinates":[-17.909422,28.584544]},"properties":{"id":8,"nombre":"S8","alias":"Sensor8 CO2","codigo":"NAZT-PLAYA-MAS01","poblacion_codigo":"NAZT","poblacion_zona":"Puerto Naos - zona Azteca","entidad":"PLAYA","instalacion":"P0","estancia":"","exterior":true,"altura":null,"planta":null,"direccion":"MAS01","fecha_instalacion":"2024-02-08"}},{"type":"Feature","geometry":{"type":"Point","coordinates":[-17.909716,28.584887]},"properties":{"id":9,"nombre":"S9","alias":"Sensor9 CO2","codigo":"NAZT-PLAYA-MAS02","poblacion_codigo":"NAZT","poblacion_zona":"Puerto Naos - zona Azteca","entidad":"PLAYA","instalacion":"P0","estancia":"","exterior":true,"altura":null,"planta":null,"direccion":"MAS02","fecha_instalacion":"2024-02-08"}},{"type":"Feature","geometry":{"type":"Point","coordinates":[-17.909914,28.585216]},"properties":{"id":10,"nombre":"S10","alias":"Sensor10 CO2","codigo":"NAZT-PLAYA-MAS03","poblacion_codigo":"NAZT","poblacion_zona":"Puerto Naos - zona Azteca","entidad":"PLAYA","instalacion":"P0","estancia":"","exterior":true,"altura":null,"planta":null,"direccion":"MAS03","fecha_instalacion":"2024-02-08"}},{"type":"Feature","geometry":{"type":"Point","coordinates":[-17.910078,28.58544]},"properties":{"id":11,"nombre":"S11","alias":"Sensor11 CO2","codigo":"NAZT-PLAYA-MAS04","poblacion_codigo":"NAZT","poblacion_zona":"Puerto Naos - zona Azteca","entidad":"PLAYA","instalacion":"P0","estancia":"","exterior":true,"altura":null,"planta":null,"direccion":"MAS04","fecha_instalacion":"2024-02-08"}},{"type":"Feature","geometry":{"type":"Point","coordinates":[-17.910237,28.585842]},"properties":{"id":12,"nombre":"S12","alias":"Sensor12 CO2","codigo":"NAZT-PLAYA-MAS05","poblacion_codigo":"NAZT","poblacion_zona":"Puerto Naos - zona Azteca","entidad":"PLAYA","instalacion":"P0","estancia":"","exterior":true,"altura":null,"planta":null,"direccion":"MAS05","fecha_instalacion":"2024-02-08"}},{"type":"Feature","geometry":{"type":"Point","coordinates":[-17.910383,28.586123]},"properties":{"id":13,"nombre":"S13","alias":"Sensor13 CO2","codigo":"NAZT-PLAYA-MAS06","poblacion_codigo":"NAZT","poblacion_zona":"Puerto Naos - zona Azteca","entidad":"PLAYA","instalacion":"P0","estancia":"","exterior":true,"altura":null,"planta":null,"direccion":"MAS06","fecha_instalacion":"2024-02-08"}},{"type":"Feature","geometry":{"type":"Point","coordinates":[-17.909165,28.585455]},"properties":{"id":14,"nombre":"S14","alias":"Sensor14 CO2","codigo":"NAMA-CMDC-FAR01","poblacion_codigo":"NAMA","poblacion_zona":"Puerto Naos - zona Amarilla","entidad":"CMDC","instalacion":"P0","estancia":"","exterior":true,"altura":null,"planta":null,"direccion":"FAR01","fecha_instalacion":"2024-02-08"}},{"type":"Feature","geometry":{"type":"Point","coordinates":[-17.90926,28.58562]},"properties":{"id":15,"nombre":"S15","alias":"Sensor15 CO2","codigo":"NAMA-CMDC-FAR02","poblacion_codigo":"NAMA","poblacion_zona":"Puerto Naos - zona Amarilla","entidad":"CMDC","instalacion":"P0","estancia":"","exterior":true,"altura":null,"planta":null,"direccion":"FARO2","fecha_instalacion":"2024-02-14"}},{"type":"Feature","geometry":{"type":"Point","coordinates":[-17.90936,28.5858]},"properties":{"id":16,"nombre":"S16","alias":"Sensor16 CO2","codigo":"NAMA-CMDC-FAR03","poblacion_codigo":"NAMA","poblacion_zona":"Puerto Naos - zona Amarilla","entidad":"CMDC","instalacion":"P0","estancia":"","exterior":true,"altura":null,"planta":null,"direccion":"FAR03","fecha_instalacion":"2024-02-14"}},{"type":"Feature","geometry":{"type":"Point","coordinates":[-17.90947,28.58601]},"properties":{"id":17,"nombre":"S17","alias":"Sensor17 CO2","codigo":"NAMA-CMDC-FAR04","poblacion_codigo":"NAMA","poblacion_zona":"Puerto Naos - zona Amarilla","entidad":"CMDC","instalacion":"P0","estancia":"","exterior":true,"altura":null,"planta":null,"direccion":"FAR04","fecha_instalacion":"2024-02-14"}},{"type":"Feature","geometry":{"type":"Point","coordinates":[-17.90953,28.58612]},"properties":{"id":18,"nombre":"S18","alias":"Sensor18 CO2","codigo":"NAZU-CMDC-FAR05","poblacion_codigo":"NAZU","poblacion_zona":"Puerto Naos - zona Azul","entidad":"CMDC","instalacion":"P0","estancia":"","exterior":true,"altura":null,"planta":null,"direccion":"FAR05","fecha_instalacion":"2024-02-14"}},{"type":"Feature","geometry":{"type":"Point","coordinates":[-17.90962,28.58629]},"properties":{"id":19,"nombre":"S19","alias":"Sensor19 CO2","codigo":"NAZU-CMDC-FAR06","poblacion_codigo":"NAZU","poblacion_zona":"Puerto Naos - zona Azul","entidad":"CMDC","instalacion":"P0","estancia":"","exterior":true,"altura":null,"planta":null,"direccion":"FAR06","fecha_instalacion":"2024-02-14"}},{"type":"Feature","geometry":{"type":"Point","coordinates":[-17.90974,28.5865]},"properties":{"id":20,"nombre":"S20","alias":"Sensor20 CO2","codigo":"NROJ-CMDC-FAR07","poblacion_codigo":"NROJ","poblacion_zona":"Puerto Naos - zona Roja","entidad":"CMDC","instalacion":"P0","estancia":"","exterior":true,"altura":null,"planta":null,"direccion":"FAR07","fecha_instalacion":"2024-02-14"}},{"type":"Feature","geometry":{"type":"Point","coordinates":[-17.90982,28.58667]},"properties":{"id":21,"nombre":"S21","alias":"Sensor21 CO2","codigo":"NROJ-CMDC-FAR08","poblacion_codigo":"NROJ","poblacion_zona":"Puerto Naos - zona Roja","entidad":"CMDC","instalacion":"P0","estancia":"","exterior":true,"altura":null,"planta":null,"direccion":"FAR08","fecha_instalacion":"2024-02-15"}},{"type":"Feature","geometry":{"type":"Point","coordinates":[-17.90988,28.5868]},"properties":{"id":22,"nombre":"S22","alias":"Sensor22 CO2","codigo":"NROJ-CMDC-FAR09","poblacion_codigo":"NROJ","poblacion_zona":"Puerto Naos - zona Roja","entidad":"CMDC","instalacion":"P0","estancia":"","exterior":true,"altura":null,"planta":null,"direccion":"FAR09","fecha_instalacion":"2024-02-15"}},{"type":"Feature","geometry":{"type":"Point","coordinates":[-17.90996,28.58696]},"properties":{"id":23,"nombre":"S23","alias":"Sensor23 CO2","codigo":"NROJ-CMDC-FAR10","poblacion_codigo":"NROJ","poblacion_zona":"Puerto Naos - zona Roja","entidad":"CMDC","instalacion":"P0","estancia":"","exterior":true,"altura":null,"planta":null,"direccion":"FAR10","fecha_instalacion":"2024-02-15"}},{"type":"Feature","geometry":{"type":"Point","coordinates":[-17.91008,28.58717]},"properties":{"id":24,"nombre":"S24","alias":"Sensor24 CO2","codigo":"NROJ-CMDC-FAR11","poblacion_codigo":"NROJ","poblacion_zona":"Puerto Naos - zona Roja","entidad":"CMDC","instalacion":"P0","estancia":"","exterior":true,"altura":null,"planta":null,"direccion":"FAR11","fecha_instalacion":"2024-02-15"}},{"type":"Feature","geometry":{"type":"Point","coordinates":[-17.91016,28.58735]},"properties":{"id":25,"nombre":"S25","alias":"Sensor25 CO2","codigo":"NNAR-CMDC-FAR12","poblacion_codigo":"NNAR","poblacion_zona":"Puerto Naos - zona Naranja","entidad":"CMDC","instalacion":"P0","estancia":"","exterior":true,"altura":null,"planta":null,"direccion":"FAR12","fecha_instalacion":"2024-02-15"}},{"type":"Feature","geometry":{"type":"Point","coordinates":[-17.91025,28.58749]},"properties":{"id":26,"nombre":"S26","alias":"Sensor26 CO2","codigo":"NNAR-CMDC-FAR13","poblacion_codigo":"NNAR","poblacion_zona":"Puerto Naos - zona Naranja","entidad":"CMDC","instalacion":"P0","estancia":"","exterior":true,"altura":null,"planta":null,"direccion":"FAR13","fecha_instalacion":"2024-02-15"}},{"type":"Feature","geometry":{"type":"Point","coordinates":[-17.91035,28.58769]},"properties":{"id":27,"nombre":"S27","alias":"Sensor27 CO2","codigo":"NNAR-CMDC-FAR14","poblacion_codigo":"NNAR","poblacion_zona":"Puerto Naos - zona Naranja","entidad":"CMDC","instalacion":"P0","estancia":"","exterior":true,"altura":null,"planta":null,"direccion":"FAR14","fecha_instalacion":"2024-02-15"}},{"type":"Feature","geometry":{"type":"Point","coordinates":[-17.91045,28.58787]},"properties":{"id":28,"nombre":"S28","alias":"Sensor28 CO2","codigo":"NNAR-CMDC-FAR15","poblacion_codigo":"NNAR","poblacion_zona":"Puerto Naos - zona Naranja","entidad":"CMDC","instalacion":"P0","estancia":"","exterior":true,"altura":null,"planta":null,"direccion":"FAR15","fecha_instalacion":"2024-02-15"}},{"type":"Feature","geometry":{"type":"Point","coordinates":[-17.91051,28.58799]},"properties":{"id":29,"nombre":"S29","alias":"Sensor29 CO2","codigo":"NNAR-CMDC-FAR16","poblacion_codigo":"NNAR","poblacion_zona":"Puerto Naos - zona Naranja","entidad":"CMDC","instalacion":"P0","estancia":"","exterior":true,"altura":null,"planta":null,"direccion":"FAR16","fecha_instalacion":"2024-02-15"}},{"type":"Feature","geometry":{"type":"Point","coordinates":[-17.91065,28.58823]},"properties":{"id":30,"nombre":"S30","alias":"Sensor30 CO2","codigo":"NNAR-CMDC-FAR17","poblacion_codigo":"NNAR","poblacion_zona":"Puerto Naos - zona Naranja","entidad":"CMDC","instalacion":"P0","estancia":"","exterior":true,"altura":null,"planta":null,"direccion":"FAR17","fecha_instalacion":"2024-02-15"}},{"type":"Feature","geometry":{"type":"Point","coordinates":[-17.910993,28.588182]},"properties":{"id":31,"nombre":"S31","alias":"Sensor31 CO2","codigo":"NVER-CLAJ-FAR01","poblacion_codigo":"NVER","poblacion_zona":"Puerto Naos - zona Verde","entidad":"CLAJ","instalacion":"P0","estancia":"","exterior":true,"altura":null,"planta":null,"direccion":"FAR01","fecha_instalacion":"2024-02-19"}},{"type":"Feature","geometry":{"type":"Point","coordinates":[-17.911377,28.588032]},"properties":{"id":32,"nombre":"S32","alias":"Sensor32 CO2","codigo":"NVER-CLAJ-FAR02","poblacion_codigo":"NVER","poblacion_zona":"Puerto Naos - zona Verde","entidad":"CLAJ","instalacion":"P0","estancia":"","exterior":true,"altura":null,"planta":null,"direccion":"FAR02","fecha_instalacion":"2024-02-19"}},{"type":"Feature","geometry":{"type":"Point","coordinates":[-17.911806,28.587866]},"properties":{"id":33,"nombre":"S33","alias":"Sensor33 CO2","codigo":"NVER-CLAJ-FAR03","poblacion_codigo":"NVER","poblacion_zona":"Puerto Naos - zona Verde","entidad":"CLAJ","instalacion":"P0","estancia":"","exterior":true,"altura":null,"planta":null,"direccion":"FAR03","fecha_instalacion":"2024-02-19"}},{"type":"Feature","geometry":{"type":"Point","coordinates":[-17.912225,28.587732]},"properties":{"id":34,"nombre":"S34","alias":"Sensor34 CO2","codigo":"NVER-CLAJ-FAR04","poblacion_codigo":"NVER","poblacion_zona":"Puerto Naos - zona Verde","entidad":"CLAJ","instalacion":"P0","estancia":"","exterior":true,"altura":null,"planta":null,"direccion":"FAR04","fecha_instalacion":"2024-02-19"}},{"type":"Feature","geometry":{"type":"Point","coordinates":[-17.911349,28.588296]},"properties":{"id":35,"nombre":"S35","alias":"Sensor35 CO2","codigo":"NVER-CCG-FAR04","poblacion_codigo":"NVER","poblacion_zona":"Puerto Naos - zona Verde","entidad":"CCG","instalacion":"P0","estancia":"","exterior":true,"altura":null,"planta":null,"direccion":"FAR04","fecha_instalacion":"2024-02-19"}},{"type":"Feature","geometry":{"type":"Point","coordinates":[-17.91144,28.58858]},"properties":{"id":52,"nombre":"S36","alias":"Sensor36 CO2","codigo":"NVER-CCG-FAR05","poblacion_codigo":"NVER","poblacion_zona":"Puerto Naos - zona Verde","entidad":"CCG","instalacion":"P0","estancia":"","exterior":true,"altura":null,"planta":null,"direccion":"FAR05","fecha_instalacion":"2024-02-22"}},{"type":"Feature","geometry":{"type":"Point","coordinates":[-17.9117,28.58844]},"properties":{"id":53,"nombre":"S37","alias":"Sensor37 CO2","codigo":"NVER-CAT-FAR01","poblacion_codigo":"NVER","poblacion_zona":"Puerto Naos - zona Verde","entidad":"CAT","instalacion":"P0","estancia":"","exterior":true,"altura":null,"planta":null,"direccion":"FAR01","fecha_instalacion":"2024-02-22"}},{"type":"Feature","geometry":{"type":"Point","coordinates":[-17.91193,28.58835]},"properties":{"id":54,"nombre":"S38","alias":"Sensor38 CO2","codigo":"NVER-CAT-FAR02","poblacion_codigo":"NVER","poblacion_zona":"Puerto Naos - zona Verde","entidad":"CAT","instalacion":"P0","estancia":"","exterior":true,"altura":null,"planta":null,"direccion":"FAR02","fecha_instalacion":"2024-02-22"}},{"type":"Feature","geometry":{"type":"Point","coordinates":[-17.91225,28.58826]},"properties":{"id":55,"nombre":"S39","alias":"Sensor39 CO2","codigo":"NVER-CAT-FAR03","poblacion_codigo":"NVER","poblacion_zona":"Puerto Naos - zona Verde","entidad":"CAT","instalacion":"P0","estancia":"","exterior":true,"altura":null,"planta":null,"direccion":"FAR03","fecha_instalacion":"2024-02-22"}},{"type":"Feature","geometry":{"type":"Point","coordinates":[-17.91246,28.58819]},"properties":{"id":56,"nombre":"S40","alias":"Sensor40 CO2","codigo":"NVER-CAT-FAR04","poblacion_codigo":"NVER","poblacion_zona":"Puerto Naos - zona Verde","entidad":"CAR","instalacion":"P0","estancia":"","exterior":true,"altura":null,"planta":null,"direccion":"FAR04","fecha_instalacion":"2024-02-22"}},{"type":"Feature","geometry":{"type":"Point","coordinates":[-17.911154,28.587997]},"properties":{"id":57,"nombre":"S41","alias":"Sensor41 CO2","codigo":"NVER-CCG-FAR03","poblacion_codigo":"NVER","poblacion_zona":"Puerto Naos - zona Verde","entidad":"CCG","instalacion":"P0","estancia":"","exterior":true,"altura":null,"planta":null,"direccion":"FAR03","fecha_instalacion":"2024-02-22"}},{"type":"Feature","geometry":{"type":"Point","coordinates":[-17.910917,28.587514]},"properties":{"id":58,"nombre":"S42","alias":"Sensor42 CO2","codigo":"NVER-CCG-FAR02","poblacion_codigo":"NVER","poblacion_zona":"Puerto Naos - zona Verde","entidad":"CCG","instalacion":"P0","estancia":"","exterior":true,"altura":null,"planta":null,"direccion":"FAR02","fecha_instalacion":"2024-02-22"}},{"type":"Feature","geometry":{"type":"Point","coordinates":[-17.910769,28.587366]},"properties":{"id":59,"nombre":"S43","alias":"Sensor43 CO2","codigo":"NVER-CCG-FAR01","poblacion_codigo":"NVER","poblacion_zona":"Puerto Naos - zona Verde","entidad":"CCG","instalacion":"P0","estancia":"","exterior":true,"altura":null,"planta":null,"direccion":"FAR01","fecha_instalacion":"2024-02-22"}},{"type":"Feature","geometry":{"type":"Point","coordinates":[-17.911325,28.587595]},"properties":{"id":60,"nombre":"S44","alias":"Sensor44 CO2","codigo":"NVER-CFRB-FAR01","poblacion_codigo":"NVER","poblacion_zona":"Puerto Naos - zona Verde","entidad":"CFRB","instalacion":"P0","estancia":"","exterior":true,"altura":null,"planta":null,"direccion":"FAR01","fecha_instalacion":"2024-02-22"}},{"type":"Feature","geometry":{"type":"Point","coordinates":[-17.911845,28.587364]},"properties":{"id":61,"nombre":"S45","alias":"Sensor45 CO2","codigo":"NVER-CMI-FAR01","poblacion_codigo":"NVER","poblacion_zona":"Puerto Naos - zona Verde","entidad":"CMI","instalacion":"P0","estancia":"","exterior":true,"altura":null,"planta":null,"direccion":"FAR01","fecha_instalacion":"2024-02-22"}},{"type":"Feature","geometry":{"type":"Point","coordinates":[-17.911614,28.58692]},"properties":{"id":62,"nombre":"S46","alias":"Sensor46 CO2","codigo":"NVER-CGLC-FAR01","poblacion_codigo":"NVER","poblacion_zona":"Puerto Naos - zona Verde","entidad":"CGLC","instalacion":"P0","estancia":"","exterior":true,"altura":null,"planta":null,"direccion":"FAR01","fecha_instalacion":"2024-02-22"}},{"type":"Feature","geometry":{"type":"Point","coordinates":[-17.911235,28.587038]},"properties":{"id":63,"nombre":"S47","alias":"Sensor47 CO2","codigo":"NVAR-CGLC-FAR03","poblacion_codigo":"NVER","poblacion_zona":"Puerto Naos - zona Verde","entidad":"CGLC","instalacion":"P0","estancia":"","exterior":true,"altura":null,"planta":null,"direccion":"FAR03","fecha_instalacion":"2024-02-22"}},{"type":"Feature","geometry":{"type":"Point","coordinates":[-17.910806,28.587203]},"properties":{"id":64,"nombre":"S48","alias":"Sensor48 CO2","codigo":"NVAR-CGLC-FAR04","poblacion_codigo":"NVER","poblacion_zona":"Puerto Naos - zona Verde","entidad":"CGLC","instalacion":"P0","estancia":"","exterior":true,"altura":null,"planta":null,"direccion":"FAR04","fecha_instalacion":"2024-02-22"}},{"type":"Feature","geometry":{"type":"Point","coordinates":[-17.910462,28.587347]},"properties":{"id":65,"nombre":"S49","alias":"Sensor49 CO2","codigo":"NVAR-CGLC-FAR05","poblacion_codigo":"NVER","poblacion_zona":"Puerto Naos - zona Verde","entidad":"CGLC","instalacion":"P0","estancia":"","exterior":true,"altura":null,"planta":null,"direccion":"FAR05","fecha_instalacion":"2024-02-22"}},{"type":"Feature","geometry":{"type":"Point","coordinates":[-17.910211,28.587188]},"properties":{"id":66,"nombre":"S50","alias":"Sensor50 CO2","codigo":"NROJ-CMDC-FAR01","poblacion_codigo":"NROJ","poblacion_zona":"Puerto Naos - zona Roja","entidad":"CMDC","instalacion":"P0","estancia":"","exterior":true,"altura":null,"planta":null,"direccion":"FAR01","fecha_instalacion":"2024-02-22"}},{"type":"Feature","geometry":{"type":"Point","coordinates":[-17.910364,28.587019]},"properties":{"id":67,"nombre":"S51","alias":"Sensor51 CO2","codigo":"NROJ-CMDC-FAR02","poblacion_codigo":"NROJ","poblacion_zona":"Puerto Naos - zona Roja","entidad":"CMDC","instalacion":"P0","estancia":"","exterior":true,"altura":null,"planta":null,"direccion":"FAR02","fecha_instalacion":"2024-02-22"}},{"type":"Feature","geometry":{"type":"Point","coordinates":[-17.909839,28.585887]},"properties":{"id":68,"nombre":"S52","alias":"Sensor52 CO2","codigo":"NAMA-CMRQ-FAR01","poblacion_codigo":"NAMA","poblacion_zona":"Puerto Naos - zona Amarilla","entidad":"CMRQ","instalacion":"P0","estancia":"","exterior":true,"altura":null,"planta":null,"direccion":"FAR01","fecha_instalacion":"2024-02-22"}},{"type":"Feature","geometry":{"type":"Point","coordinates":[-17.909285,28.586129]},"properties":{"id":69,"nombre":"S53","alias":"Sensor53 CO2","codigo":"NAMA-CMRQ-FAR03","poblacion_codigo":"NAMA","poblacion_zona":"Puerto Naos - zona Amarilla","entidad":"CMRQ","instalacion":"P0","estancia":"","exterior":true,"altura":null,"planta":null,"direccion":"FAR03","fecha_instalacion":"2024-02-22"}},{"type":"Feature","geometry":{"type":"Point","coordinates":[-17.90964,28.58599]},"properties":{"id":70,"nombre":"S54","alias":"Sensor54 CO2","codigo":"NAMA-CMRQ-FAR02","poblacion_codigo":"NAMA","poblacion_zona":"Puerto Naos - zona Amarilla","entidad":"CMRQ","instalacion":"P0","estancia":"","exterior":true,"altura":null,"planta":null,"direccion":"FAR02","fecha_instalacion":"2024-02-22"}},{"type":"Feature","geometry":{"type":"Point","coordinates":[-17.90911,28.58619]},"properties":{"id":71,"nombre":"S55","alias":"Sensor55 CO2","codigo":"NAMA-CMRQ-FAR05","poblacion_codigo":"NAMA","poblacion_zona":"Puerto Naos - zona Amarilla","entidad":"CMRQ","instalacion":"P0","estancia":"","exterior":true,"altura":null,"planta":null,"direccion":"FAR05","fecha_instalacion":"2024-02-22"}},{"type":"Feature","geometry":{"type":"Point","coordinates":[-17.91142,28.58697]},"properties":{"id":72,"nombre":"S56","alias":"Sensor56 CO2","codigo":"NNAR-CGLC-FAR02","poblacion_codigo":"NNAR","poblacion_zona":"Puerto Naos - zona Naranja","entidad":"CGLC","instalacion":"P0","estancia":"","exterior":true,"altura":null,"planta":null,"direccion":"FAR02","fecha_instalacion":"2024-02-22"}},{"type":"Feature","geometry":{"type":"Point","coordinates":[-17.91169,28.58717]},"properties":{"id":73,"nombre":"S57","alias":"Sensor57 CO2","codigo":"NVER-CMI-FAR02","poblacion_codigo":"NVER","poblacion_zona":"Puerto Naos - zona Verde","entidad":"CMI","instalacion":"P0","estancia":"","exterior":true,"altura":null,"planta":null,"direccion":"FAR02","fecha_instalacion":"2024-02-23"}},{"type":"Feature","geometry":{"type":"Point","coordinates":[-17.91061,28.58729]},"properties":{"id":75,"nombre":"S59","alias":"Sensor59 CO2","codigo":"NNAR-CGLC-FAR05","poblacion_codigo":"NNAR","poblacion_zona":"Puerto Naos - zona Naranja","entidad":"CGLC","instalacion":"P0","estancia":"","exterior":true,"altura":null,"planta":null,"direccion":"FAR05","fecha_instalacion":"2024-03-06"}},{"type":"Feature","geometry":{"type":"Point","coordinates":[-17.908767,28.583017]},"properties":{"id":86,"nombre":"S70","alias":"Sensor70 CO2","codigo":"NSOL-SOL-ESCL01-P0","poblacion_codigo":"NSOL","poblacion_zona":"Puerto Naos - zona Sol","entidad":"SOL","instalacion":"P0","estancia":"","exterior":true,"altura":null,"planta":null,"direccion":"ESCL01","fecha_instalacion":"2024-03-13"}},{"type":"Feature","geometry":{"type":"Point","coordinates":[-17.908718,28.582956]},"properties":{"id":87,"nombre":"S71","alias":"Sensor71 CO2","codigo":"NSOL-SOL-COM05-P0","poblacion_codigo":"NSOL","poblacion_zona":"Puerto Naos - zona Sol","entidad":"SOL","instalacion":"P0","estancia":"","exterior":true,"altura":null,"planta":null,"direccion":"COM05","fecha_instalacion":"2024-03-13"}},{"type":"Feature","geometry":{"type":"Point","coordinates":[-17.908785,28.583123]},"properties":{"id":88,"nombre":"S72","alias":"Sensor72 CO2","codigo":"NSOL-SOL-APT1101-P0","poblacion_codigo":"NSOL","poblacion_zona":"Puerto Naos - zona Sol","entidad":"SOL","instalacion":"P0","estancia":"","exterior":true,"altura":null,"planta":null,"direccion":"APT1101","fecha_instalacion":"2024-03-13"}},{"type":"Feature","geometry":{"type":"Point","coordinates":[-17.908476,28.58329]},"properties":{"id":89,"nombre":"S73","alias":"Sensor73 CO2","codigo":"NSOL-SOL-APT105-P0","poblacion_codigo":"NSOL","poblacion_zona":"Puerto Naos - zona Sol","entidad":"SOL","instalacion":"P0","estancia":"","exterior":true,"altura":null,"planta":null,"direccion":"APT105","fecha_instalacion":"2024-03-13"}},{"type":"Feature","geometry":{"type":"Point","coordinates":[-17.908264,28.5833]},"properties":{"id":90,"nombre":"S74","alias":"Sensor74 CO2","codigo":"NSOL-SOL-APT1103-P0","poblacion_codigo":"NSOL","poblacion_zona":"Puerto Naos - zona Sol","entidad":"SOL","instalacion":"P0","estancia":"","exterior":true,"altura":null,"planta":null,"direccion":"APT1103","fecha_instalacion":"2024-03-13"}},{"type":"Feature","geometry":{"type":"Point","coordinates":[-17.908562,28.583142]},"properties":{"id":91,"nombre":"S75","alias":"Sensor75 CO2","codigo":"NSOL-SOL-APT1111-P0","poblacion_codigo":"NSOL","poblacion_zona":"Puerto Naos - zona Sol","entidad":"SOL","instalacion":"P0","estancia":"","exterior":true,"altura":null,"planta":null,"direccion":"APT1111","fecha_instalacion":"2024-03-13"}},{"type":"Feature","geometry":{"type":"Point","coordinates":[-17.910567,28.586324]},"properties":{"id":97,"nombre":"S81","alias":"Sensor81 CO2","codigo":"NPASM-PASM-FAR01-P0","poblacion_codigo":"NPASM","poblacion_zona":"Puerto Naos - Paseo Marítimo","entidad":"PASM","instalacion":"P0","estancia":"","exterior":true,"altura":null,"planta":null,"direccion":"FAR01","fecha_instalacion":"2024-03-19"}},{"type":"Feature","geometry":{"type":"Point","coordinates":[-17.910504,28.586563]},"properties":{"id":98,"nombre":"S82","alias":"Sensor82 CO2","codigo":"NPASM-PASM-FAR02-P0","poblacion_codigo":"NPASM","poblacion_zona":"Puerto Naos - Paseo Marítimo","entidad":"PASM","instalacion":"P0","estancia":"","exterior":true,"altura":null,"planta":null,"direccion":"FAR02","fecha_instalacion":"2024-03-19"}},{"type":"Feature","geometry":{"type":"Point","coordinates":[-17.910369,28.586447]},"properties":{"id":99,"nombre":"S83","alias":"Sensor83 CO2","codigo":"NPASM-PASM-FAR03-P0","poblacion_codigo":"NPASM","poblacion_zona":"Puerto Naos - Paseo Marítimo","entidad":"PASM","instalacion":"P0","estancia":"","exterior":true,"altura":null,"planta":null,"direccion":"FAR03","fecha_instalacion":"2024-03-19"}},{"type":"Feature","geometry":{"type":"Point","coordinates":[-17.910257,28.586246]},"properties":{"id":100,"nombre":"S84","alias":"Sensor84 CO2","codigo":"NPASM-PASM-FAR04-P0","poblacion_codigo":"NPASM","poblacion_zona":"Puerto Naos - Paseo Marítimo","entidad":"PASM","instalacion":"P0","estancia":"","exterior":true,"altura":null,"planta":null,"direccion":"FAR04","fecha_instalacion":"2024-03-19"}},{"type":"Feature","geometry":{"type":"Point","coordinates":[-17.910151,28.586039]},"properties":{"id":101,"nombre":"S85","alias":"Sensor85 CO2","codigo":"NPASM-PASM-FAR05-P0","poblacion_codigo":"NPASM","poblacion_zona":"Puerto Naos - Paseo Marítimo","entidad":"PASM","instalacion":"P0","estancia":"","exterior":true,"altura":null,"planta":null,"direccion":"FAR05","fecha_instalacion":"2024-03-19"}},{"type":"Feature","geometry":{"type":"Point","coordinates":[-17.910042,28.585834]},"properties":{"id":102,"nombre":"S86","alias":"Sensor86 CO2","codigo":"NPASM-PASM-FAR06-P0","poblacion_codigo":"NPASM","poblacion_zona":"Puerto Naos - Paseo Marítimo","entidad":"PASM","instalacion":"P0","estancia":"","exterior":true,"altura":null,"planta":null,"direccion":"FAR06","fecha_instalacion":"2024-03-19"}},{"type":"Feature","geometry":{"type":"Point","coordinates":[-17.90994,28.585643]},"properties":{"id":103,"nombre":"S87","alias":"Sensor87 CO2","codigo":"NPASM-PASM-FAR07-P0","poblacion_codigo":"NPASM","poblacion_zona":"Puerto Naos - Paseo Marítimo","entidad":"PASM","instalacion":"P0","estancia":"","exterior":true,"altura":null,"planta":null,"direccion":"FAR07","fecha_instalacion":"2024-03-19"}},{"type":"Feature","geometry":{"type":"Point","coordinates":[-17.909829,28.585426]},"properties":{"id":104,"nombre":"S88","alias":"Sensor88 CO2","codigo":"NPASM-PASM-FAR08-P0","poblacion_codigo":"NPASM","poblacion_zona":"Puerto Naos - Paseo Marítimo","entidad":"PASM","instalacion":"P0","estancia":"","exterior":true,"altura":null,"planta":null,"direccion":"FAR08","fecha_instalacion":"2024-03-19"}},{"type":"Feature","geometry":{"type":"Point","coordinates":[-17.909726,28.58524]},"properties":{"id":105,"nombre":"S89","alias":"Sensor89 CO2","codigo":"NPASM-PASM-FAR09-P0","poblacion_codigo":"NPASM","poblacion_zona":"Puerto Naos - Paseo Marítimo","entidad":"PASM","instalacion":"P0","estancia":"","exterior":true,"altura":null,"planta":null,"direccion":"FAR09","fecha_instalacion":"2024-03-19"}},{"type":"Feature","geometry":{"type":"Point","coordinates":[-17.909641,28.585066]},"properties":{"id":106,"nombre":"S90","alias":"Sensor90 CO2","codigo":"NPASM-PASM-FAR010-P0","poblacion_codigo":"NPASM","poblacion_zona":"Puerto Naos - Paseo Marítimo","entidad":"PASM","instalacion":"P0","estancia":"","exterior":true,"altura":null,"planta":null,"direccion":"FAR10","fecha_instalacion":"2024-03-19"}},{"type":"Feature","geometry":{"type":"Point","coordinates":[-17.909555,28.584902]},"properties":{"id":107,"nombre":"S91","alias":"Sensor91 CO2","codigo":"NPASM-PASM-FAR011-P0","poblacion_codigo":"NPASM","poblacion_zona":"Puerto Naos - Paseo Marítimo","entidad":"PASM","instalacion":"P0","estancia":"","exterior":true,"altura":null,"planta":null,"direccion":"FAR11","fecha_instalacion":"2024-03-19"}},{"type":"Feature","geometry":{"type":"Point","coordinates":[-17.90945,28.584748]},"properties":{"id":108,"nombre":"S92","alias":"Sensor92 CO2","codigo":"NPASM-PASM-FAR012-P0","poblacion_codigo":"NPASM","poblacion_zona":"Puerto Naos - Paseo Marítimo","entidad":"PASM","instalacion":"P0","estancia":"","exterior":true,"altura":null,"planta":null,"direccion":"FAR12","fecha_instalacion":"2024-03-19"}},{"type":"Feature","geometry":{"type":"Point","coordinates":[-17.909315,28.584617]},"properties":{"id":109,"nombre":"S93","alias":"Sensor93 CO2","codigo":"NPASM-PASM-FAR013-P0","poblacion_codigo":"NPASM","poblacion_zona":"Puerto Naos - Paseo Marítimo","entidad":"PASM","instalacion":"P0","estancia":"","exterior":true,"altura":null,"planta":null,"direccion":"FAR13","fecha_instalacion":"2024-03-19"}},{"type":"Feature","geometry":{"type":"Point","coordinates":[-17.909177,28.584478]},"properties":{"id":110,"nombre":"S94","alias":"Sensor94 CO2","codigo":"NPASM-PASM-FAR014-P0","poblacion_codigo":"NPASM","poblacion_zona":"Puerto Naos - Paseo Marítimo","entidad":"PASM","instalacion":"P0","estancia":"","exterior":true,"altura":null,"planta":null,"direccion":"FAR14","fecha_instalacion":"2024-03-19"}},{"type":"Feature","geometry":{"type":"Point","coordinates":[-17.909042,28.584342]},"properties":{"id":111,"nombre":"S95","alias":"Sensor95 CO2","codigo":"NPASM-PASM-FAR015-P0","poblacion_codigo":"NPASM","poblacion_zona":"Puerto Naos - Paseo Marítimo","entidad":"PASM","instalacion":"P0","estancia":"","exterior":true,"altura":null,"planta":null,"direccion":"FAR15","fecha_instalacion":"2024-03-19"}},{"type":"Feature","geometry":{"type":"Point","coordinates":[-17.908906,28.584203]},"properties":{"id":112,"nombre":"S96","alias":"Sensor96 CO2","codigo":"NPASM-PASM-FAR016-P0","poblacion_codigo":"NPASM","poblacion_zona":"Puerto Naos - Paseo Marítimo","entidad":"PASM","instalacion":"P0","estancia":"","exterior":true,"altura":null,"planta":null,"direccion":"FAR16","fecha_instalacion":"2024-03-19"}},{"type":"Feature","geometry":{"type":"Point","coordinates":[-17.908778,28.584068]},"properties":{"id":113,"nombre":"S97","alias":"Sensor97 CO2","codigo":"NPASM-PASM-FAR017-P0","poblacion_codigo":"NPASM","poblacion_zona":"Puerto Naos - Paseo Marítimo","entidad":"PASM","instalacion":"P0","estancia":"","exterior":true,"altura":null,"planta":null,"direccion":"FAR17","fecha_instalacion":"2024-03-19"}},{"type":"Feature","geometry":{"type":"Point","coordinates":[-17.908691,28.58391]},"properties":{"id":114,"nombre":"S98","alias":"Sensor98 CO2","codigo":"NPASM-PASM-FAR018-P0","poblacion_codigo":"NPASM","poblacion_zona":"Puerto Naos - Paseo Marítimo","entidad":"PASM","instalacion":"P0","estancia":"","exterior":true,"altura":null,"planta":null,"direccion":"FAR18","fecha_instalacion":"2024-03-19"}},{"type":"Feature","geometry":{"type":"Point","coordinates":[-17.908688,28.583733]},"properties":{"id":115,"nombre":"S99","alias":"Sensor99 CO2","codigo":"NPASM-PASM-FAR019-P0","poblacion_codigo":"NPASM","poblacion_zona":"Puerto Naos - Paseo Marítimo","entidad":"PASM","instalacion":"P0","estancia":"","exterior":true,"altura":null,"planta":null,"direccion":"FAR19","fecha_instalacion":"2024-03-19"}},{"type":"Feature","geometry":{"type":"Point","coordinates":[-17.908766,28.583564]},"properties":{"id":116,"nombre":"S100","alias":"Sensor100 CO2","codigo":"NPASM-PASM-FAR020-P0","poblacion_codigo":"NPASM","poblacion_zona":"Puerto Naos - Paseo Marítimo","entidad":"PASM","instalacion":"P0","estancia":"","exterior":true,"altura":null,"planta":null,"direccion":"FAR20","fecha_instalacion":"2024-03-19"}},{"type":"Feature","geometry":{"type":"Point","coordinates":[-17.908902,28.583432]},"properties":{"id":117,"nombre":"S101","alias":"Sensor101 CO2","codigo":"NPASM-PASM-FAR021-P0","poblacion_codigo":"NPASM","poblacion_zona":"Puerto Naos - Paseo Marítimo","entidad":"PASM","instalacion":"P0","estancia":"","exterior":true,"altura":null,"planta":null,"direccion":"FAR21","fecha_instalacion":"2024-03-19"}},{"type":"Feature","geometry":{"type":"Point","coordinates":[-17.909036,28.583296]},"properties":{"id":118,"nombre":"S102","alias":"Sensor102 CO2","codigo":"NPASM-PASM-FAR022-P0","poblacion_codigo":"NPASM","poblacion_zona":"Puerto Naos - Paseo Marítimo","entidad":"PASM","instalacion":"P0","estancia":"","exterior":true,"altura":null,"planta":null,"direccion":"FAR22","fecha_instalacion":"2024-03-19"}},{"type":"Feature","geometry":{"type":"Point","coordinates":[-17.909167,28.583161]},"properties":{"id":119,"nombre":"S103","alias":"Sensor103 CO2","codigo":"NPASM-PASM-FAR023-P0","poblacion_codigo":"NPASM","poblacion_zona":"Puerto Naos - Paseo Marítimo","entidad":"PASM","instalacion":"P0","estancia":"","exterior":true,"altura":null,"planta":null,"direccion":"FAR23","fecha_instalacion":"2024-03-19"}},{"type":"Feature","geometry":{"type":"Point","coordinates":[-17.923455,28.599982]},"properties":{"id":120,"nombre":"S182","alias":"Sensor182 CO2","codigo":"PARK-PARK-SEN03-P0","poblacion_codigo":"PARK","poblacion_zona":"Parking público","entidad":"PARK","instalacion":"P0","estancia":"","exterior":true,"altura":null,"planta":null,"direccion":"SEN03","fecha_instalacion":"2024-03-21"}},{"type":"Feature","geometry":{"type":"Point","coordinates":[-17.919285,28.592977]},"properties":{"id":121,"nombre":"S183","alias":"Sensor183 CO2","codigo":"BAZU-CBOM-MAST01-P0","poblacion_codigo":"BAZU","poblacion_zona":"La Bombilla - zona Azul","entidad":"CBOM","instalacion":"P0","estancia":"","exterior":true,"altura":null,"planta":null,"direccion":"MAST01","fecha_instalacion":"2024-03-21"}},{"type":"Feature","geometry":{"type":"Point","coordinates":[-17.919111,28.592903]},"properties":{"id":122,"nombre":"S184","alias":"Sensor184 CO2","codigo":"BAZU-CBOM-MAST02-P0","poblacion_codigo":"BAZU","poblacion_zona":"La Bombilla - zona Azul","entidad":"CBOM","instalacion":"P0","estancia":"","exterior":true,"altura":null,"planta":null,"direccion":"MAST02","fecha_instalacion":"2024-03-21"}},{"type":"Feature","geometry":{"type":"Point","coordinates":[-17.919045,28.592772]},"properties":{"id":123,"nombre":"S185","alias":"Sensor185 CO2","codigo":"BAZU-CBOM-MAST03-P0","poblacion_codigo":"BAZU","poblacion_zona":"La Bombilla - zona Azul","entidad":"CBOM","instalacion":"P0","estancia":"","exterior":true,"altura":null,"planta":null,"direccion":"MAST03","fecha_instalacion":"2024-03-21"}},{"type":"Feature","geometry":{"type":"Point","coordinates":[-17.918013,28.593022]},"properties":{"id":124,"nombre":"S186","alias":"Sensor186 CO2","codigo":"BAMA-CBOM-MAST04-P0","poblacion_codigo":"BAMA","poblacion_zona":"La Bombilla - zona Amarilla","entidad":"CBOM","instalacion":"P0","estancia":"","exterior":true,"altura":null,"planta":null,"direccion":"MAST04","fecha_instalacion":"2024-03-21"}},{"type":"Feature","geometry":{"type":"Point","coordinates":[-17.917589,28.593084]},"properties":{"id":125,"nombre":"S187","alias":"Sensor187 CO2","codigo":"BAMA-CBOM-MAST05-P0","poblacion_codigo":"BAMA","poblacion_zona":"La Bombilla - zona Amarilla","entidad":"CBOM","instalacion":"P0","estancia":"","exterior":true,"altura":null,"planta":null,"direccion":"MAST05","fecha_instalacion":"2024-03-21"}},{"type":"Feature","geometry":{"type":"Point","coordinates":[-17.917516,28.592999]},"properties":{"id":126,"nombre":"S188","alias":"Sensor188 CO2","codigo":"BAMA-CBOM-MAST06-P0","poblacion_codigo":"BAMA","poblacion_zona":"La Bombilla - zona Amarilla","entidad":"CBOM","instalacion":"P0","estancia":"","exterior":true,"altura":null,"planta":null,"direccion":"MAST06","fecha_instalacion":"2024-03-21"}},{"type":"Feature","geometry":{"type":"Point","coordinates":[-17.917707,28.592549]},"properties":{"id":127,"nombre":"S189","alias":"Sensor189 CO2","codigo":"BAMA-CBOM-MAST07-P0","poblacion_codigo":"BAMA","poblacion_zona":"La Bombilla - zona Amarilla","entidad":"CBOM","instalacion":"P0","estancia":"","exterior":true,"altura":null,"planta":null,"direccion":"MAST07","fecha_instalacion":"2024-03-21"}},{"type":"Feature","geometry":{"type":"Point","coordinates":[-17.917924,28.592298]},"properties":{"id":128,"nombre":"S190","alias":"Sensor190 CO2","codigo":"BVER-CBOM-MAST08-P0","poblacion_codigo":"BVER","poblacion_zona":"La Bombilla - zona Verde","entidad":"CBOM","instalacion":"P0","estancia":"","exterior":true,"altura":null,"planta":null,"direccion":"MAST08","fecha_instalacion":"2024-03-21"}},{"type":"Feature","geometry":{"type":"Point","coordinates":[-17.917758,28.592124]},"properties":{"id":129,"nombre":"S191","alias":"Sensor191 CO2","codigo":"BVER-CBOM-MAST09-P0","poblacion_codigo":"BVER","poblacion_zona":"La Bombilla - zona Verde","entidad":"CBOM","instalacion":"P0","estancia":"","exterior":true,"altura":null,"planta":null,"direccion":"MAST09","fecha_instalacion":"2024-03-21"}},{"type":"Feature","geometry":{"type":"Point","coordinates":[-17.917543,28.591975]},"properties":{"id":130,"nombre":"S192","alias":"Sensor192 CO2","codigo":"BVER-CBOM-MAST10-P0","poblacion_codigo":"BVER","poblacion_zona":"La Bombilla - zona Verde","entidad":"CBOM","instalacion":"P0","estancia":"","exterior":true,"altura":null,"planta":null,"direccion":"MAST10","fecha_instalacion":"2024-03-21"}},{"type":"Feature","geometry":{"type":"Point","coordinates":[-17.919434,28.593129]},"properties":{"id":131,"nombre":"S193","alias":"Sensor193 CO2","codigo":"BAZU-CBOM-MAST11-P0","poblacion_codigo":"BAZU","poblacion_zona":"La Bombilla - zona Azul","entidad":"CBOM","instalacion":"P0","estancia":"","exterior":true,"altura":null,"planta":null,"direccion":"MAST11","fecha_instalacion":"2024-03-21"}},{"type":"Feature","geometry":{"type":"Point","coordinates":[-17.920701,28.593065]},"properties":{"id":132,"nombre":"S194","alias":"Sensor194 CO2","codigo":"BFUC-CBOM-MAST12-P0","poblacion_codigo":"BFUC","poblacion_zona":"La Bombilla - zona Fucsia","entidad":"CBOM","instalacion":"P0","estancia":"","exterior":true,"altura":null,"planta":null,"direccion":"MAST12","fecha_instalacion":"2024-03-21"}},{"type":"Feature","geometry":{"type":"Point","coordinates":[-17.917879,28.592743]},"properties":{"id":133,"nombre":"S195","alias":"Sensor195 CO2","codigo":"BAMA-CBOM-MAST13-P0","poblacion_codigo":"BAMA","poblacion_zona":"La Bombilla - zona Amarilla","entidad":"CBOM","instalacion":"P0","estancia":"","exterior":true,"altura":null,"planta":null,"direccion":"MAST13","fecha_instalacion":"2024-03-21"}},{"type":"Feature","geometry":{"type":"Point","coordinates":[-17.917813,28.592895]},"properties":{"id":134,"nombre":"S196","alias":"Sensor196 CO2","codigo":"BAMA-CBOM-MAST14-P0","poblacion_codigo":"BAMA","poblacion_zona":"La Bombilla - zona Amarilla","entidad":"CBOM","instalacion":"P0","estancia":"","exterior":true,"altura":null,"planta":null,"direccion":"MAST14","fecha_instalacion":"2024-03-21"}},{"type":"Feature","geometry":{"type":"Point","coordinates":[-17.91759,28.59295]},"properties":{"id":135,"nombre":"S197","alias":"Sensor197 CO2","codigo":"BAMA-CBOM-MAST15-P0","poblacion_codigo":"BAMA","poblacion_zona":"La Bombilla - zona Amarilla","entidad":"CBOM","instalacion":"P0","estancia":"","exterior":true,"altura":null,"planta":null,"direccion":"MAST15","fecha_instalacion":"2024-03-21"}},{"type":"Feature","geometry":{"type":"Point","coordinates":[-17.918127,28.59322]},"properties":{"id":136,"nombre":"S198","alias":"Sensor198 CO2","codigo":"BAMA-CBOM-MAST16-P0","poblacion_codigo":"BAMA","poblacion_zona":"La Bombilla - zona Amarilla","entidad":"CBOM","instalacion":"P0","estancia":"","exterior":true,"altura":null,"planta":null,"direccion":"MAST16","fecha_instalacion":"2024-03-21"}},{"type":"Feature","geometry":{"type":"Point","coordinates":[-17.918391,28.593167]},"properties":{"id":137,"nombre":"S199","alias":"Sensor199 CO2","codigo":"BFUC-CBOM-MAST17-P0","poblacion_codigo":"BFUC","poblacion_zona":"La Bombilla - zona Fucsia","entidad":"CBOM","instalacion":"P0","estancia":"","exterior":true,"altura":null,"planta":null,"direccion":"MAST17","fecha_instalacion":"2024-03-21"}},{"type":"Feature","geometry":{"type":"Point","coordinates":[-17.918526,28.592812]},"properties":{"id":138,"nombre":"S200","alias":"Sensor200 CO2","codigo":"BAMA-CBOM-MAST18-P0","poblacion_codigo":"BAMA","poblacion_zona":"La Bombilla - zona Amarilla","entidad":"CBOM","instalacion":"P0","estancia":"","exterior":true,"altura":null,"planta":null,"direccion":"MAST18","fecha_instalacion":"2024-03-21"}},{"type":"Feature","geometry":{"type":"Point","coordinates":[-17.909776,28.586372]},"properties":{"id":139,"nombre":"S104","alias":"Sensor104 CO2","codigo":"NAZU-BHOM-FAR01-P0","poblacion_codigo":"NAZU","poblacion_zona":"Puerto Naos - zona Azul","entidad":"BHOM","instalacion":"P0","estancia":"","exterior":true,"altura":null,"planta":null,"direccion":"FAR01","fecha_instalacion":"2024-04-05"}},{"type":"Feature","geometry":{"type":"Point","coordinates":[-17.90988,28.58634]},"properties":{"id":140,"nombre":"S105","alias":"Sensor105 CO2","codigo":"NAZU-BHOM-FAR02-P0","poblacion_codigo":"NAZU","poblacion_zona":"Puerto Naos - zona Azul","entidad":"BHOM","instalacion":"P0","estancia":"","exterior":true,"altura":null,"planta":null,"direccion":"FAR02","fecha_instalacion":"2024-04-05"}},{"type":"Feature","geometry":{"type":"Point","coordinates":[-17.909975,28.586296]},"properties":{"id":141,"nombre":"S106","alias":"Sensor106 CO2","codigo":"NAZU-BHOM-FAR03-P2","poblacion_codigo":"NAZU","poblacion_zona":"Puerto Naos - zona Azul","entidad":"BHOM","instalacion":"P0","estancia":"","exterior":true,"altura":null,"planta":null,"direccion":"FAR03","fecha_instalacion":"2024-04-05"}},{"type":"Feature","geometry":{"type":"Point","coordinates":[-17.91008,28.586266]},"properties":{"id":142,"nombre":"S107","alias":"Sensor107 CO2","codigo":"NAZU-BHOM-FAR04-P3","poblacion_codigo":"NAZU","poblacion_zona":"Puerto Naos - zona Azul","entidad":"BHOM","instalacion":"P0","estancia":"","exterior":true,"altura":null,"planta":null,"direccion":"FAR04","fecha_instalacion":"2024-04-05"}},{"type":"Feature","geometry":{"type":"Point","coordinates":[-17.910089,28.586331]},"properties":{"id":143,"nombre":"S108","alias":"Sensor108 CO2","codigo":"NAZU-BHOM-FAR05-P4","poblacion_codigo":"NAZU","poblacion_zona":"Puerto Naos - zona Azul","entidad":"BHOM","instalacion":"P0","estancia":"","exterior":true,"altura":null,"planta":null,"direccion":"FAR05","fecha_instalacion":"2024-04-05"}},{"type":"Feature","geometry":{"type":"Point","coordinates":[-17.909965,28.586377]},"properties":{"id":144,"nombre":"S109","alias":"Sensor109 CO2","codigo":"NAZU-BHOM-FAR06-P5","poblacion_codigo":"NAZU","poblacion_zona":"Puerto Naos - zona Azul","entidad":"BHOM","instalacion":"P0","estancia":"","exterior":true,"altura":null,"planta":null,"direccion":"FAR06","fecha_instalacion":"2024-04-05"}},{"type":"Feature","geometry":{"type":"Point","coordinates":[-17.909885,28.586404]},"properties":{"id":145,"nombre":"S110","alias":"Sensor110 CO2","codigo":"NAZU-BHOM-FAR07-P6","poblacion_codigo":"NAZU","poblacion_zona":"Puerto Naos - zona Azul","entidad":"BHOM","instalacion":"P0","estancia":"","exterior":true,"altura":null,"planta":null,"direccion":"FAR07","fecha_instalacion":"2024-04-05"}},{"type":"Feature","geometry":{"type":"Point","coordinates":[-17.909798,28.586449]},"properties":{"id":146,"nombre":"S111","alias":"Sensor111 CO2","codigo":"NAZU-BHOM-FAR08-P7","poblacion_codigo":"NAZU","poblacion_zona":"Puerto Naos - zona Azul","entidad":"BHOM","instalacion":"P0","estancia":"","exterior":true,"altura":null,"planta":null,"direccion":"FAR08","fecha_instalacion":"2024-04-05"}},{"type":"Feature","geometry":{"type":"Point","coordinates":[-17.909673,28.586454]},"properties":{"id":147,"nombre":"S112","alias":"Sensor112 CO2","codigo":"NAZU-BHOM-FAR09-P0","poblacion_codigo":"NAZU","poblacion_zona":"Puerto Naos - zona Azul","entidad":"BHOM","instalacion":"P0","estancia":"","exterior":true,"altura":null,"planta":null,"direccion":"FAR09","fecha_instalacion":"2024-04-09"}},{"type":"Feature","geometry":{"type":"Point","coordinates":[-17.909564,28.586515]},"properties":{"id":148,"nombre":"S113","alias":"Sensor113 CO2","codigo":"NAZU-BHOM-FAR10-P0","poblacion_codigo":"NAZU","poblacion_zona":"Puerto Naos - zona Azul","entidad":"BHOM","instalacion":"P0","estancia":"","exterior":true,"altura":null,"planta":null,"direccion":"FAR10","fecha_instalacion":"2024-04-09"}},{"type":"Feature","geometry":{"type":"Point","coordinates":[-17.909462,28.586562]},"properties":{"id":149,"nombre":"S114","alias":"Sensor114 CO2","codigo":"NAZU-BHOM-FAR11-P0","poblacion_codigo":"NAZU","poblacion_zona":"Puerto Naos - zona Azul","entidad":"BHOM","instalacion":"P0","estancia":"","exterior":true,"altura":null,"planta":null,"direccion":"FAR11","fecha_instalacion":"2024-04-09"}},{"type":"Feature","geometry":{"type":"Point","coordinates":[-17.909364,28.586597]},"properties":{"id":150,"nombre":"S115","alias":"Sensor115 CO2","codigo":"NAZU-BHOM-FAR12-P0","poblacion_codigo":"NAZU","poblacion_zona":"Puerto Naos - zona Azul","entidad":"BHOM","instalacion":"P0","estancia":"","exterior":true,"altura":null,"planta":null,"direccion":"FAR12","fecha_instalacion":"2024-04-09"}},{"type":"Feature","geometry":{"type":"Point","coordinates":[-17.909325,28.58654]},"properties":{"id":151,"nombre":"S116","alias":"Sensor116 CO2","codigo":"NAZU-BHOM-FAR13-P0","poblacion_codigo":"NAZU","poblacion_zona":"Puerto Naos - zona Azul","entidad":"BHOM","instalacion":"P0","estancia":"","exterior":true,"altura":null,"planta":null,"direccion":"FAR13","fecha_instalacion":"2024-04-09"}},{"type":"Feature","geometry":{"type":"Point","coordinates":[-17.909432,28.586505]},"properties":{"id":152,"nombre":"S117","alias":"Sensor117 CO2","codigo":"NAZU-BHOM-FAR14-P0","poblacion_codigo":"NAZU","poblacion_zona":"Puerto Naos - zona Azul","entidad":"BHOM","instalacion":"P0","estancia":"","exterior":true,"altura":null,"planta":null,"direccion":"FAR14","fecha_instalacion":"2024-04-09"}},{"type":"Feature","geometry":{"type":"Point","coordinates":[-17.909546,28.586465]},"properties":{"id":153,"nombre":"S118","alias":"Sensor118 CO2","codigo":"NAZU-BHOM-FAR15-P0","poblacion_codigo":"NAZU","poblacion_zona":"Puerto Naos - zona Azul","entidad":"BHOM","instalacion":"P0","estancia":"","exterior":true,"altura":null,"planta":null,"direccion":"FAR15","fecha_instalacion":"2024-04-09"}},{"type":"Feature","geometry":{"type":"Point","coordinates":[-17.909639,28.586424]},"properties":{"id":154,"nombre":"S119","alias":"Sensor119 CO2","codigo":"NAZU-BHOM-FAR16-P0","poblacion_codigo":"NAZU","poblacion_zona":"Puerto Naos - zona Azul","entidad":"BHOM","instalacion":"P0","estancia":"","exterior":true,"altura":null,"planta":null,"direccion":"FAR16","fecha_instalacion":"2024-04-09"}},{"type":"Feature","geometry":{"type":"Point","coordinates":[-17.910536,28.587851]},"properties":{"id":155,"nombre":"S120","alias":"Sensor120 CO2","codigo":"NNAR-CMDC-FAR18-P0","poblacion_codigo":"NNAR","poblacion_zona":"Puerto Naos - zona Naranja","entidad":"CMDC","instalacion":"P0","estancia":"","exterior":true,"altura":null,"planta":null,"direccion":"FAR18","fecha_instalacion":"2024-04-09"}},{"type":"Feature","geometry":{"type":"Point","coordinates":[-17.911017,28.587659]},"properties":{"id":156,"nombre":"S121","alias":"Sensor121 CO2","codigo":"NVER-CGC-FAR06-P0","poblacion_codigo":"NVER","poblacion_zona":"Puerto Naos - zona Verde","entidad":"CGC","instalacion":"P0","estancia":"","exterior":true,"altura":null,"planta":null,"direccion":"FAR06","fecha_instalacion":"2024-04-09"}},{"type":"Feature","geometry":{"type":"Point","coordinates":[-17.91098,28.587131]},"properties":{"id":157,"nombre":"S122","alias":"Sensor122 CO2","codigo":"NNAR-CGLC-FAR06-P0","poblacion_codigo":"NNAR","poblacion_zona":"Puerto Naos - zona Naranja","entidad":"CGLC","instalacion":"P0","estancia":"","exterior":true,"altura":null,"planta":null,"direccion":"FAR06","fecha_instalacion":"2024-04-09"}},{"type":"Feature","geometry":{"type":"Point","coordinates":[-17.911616,28.587978]},"properties":{"id":158,"nombre":"S123","alias":"Sensor123 CO2","codigo":"NVER-CLAJ-FAR05-P0","poblacion_codigo":"NVER","poblacion_zona":"Puerto Naos - zona Verde","entidad":"CLAJ","instalacion":"P0","estancia":"","exterior":true,"altura":null,"planta":null,"direccion":"FAR05","fecha_instalacion":"2024-04-09"}},{"type":"Feature","geometry":{"type":"Point","coordinates":[-17.911165,28.588145]},"properties":{"id":159,"nombre":"S124","alias":"Sensor124 CO2","codigo":"NVER-CLAJ-FAR06-P0","poblacion_codigo":"NVER","poblacion_zona":"Puerto Naos - zona Verde","entidad":"CLAJ","instalacion":"P0","estancia":"","exterior":true,"altura":null,"planta":null,"direccion":"FAR06","fecha_instalacion":"2024-04-09"}},{"type":"Feature","geometry":{"type":"Point","coordinates":[-17.90984,28.58675]},"properties":{"id":160,"nombre":"S125","alias":"Sensor125 CO2","codigo":"NROJ-JGPP-FAR01-P0","poblacion_codigo":"NROJ","poblacion_zona":"Puerto Naos - zona Roja","entidad":"JGPP","instalacion":"P0","estancia":"","exterior":true,"altura":null,"planta":null,"direccion":"FAR01","fecha_instalacion":"2024-04-10"}},{"type":"Feature","geometry":{"type":"Point","coordinates":[-17.90971,28.5868]},"properties":{"id":161,"nombre":"S126","alias":"Sensor126 CO2","codigo":"NROJ-JGPP-FAR02-P0","poblacion_codigo":"NROJ","poblacion_zona":"Puerto Naos - zona Roja","entidad":"JGPP","instalacion":"P0","estancia":"","exterior":true,"altura":null,"planta":null,"direccion":"FAR02","fecha_instalacion":"2024-04-10"}},{"type":"Feature","geometry":{"type":"Point","coordinates":[-17.90957,28.58685]},"properties":{"id":162,"nombre":"S127","alias":"Sensor127 CO2","codigo":"NROJ-JGPP-FAR03-P0","poblacion_codigo":"NROJ","poblacion_zona":"Puerto Naos - zona Roja","entidad":"JGPP","instalacion":"P0","estancia":"","exterior":true,"altura":null,"planta":null,"direccion":"FAR03","fecha_instalacion":"2024-04-10"}},{"type":"Feature","geometry":{"type":"Point","coordinates":[-17.90941,28.58692]},"properties":{"id":163,"nombre":"S128","alias":"Sensor128 CO2","codigo":"NROJ-JGPP-FAR04-P0","poblacion_codigo":"NROJ","poblacion_zona":"Puerto Naos - zona Roja","entidad":"JGPP","instalacion":"P0","estancia":"","exterior":true,"altura":null,"planta":null,"direccion":"FAR04","fecha_instalacion":"2024-04-10"}},{"type":"Feature","geometry":{"type":"Point","coordinates":[-17.90884,28.5857]},"properties":{"id":164,"nombre":"S129","alias":"Sensor129 CO2","codigo":"NAMA-PDEL-FAR01-P0","poblacion_codigo":"NAMA","poblacion_zona":"Puerto Naos - zona Amarilla","entidad":"PDEL","instalacion":"P0","estancia":"","exterior":true,"altura":null,"planta":null,"direccion":"FAR01","fecha_instalacion":"2024-04-11"}},{"type":"Feature","geometry":{"type":"Point","coordinates":[-17.90902,28.58565]},"properties":{"id":165,"nombre":"S130","alias":"Sensor130 CO2","codigo":"NAMA-PDEL-FAR02-P0","poblacion_codigo":"NAMA","poblacion_zona":"Puerto Naos - zona Amarilla","entidad":"PDEL","instalacion":"P0","estancia":"","exterior":true,"altura":null,"planta":null,"direccion":"FAR02","fecha_instalacion":"2024-04-11"}},{"type":"Feature","geometry":{"type":"Point","coordinates":[-17.90921,28.58558]},"properties":{"id":166,"nombre":"S131","alias":"Sensor131 CO2","codigo":"NAMA-PDEL-FAR03-P0","poblacion_codigo":"NAMA","poblacion_zona":"Puerto Naos - zona Amarilla","entidad":"PDEL","instalacion":"P0","estancia":"","exterior":true,"altura":null,"planta":null,"direccion":"FAR03","fecha_instalacion":"2024-04-11"}},{"type":"Feature","geometry":{"type":"Point","coordinates":[-17.91011,28.58733]},"properties":{"id":167,"nombre":"S132","alias":"Sensor132 CO2","codigo":"NNAR-CMDM-FAR03-P0","poblacion_codigo":"NNAR","poblacion_zona":"Puerto Naos - zona Naranja","entidad":"CMDM","instalacion":"P0","estancia":"","exterior":true,"altura":null,"planta":null,"direccion":"FAR03","fecha_instalacion":"2024-04-11"}},{"type":"Feature","geometry":{"type":"Point","coordinates":[-17.91002,28.58741]},"properties":{"id":168,"nombre":"S133","alias":"Sensor133 CO2","codigo":"NNAR-CMDM-FAR04-P0","poblacion_codigo":"NNAR","poblacion_zona":"Puerto Naos - zona Naranja","entidad":"CMDM","instalacion":"P0","estancia":"","exterior":true,"altura":null,"planta":null,"direccion":"FAR04","fecha_instalacion":"2024-04-11"}},{"type":"Feature","geometry":{"type":"Point","coordinates":[-17.90992,28.58751]},"properties":{"id":169,"nombre":"S134","alias":"Sensor134 CO2","codigo":"NROJ-CMDM-FAR05-P0","poblacion_codigo":"NROJ","poblacion_zona":"Puerto Naos - zona Roja","entidad":"CMDM","instalacion":"P0","estancia":"","exterior":true,"altura":null,"planta":null,"direccion":"FAR05","fecha_instalacion":"2024-04-11"}},{"type":"Feature","geometry":{"type":"Point","coordinates":[-17.90977,28.58754]},"properties":{"id":170,"nombre":"S135","alias":"Sensor135 CO2","codigo":"NROJ-CMDM-FAR06-P0","poblacion_codigo":"NROJ","poblacion_zona":"Puerto Naos - zona Roja","entidad":"CMDM","instalacion":"P0","estancia":"","exterior":true,"altura":null,"planta":null,"direccion":"FAR06","fecha_instalacion":"2024-04-11"}},{"type":"Feature","geometry":{"type":"Point","coordinates":[-17.90998,28.58736]},"properties":{"id":171,"nombre":"S136","alias":"Sensor136 CO2","codigo":"NROJ-CMDM-FAR07-P0","poblacion_codigo":"NROJ","poblacion_zona":"Puerto Naos - zona Roja","entidad":"CMDM","instalacion":"P0","estancia":"","exterior":true,"altura":null,"planta":null,"direccion":"FAR07","fecha_instalacion":"2024-04-11"}},{"type":"Feature","geometry":{"type":"Point","coordinates":[-17.909997,28.58615]},"properties":{"id":172,"nombre":"S137","alias":"Sensor137 CO2","codigo":"NAZU-PCOR-FAR01-P0","poblacion_codigo":"NAZU","poblacion_zona":"Puerto Naos - zona Azul","entidad":"PCOR","instalacion":"P0","estancia":"","exterior":true,"altura":null,"planta":null,"direccion":"FAR01","fecha_instalacion":"2024-04-11"}},{"type":"Feature","geometry":{"type":"Point","coordinates":[-17.909823,28.586222]},"properties":{"id":173,"nombre":"S138","alias":"Sensor138 CO2","codigo":"NAZU-PCOR-FAR02-P0","poblacion_codigo":"NAZU","poblacion_zona":"Puerto Naos - zona Azul","entidad":"PCOR","instalacion":"P0","estancia":"","exterior":true,"altura":null,"planta":null,"direccion":"FAR02","fecha_instalacion":"2024-04-11"}},{"type":"Feature","geometry":{"type":"Point","coordinates":[-17.90883,28.58557]},"properties":{"id":174,"nombre":"S139","alias":"Sensor139 CO2","codigo":"NAMA-JTAB-FAR01-P0","poblacion_codigo":"NAMA","poblacion_zona":"Puerto Naos - zona Amarilla","entidad":"JTAB","instalacion":"P0","estancia":"","exterior":true,"altura":null,"planta":null,"direccion":"FAR01","fecha_instalacion":"2024-04-12"}},{"type":"Feature","geometry":{"type":"Point","coordinates":[-17.90905,28.58547]},"properties":{"id":175,"nombre":"S140","alias":"Sensor140 CO2","codigo":"NAMA-JTAB-FAR02-P0","poblacion_codigo":"NAMA","poblacion_zona":"Puerto Naos - zona Amarilla","entidad":"JTAB","instalacion":"P0","estancia":"","exterior":true,"altura":null,"planta":null,"direccion":"FAR02","fecha_instalacion":"2024-04-12"}},{"type":"Feature","geometry":{"type":"Point","coordinates":[-17.90929,28.58538]},"properties":{"id":176,"nombre":"S141","alias":"Sensor141 CO2","codigo":"NAMA-JTAB-FAR03-P0","poblacion_codigo":"NAMA","poblacion_zona":"Puerto Naos - zona Amarilla","entidad":"JTAB","instalacion":"P0","estancia":"","exterior":true,"altura":null,"planta":null,"direccion":"FAR03","fecha_instalacion":"2024-04-12"}},{"type":"Feature","geometry":{"type":"Point","coordinates":[-17.90949,28.58529]},"properties":{"id":177,"nombre":"S142","alias":"Sensor142 CO2","codigo":"NAMA-JTAB-FAR04-P0","poblacion_codigo":"NAMA","poblacion_zona":"Puerto Naos - zona Amarilla","entidad":"JTAB","instalacion":"P0","estancia":"","exterior":true,"altura":null,"planta":null,"direccion":"FAR04","fecha_instalacion":"2024-04-12"}},{"type":"Feature","geometry":{"type":"Point","coordinates":[-17.924002,28.599826]},"properties":{"id":178,"nombre":"S181","alias":"Sensor181 CO2","codigo":"PARK-PARK-SEN01-P0","poblacion_codigo":"PARK","poblacion_zona":"Parking público","entidad":"PARK","instalacion":"P0","estancia":"","exterior":true,"altura":null,"planta":null,"direccion":"SEN01","fecha_instalacion":"2024-04-18"}},{"type":"Feature","geometry":{"type":"Point","coordinates":[-17.923295,28.600295]},"properties":{"id":179,"nombre":"S180","alias":"Sensor180 CO2","codigo":"PARK-PARK-SEN02-P0","poblacion_codigo":"PARK","poblacion_zona":"Parking público","entidad":"PARK","instalacion":"P0","estancia":"","exterior":true,"altura":null,"planta":null,"direccion":"SEN02","fecha_instalacion":"2024-04-18"}},{"type":"Feature","geometry":{"type":"Point","coordinates":[-17.91016,28.58693]},"properties":{"id":180,"nombre":"S143","alias":"Sensor143 CO2","codigo":"NROJ-CJON-PAR01-P0","poblacion_codigo":"NROJ","poblacion_zona":"Puerto Naos - zona Roja","entidad":"CJON","instalacion":"P0","estancia":"","exterior":true,"altura":null,"planta":null,"direccion":"PAR01","fecha_instalacion":"2024-04-26"}},{"type":"Feature","geometry":{"type":"Point","coordinates":[-17.910294,28.587148]},"properties":{"id":181,"nombre":"S144","alias":"Sensor144 CO2","codigo":"NNEG-CMDM-FAR01-P0","poblacion_codigo":"NNEG","poblacion_zona":"Puerto Naos - Charco Negro","entidad":"CMDM","instalacion":"P0","estancia":"","exterior":true,"altura":null,"planta":null,"direccion":"FAR01","fecha_instalacion":"2024-04-26"}},{"type":"Feature","geometry":{"type":"Point","coordinates":[-17.910363,28.587095]},"properties":{"id":182,"nombre":"S145","alias":"Sensor145 CO2","codigo":"NNEG-CMDM-FAR02-P0","poblacion_codigo":"NNEG","poblacion_zona":"Puerto Naos - Charco Negro","entidad":"CMDM","instalacion":"P0","estancia":"","exterior":true,"altura":null,"planta":null,"direccion":"FAR02","fecha_instalacion":"2024-04-26"}},{"type":"Feature","geometry":{"type":"Point","coordinates":[-17.91065,28.586982]},"properties":{"id":183,"nombre":"S146","alias":"Sensor146 CO2","codigo":"NNEG-CMDM-ESCO1-P1","poblacion_codigo":"NNEG","poblacion_zona":"Puerto Naos - Charco Negro","entidad":"CMDM","instalacion":"P0","estancia":"","exterior":true,"altura":null,"planta":null,"direccion":"ESCO1","fecha_instalacion":"2024-04-26"}},{"type":"Feature","geometry":{"type":"Point","coordinates":[-17.91065,28.58677]},"properties":{"id":184,"nombre":"S147","alias":"Sensor147 CO2","codigo":"NNEG-CMDM-FAR03-P0","poblacion_codigo":"NNEG","poblacion_zona":"Puerto Naos - Charco Negro","entidad":"CMDM","instalacion":"P0","estancia":"","exterior":true,"altura":null,"planta":null,"direccion":"FAR03","fecha_instalacion":"2024-04-26"}},{"type":"Feature","geometry":{"type":"Point","coordinates":[-17.910582,28.586664]},"properties":{"id":185,"nombre":"S148","alias":"Sensor148 CO2","codigo":"NNEG-AVDM-PAR01-P0","poblacion_codigo":"NNEG","poblacion_zona":"Puerto Naos - Charco Negro","entidad":"AVDM","instalacion":"P0","estancia":"","exterior":true,"altura":null,"planta":null,"direccion":"PAR01","fecha_instalacion":"2024-04-26"}},{"type":"Feature","geometry":{"type":"Point","coordinates":[-17.91031,28.586592]},"properties":{"id":186,"nombre":"S149","alias":"Sensor149 CO2","codigo":"NNEG-CJGP-PAR01-P-1","poblacion_codigo":"NNEG","poblacion_zona":"Puerto Naos - Charco Negro","entidad":"CJGP","instalacion":"P0","estancia":"","exterior":true,"altura":null,"planta":null,"direccion":"PAR01","fecha_instalacion":"2024-04-26"}},{"type":"Feature","geometry":{"type":"Point","coordinates":[-17.910822,28.586803]},"properties":{"id":187,"nombre":"S150","alias":"Sensor150 CO2","codigo":"NNEG-AVDM-FAR01-P0","poblacion_codigo":"NNEG","poblacion_zona":"Puerto Naos - Charco Negro","entidad":"AVDM","instalacion":"P0","estancia":"","exterior":true,"altura":null,"planta":null,"direccion":"FAR01","fecha_instalacion":"2024-04-26"}},{"type":"Feature","geometry":{"type":"Point","coordinates":[-17.911249,28.586916]},"properties":{"id":188,"nombre":"S151","alias":"Sensor151 CO2","codigo":"NNEG-EPCH-PAR01-P0","poblacion_codigo":"NNEG","poblacion_zona":"Puerto Naos - Charco Negro","entidad":"EPCH","instalacion":"P0","estancia":"","exterior":true,"altura":null,"planta":null,"direccion":"PAR01","fecha_instalacion":"2024-04-26"}},{"type":"Feature","geometry":{"type":"Point","coordinates":[-17.911315,28.586683]},"properties":{"id":189,"nombre":"S152","alias":"Sensor152 CO2","codigo":"NNEG-AVDM-PAR02-P0","poblacion_codigo":"NNEG","poblacion_zona":"Puerto Naos - Charco Negro","entidad":"AVDM","instalacion":"P0","estancia":"","exterior":true,"altura":null,"planta":null,"direccion":"PAR02","fecha_instalacion":"2024-04-26"}},{"type":"Feature","geometry":{"type":"Point","coordinates":[-17.910821,28.586329]},"properties":{"id":190,"nombre":"S153","alias":"Sensor153 CO2","codigo":"NNEG-AVDM-FAR03-P0","poblacion_codigo":"NNEG","poblacion_zona":"Puerto Naos - Charco Negro","entidad":"AVDM","instalacion":"P0","estancia":"","exterior":true,"altura":null,"planta":null,"direccion":"FAR03","fecha_instalacion":"2024-04-26"}},{"type":"Feature","geometry":{"type":"Point","coordinates":[-17.910231,28.586565]},"properties":{"id":191,"nombre":"S154","alias":"Sensor154 CO2","codigo":"NNEG-CJGP-FAR02-P0","poblacion_codigo":"NNEG","poblacion_zona":"Puerto Naos - Charco Negro","entidad":"CJGP","instalacion":"P0","estancia":"","exterior":true,"altura":null,"planta":null,"direccion":"FAR02","fecha_instalacion":"2024-04-26"}},{"type":"Feature","geometry":{"type":"Point","coordinates":[-17.90996,28.58668]},"properties":{"id":192,"nombre":"S155","alias":"Sensor155 CO2","codigo":"NNEG-CJGP-FAR01-P0","poblacion_codigo":"NNEG","poblacion_zona":"Puerto Naos - Charco Negro","entidad":"CJGP","instalacion":"P0","estancia":"","exterior":true,"altura":null,"planta":null,"direccion":"FAR01","fecha_instalacion":"2024-04-26"}},{"type":"Feature","geometry":{"type":"Point","coordinates":[-17.9108,28.58667]},"properties":{"id":193,"nombre":"S156","alias":"Sensor156 CO2","codigo":"NNEG-AVDM-FAR02-P0","poblacion_codigo":"NNEG","poblacion_zona":"Puerto Naos - Charco Negro","entidad":"AVDM","instalacion":"P0","estancia":"","exterior":true,"altura":null,"planta":null,"direccion":"FAR02","fecha_instalacion":"2024-04-26"}},{"type":"Feature","geometry":{"type":"Point","coordinates":[-17.909423,28.587127]},"properties":{"id":194,"nombre":"S157","alias":"Sensor157 CO2","codigo":"NROJ-AVCR-FAR01-P0","poblacion_codigo":"NROJ","poblacion_zona":"Puerto Naos - zona Roja","entidad":"AVCR","instalacion":"P0","estancia":"","exterior":true,"altura":null,"planta":null,"direccion":"FAR01","fecha_instalacion":"2024-04-30"}},{"type":"Feature","geometry":{"type":"Point","coordinates":[-17.90965,28.587579]},"properties":{"id":195,"nombre":"S158","alias":"Sensor158 CO2","codigo":"NROJ-AVCR-FAR02-P0","poblacion_codigo":"NROJ","poblacion_zona":"Puerto Naos - zona Roja","entidad":"AVCR","instalacion":"P0","estancia":"","exterior":true,"altura":null,"planta":null,"direccion":"FAR02","fecha_instalacion":"2024-05-02"}},{"type":"Feature","geometry":{"type":"Point","coordinates":[-17.90952,28.5874]},"properties":{"id":196,"nombre":"S159","alias":"Sensor159 CO2","codigo":"NROJ-AVCR-FAR03-P0","poblacion_codigo":"NROJ","poblacion_zona":"Puerto Naos - zona Roja","entidad":"AVCR","instalacion":"P0","estancia":"","exterior":true,"altura":null,"planta":null,"direccion":"FAR03","fecha_instalacion":"2024-05-02"}},{"type":"Feature","geometry":{"type":"Point","coordinates":[-17.90939,28.586921]},"properties":{"id":197,"nombre":"S160","alias":"Sensor160 CO2","codigo":"NROJ-AVCR-FAR04-P0","poblacion_codigo":"NROJ","poblacion_zona":"Puerto Naos - zona Roja","entidad":"AVCR","instalacion":"P0","estancia":"","exterior":true,"altura":null,"planta":null,"direccion":"FAR04","fecha_instalacion":"2024-05-02"}},{"type":"Feature","geometry":{"type":"Point","coordinates":[-17.909189,28.586689]},"properties":{"id":199,"nombre":"S161","alias":"Sensor161 CO2","codigo":"NROJ-AVCR-FAR05-P0","poblacion_codigo":"NROJ","poblacion_zona":"Puerto Naos - zona Roja","entidad":"AVCR","instalacion":"P0","estancia":"","exterior":true,"altura":null,"planta":null,"direccion":"FAR05","fecha_instalacion":"2024-05-03"}},{"type":"Feature","geometry":{"type":"Point","coordinates":[-17.90952,28.58848]},"properties":{"id":200,"nombre":"S162","alias":"Sensor162 CO2","codigo":"COLG-COLG-PAT01-P0","poblacion_codigo":"COLG","poblacion_zona":"Colegio","entidad":"COLG","instalacion":"P0","estancia":"","exterior":true,"altura":null,"planta":null,"direccion":"PAT01","fecha_instalacion":"2024-05-03"}},{"type":"Feature","geometry":{"type":"Point","coordinates":[-17.90999,28.588056]},"properties":{"id":201,"nombre":"S163","alias":"Sensor163 CO2","codigo":"NNAR-AVCR-FAR06-P0","poblacion_codigo":"NNAR","poblacion_zona":"Puerto Naos - zona Naranja","entidad":"AVCR","instalacion":"P0","estancia":"","exterior":true,"altura":null,"planta":null,"direccion":"FAR06","fecha_instalacion":"2024-05-08"}},{"type":"Feature","geometry":{"type":"Point","coordinates":[-17.909897,28.587861]},"properties":{"id":202,"nombre":"S164","alias":"Sensor164 CO2","codigo":"NNAR-AVCR-FAR07-P0","poblacion_codigo":"NNAR","poblacion_zona":"Puerto Naos - zona Naranja","entidad":"AVCR","instalacion":"P0","estancia":"","exterior":true,"altura":null,"planta":null,"direccion":"FAR07","fecha_instalacion":"2024-05-08"}},{"type":"Feature","geometry":{"type":"Point","coordinates":[-17.909904,28.588053]},"properties":{"id":203,"nombre":"S165","alias":"Sensor165 CO2","codigo":"NNAR-AVCR-FAR08-P0","poblacion_codigo":"NNAR","poblacion_zona":"Puerto Naos - zona Naranja","entidad":"AVCR","instalacion":"P0","estancia":"","exterior":true,"altura":null,"planta":null,"direccion":"FAR08","fecha_instalacion":"2024-05-08"}},{"type":"Feature","geometry":{"type":"Point","coordinates":[-17.90905,28.58649]},"properties":{"id":204,"nombre":"S166","alias":"Sensor166 CO2","codigo":"NAZU-AVCR-FAR09-P0","poblacion_codigo":"NAZU","poblacion_zona":"Puerto Naos - zona Azul","entidad":"AVCR","instalacion":"P0","estancia":"","exterior":true,"altura":null,"planta":null,"direccion":"FAR09","fecha_instalacion":"2024-05-08"}},{"type":"Feature","geometry":{"type":"Point","coordinates":[-17.908999,28.586144]},"properties":{"id":205,"nombre":"S167","alias":"Sensor167 CO2","codigo":"NAMA-AVCR-FAR10-P0","poblacion_codigo":"NAMA","poblacion_zona":"Puerto Naos - zona Amarilla","entidad":"AVCR","instalacion":"P0","estancia":"","exterior":true,"altura":null,"planta":null,"direccion":"FAR10","fecha_instalacion":"2024-05-08"}},{"type":"Feature","geometry":{"type":"Point","coordinates":[-17.908828,28.585816]},"properties":{"id":206,"nombre":"S168","alias":"Sensor168 CO2","codigo":"NAMA-AVCR-FAR11-P0","poblacion_codigo":"NAMA","poblacion_zona":"Puerto Naos - zona Amarilla","entidad":"AVCR","instalacion":"P0","estancia":"","exterior":true,"altura":null,"planta":null,"direccion":"FAR11","fecha_instalacion":"2024-05-08"}},{"type":"Feature","geometry":{"type":"Point","coordinates":[-17.908671,28.585706]},"properties":{"id":207,"nombre":"S169","alias":"Sensor169 CO2","codigo":"NAMA-AVCR-FAR12-P0","poblacion_codigo":"NAMA","poblacion_zona":"Puerto Naos - zona Amarilla","entidad":"AVCR","instalacion":"P0","estancia":"","exterior":true,"altura":null,"planta":null,"direccion":"FAR12","fecha_instalacion":"2024-05-08"}},{"type":"Feature","geometry":{"type":"Point","coordinates":[-17.83589,28.61319]},"properties":{"id":208,"nombre":"S201","alias":"Sensor201 CO2","codigo":"RPIL-RPIL-SEN01-P0","poblacion_codigo":"RPIL","poblacion_zona":"Roque Pilar","entidad":"RPIL","instalacion":"P0","estancia":"","exterior":true,"altura":null,"planta":null,"direccion":"SEN01","fecha_instalacion":"2024-06-14"}},{"type":"Feature","geometry":{"type":"Point","coordinates":[-17.9108,28.58642]},"properties":{"id":209,"nombre":"S170","alias":"Sensor170 CO2","codigo":"NNEG-LOLA-PAR01-P0","poblacion_codigo":"NNEG","poblacion_zona":"Puerto Naos - Charco Negro","entidad":"LOLA","instalacion":"P0","estancia":"","exterior":true,"altura":null,"planta":null,"direccion":"PAR01","fecha_instalacion":"2024-06-17"}},{"type":"Feature","geometry":{"type":"Point","coordinates":[-17.910231,28.586565]},"properties":{"id":210,"nombre":"S202","alias":"Sensor202 CO2","codigo":"NNEG-CJGP-FAR03-P0","poblacion_codigo":"NNEG","poblacion_zona":"Puerto Naos - Charco Negro","entidad":"CJGP","instalacion":"P0","estancia":"","exterior":true,"altura":null,"planta":null,"direccion":"FAR03","fecha_instalacion":"2025-10-27"}},{"type":"Feature","geometry":{"type":"Point","coordinates":[-17.910369,28.586447]},"properties":{"id":211,"nombre":"S203","alias":"Sensor203 CO2","codigo":"NPASM-PASM-FAR24-P0","poblacion_codigo":"NPASM","poblacion_zona":"Puerto Naos - Paseo Marítimo","entidad":"PASM","instalacion":"P0","estancia":"","exterior":true,"altura":null,"planta":null,"direccion":"FAR24","fecha_instalacion":"2025-10-27"}},{"type":"Feature","geometry":{"type":"Point","coordinates":[-17.9108,28.58667]},"properties":{"id":212,"nombre":"S204","alias":"Sensor204 CO2","codigo":"NNEG-AVDM-FAR04-P0","poblacion_codigo":"NNEG","poblacion_zona":"Puerto Naos - Charco Negro","entidad":"AVDM","instalacion":"P0","estancia":"","exterior":true,"altura":null,"planta":null,"direccion":"FAR04","fecha_instalacion":"2025-10-27"}},{"type":"Feature","geometry":{"type":"Point","coordinates":[-17.910822,28.586803]},"properties":{"id":213,"nombre":"S205","alias":"Sensor205 CO2","codigo":"NNEG-AVDM-FAR05-P0","poblacion_codigo":"NNEG","poblacion_zona":"Puerto Naos - Charco Negro","entidad":"AVDM","instalacion":"P0","estancia":"","exterior":true,"altura":null,"planta":null,"direccion":"FAR05","fecha_instalacion":"2025-10-27"}},{"type":"Feature","geometry":{"type":"Point","coordinates":[-17.91065,28.58677]},"properties":{"id":214,"nombre":"S206","alias":"Sensor206 CO2","codigo":"NNEG-CMDM-FAR04-P0","poblacion_codigo":"NNEG","poblacion_zona":"Puerto Naos - Charco Negro","entidad":"CMDM","instalacion":"P0","estancia":"","exterior":true,"altura":null,"planta":null,"direccion":"FAR04","fecha_instalacion":"2025-10-27"}},{"type":"Feature","geometry":{"type":"Point","coordinates":[-17.910504,28.586563]},"properties":{"id":215,"nombre":"S207","alias":"Sensor207 CO2","codigo":"NPASM-PASM-FAR25-P0","poblacion_codigo":"NPASM","poblacion_zona":"Puerto Naos - Paseo Marítimo","entidad":"PASM","instalacion":"P0","estancia":"","exterior":true,"altura":null,"planta":null,"direccion":"FAR25","fecha_instalacion":"2025-10-27"}},{"type":"Feature","geometry":{"type":"Point","coordinates":[-17.91062,28.586697]},"properties":{"id":216,"nombre":"S208","alias":"Sensor208 CO2","codigo":"NNEG-AVDM-PAR03-P0","poblacion_codigo":"NNEG","poblacion_zona":"Puerto Naos - Charco Negro","entidad":"AVDM","instalacion":"P0","estancia":"","exterior":true,"altura":null,"planta":null,"direccion":"PAR03","fecha_instalacion":"2025-10-27"}},{"type":"Feature","geometry":{"type":"Point","coordinates":[-17.910997,28.586894]},"properties":{"id":217,"nombre":"S209","alias":"Sensor209 CO2","codigo":"NNEG-EPCH-PAR02-P0","poblacion_codigo":"NNEG","poblacion_zona":"Puerto Naos - Charco Negro","entidad":"EPCH","instalacion":"P0","estancia":"","exterior":true,"altura":null,"planta":null,"direccion":"PAR02","fecha_instalacion":"2025-10-27"}},{"type":"Feature","geometry":{"type":"Point","coordinates":[-17.910476,28.586625]},"properties":{"id":218,"nombre":"S210","alias":"Sensor210 CO2","codigo":"NNEG-AVDM-MAS01-P0","poblacion_codigo":"NNEG","poblacion_zona":"Puerto Naos - Charco Negro","entidad":"AVDM","instalacion":"P0","estancia":"","exterior":true,"altura":null,"planta":null,"direccion":"MAS01","fecha_instalacion":"2025-10-29"}},{"type":"Feature","geometry":{"type":"Point","coordinates":[-17.910812,28.586884]},"properties":{"id":219,"nombre":"S211","alias":"Sensor211 CO2","codigo":"NNEG-AVDM-MAS02-P0","poblacion_codigo":"NNEG","poblacion_zona":"Puerto Naos - Charco Negro","entidad":"AVDM","instalacion":"P0","estancia":"","exterior":true,"altura":null,"planta":null,"direccion":"MAS02","fecha_instalacion":"2025-10-30"}},{"type":"Feature","geometry":{"type":"Point","coordinates":[-17.91072,28.586776]},"properties":{"id":220,"nombre":"S212","alias":"Sensor212 CO2","codigo":"NNEG-AVDM-MAS03-P0","poblacion_codigo":"NNEG","poblacion_zona":"Puerto Naos - Charco Negro","entidad":"AVDM","instalacion":"P0","estancia":"","exterior":true,"altura":null,"planta":null,"direccion":"MAS03","fecha_instalacion":"2025-10-30"}},{"type":"Feature","geometry":{"type":"Point","coordinates":[-17.910956,28.586786]},"properties":{"id":221,"nombre":"S213","alias":"Sensor213 CO2","codigo":"NNEG-AVDM-MAS04-P0","poblacion_codigo":"NNEG","poblacion_zona":"Puerto Naos - Charco Negro","entidad":"AVDM","instalacion":"P0","estancia":"","exterior":true,"altura":null,"planta":null,"direccion":"MAS04","fecha_instalacion":"2025-10-30"}},{"type":"Feature","geometry":{"type":"Point","coordinates":[-17.91081,28.586734]},"properties":{"id":222,"nombre":"S214","alias":"Sensor214 CO2","codigo":"NNEG-AVDM-MAS05-P0","poblacion_codigo":"NNEG","poblacion_zona":"Puerto Naos - Charco Negro","entidad":"AVDM","instalacion":"P0","estancia":"","exterior":true,"altura":null,"planta":null,"direccion":"MAS05","fecha_instalacion":"2025-10-30"}}]}