{"type":"FeatureCollection","features":[{"type":"Feature","geometry":{"type":"Point","coordinates":[-17.808756,28.832227]},"properties":{"nombre":"Montana del Molino.","municipio":"BARLOVENTO","tipo":"Telefonía movil"}},{"type":"Feature","geometry":{"type":"Point","coordinates":[-17.783906,28.801258]},"properties":{"nombre":"Montana Clara.","municipio":"SAN ANDRÉS Y SAUCES","tipo":"Telefonía movil"}},{"type":"Feature","geometry":{"type":"Point","coordinates":[-17.744399,28.746033]},"properties":{"nombre":"Montana Loral.","municipio":"PUNTALLANA","tipo":"Telefonía movil"}},{"type":"Feature","geometry":{"type":"Point","coordinates":[-17.744399,28.746033]},"properties":{"nombre":"Montana Loral.","municipio":"PUNTALLANA","tipo":"Telefonía movil"}},{"type":"Feature","geometry":{"type":"Point","coordinates":[-17.744399,28.746033]},"properties":{"nombre":"Montana Loral.","municipio":"PUNTALLANA","tipo":"Radio"}},{"type":"Feature","geometry":{"type":"Point","coordinates":[-17.877869,28.653993]},"properties":{"nombre":"El Paso 3.","municipio":"EL PASO","tipo":"Telefonía movil"}},{"type":"Feature","geometry":{"type":"Point","coordinates":[-17.881094,28.586197]},"properties":{"nombre":"Jedey.","municipio":"LOS LLANOS DE ARIDANE","tipo":"Enlace"}},{"type":"Feature","geometry":{"type":"Point","coordinates":[-17.881094,28.586197]},"properties":{"nombre":"Jedey.","municipio":"LOS LLANOS DE ARIDANE","tipo":"Telefonía movil"}},{"type":"Feature","geometry":{"type":"Point","coordinates":[-17.94845,28.654671]},"properties":{"nombre":"La Punta.","municipio":"TIJARAFE","tipo":"Enlace"}},{"type":"Feature","geometry":{"type":"Point","coordinates":[-17.94845,28.654671]},"properties":{"nombre":"La Punta.","municipio":"TIJARAFE","tipo":"Televisión"}},{"type":"Feature","geometry":{"type":"Point","coordinates":[-17.94845,28.654671]},"properties":{"nombre":"La Punta.","municipio":"TIJARAFE","tipo":"Televisión"}},{"type":"Feature","geometry":{"type":"Point","coordinates":[-17.808759,28.832216]},"properties":{"nombre":"Montana del Molino.","municipio":"BARLOVENTO","tipo":"Televisión"}},{"type":"Feature","geometry":{"type":"Point","coordinates":[-17.749098,28.717988]},"properties":{"nombre":"Montana de Tenagua.","municipio":"PUNTALLANA","tipo":"Televisión"}},{"type":"Feature","geometry":{"type":"Point","coordinates":[-17.757483,28.740362]},"properties":{"nombre":"Montana de Zamagallo.","municipio":"PUNTALLANA","tipo":"Televisión"}},{"type":"Feature","geometry":{"type":"Point","coordinates":[-17.776098,28.672366]},"properties":{"nombre":"MIrador de La Concepción","municipio":"BREÑA ALTA","tipo":"Telefonía movil"}},{"type":"Feature","geometry":{"type":"Point","coordinates":[-17.776098,28.672366]},"properties":{"nombre":"MIrador de La Concepción","municipio":"BREÑA ALTA","tipo":"Telefonía movil"}},{"type":"Feature","geometry":{"type":"Point","coordinates":[-17.776098,28.672366]},"properties":{"nombre":"MIrador de La Concepción","municipio":"BREÑA ALTA","tipo":"Televisión"}},{"type":"Feature","geometry":{"type":"Point","coordinates":[-17.921373,28.819321]},"properties":{"nombre":"Montaña de San Antonio","municipio":"GARAFÍA","tipo":"Televisión"}},{"type":"Feature","geometry":{"type":"Point","coordinates":[-17.921373,28.819321]},"properties":{"nombre":"Montaña de San Antonio","municipio":"GARAFÍA","tipo":"Televisión"}},{"type":"Feature","geometry":{"type":"Point","coordinates":[-17.921373,28.819321]},"properties":{"nombre":"Montaña de San Antonio","municipio":"GARAFÍA","tipo":"Televisión"}},{"type":"Feature","geometry":{"type":"Point","coordinates":[-17.921373,28.819321]},"properties":{"nombre":"Montaña de San Antonio","municipio":"GARAFÍA","tipo":"Televisión"}},{"type":"Feature","geometry":{"type":"Point","coordinates":[-17.941886,28.664869]},"properties":{"nombre":"El Time 1(mirador)","municipio":"TIJARAFE","tipo":"Enlace"}},{"type":"Feature","geometry":{"type":"Point","coordinates":[-17.941886,28.664869]},"properties":{"nombre":"El Time 1(mirador)","municipio":"TIJARAFE","tipo":"Televisión"}},{"type":"Feature","geometry":{"type":"Point","coordinates":[-17.941886,28.664869]},"properties":{"nombre":"El Time 1(mirador)","municipio":"TIJARAFE","tipo":"Televisión"}},{"type":"Feature","geometry":{"type":"Point","coordinates":[-17.941886,28.664869]},"properties":{"nombre":"El Time 1(mirador)","municipio":"TIJARAFE","tipo":"Televisión"}},{"type":"Feature","geometry":{"type":"Point","coordinates":[-17.938866,28.676663]},"properties":{"nombre":"El Time 2","municipio":"TIJARAFE","tipo":"Televisión"}},{"type":"Feature","geometry":{"type":"Point","coordinates":[-17.938866,28.676663]},"properties":{"nombre":"El Time 2","municipio":"TIJARAFE","tipo":"Televisión"}},{"type":"Feature","geometry":{"type":"Point","coordinates":[-17.942347,28.663377]},"properties":{"nombre":"Mirador del Time","municipio":"TIJARAFE","tipo":"Radio"}},{"type":"Feature","geometry":{"type":"Point","coordinates":[-17.942347,28.663377]},"properties":{"nombre":"Mirador del Time","municipio":"TIJARAFE","tipo":"Radio"}},{"type":"Feature","geometry":{"type":"Point","coordinates":[-17.942931,28.662194]},"properties":{"nombre":"Mirador del Time (abajo)","municipio":"TIJARAFE","tipo":"Radio"}},{"type":"Feature","geometry":{"type":"Point","coordinates":[-17.950043,28.673671]},"properties":{"nombre":"La Costa","municipio":"TIJARAFE","tipo":"Enlace"}},{"type":"Feature","geometry":{"type":"Point","coordinates":[-17.909653,28.59255]},"properties":{"nombre":"Puerto Naos.","municipio":"TAZACORTE","tipo":"Enlace"}},{"type":"Feature","geometry":{"type":"Point","coordinates":[-17.909653,28.59255]},"properties":{"nombre":"Puerto Naos.","municipio":"TAZACORTE","tipo":"Telefonía movil"}},{"type":"Feature","geometry":{"type":"Point","coordinates":[-17.909653,28.59255]},"properties":{"nombre":"Puerto Naos.","municipio":"TAZACORTE","tipo":"Enlace"}},{"type":"Feature","geometry":{"type":"Point","coordinates":[-17.950376,28.774187]},"properties":{"nombre":"Montana de Las Tricias","municipio":"GARAFÍA","tipo":"Telefonía movil"}},{"type":"Feature","geometry":{"type":"Point","coordinates":[-17.950376,28.774187]},"properties":{"nombre":"Montana de Las Tricias","municipio":"GARAFÍA","tipo":"Enlace"}},{"type":"Feature","geometry":{"type":"Point","coordinates":[-17.992413,28.760137]},"properties":{"nombre":"Montana de D. Pancho.","municipio":"PUNTAGORDA","tipo":"Televisión"}},{"type":"Feature","geometry":{"type":"Point","coordinates":[-17.992413,28.760137]},"properties":{"nombre":"Montana de D. Pancho.","municipio":"PUNTAGORDA","tipo":"Televisión"}},{"type":"Feature","geometry":{"type":"Point","coordinates":[-17.759062,28.767606]},"properties":{"nombre":"Mirador de S. Bartolo (La Galga).","municipio":"PUNTALLANA","tipo":"Televisión"}},{"type":"Feature","geometry":{"type":"Point","coordinates":[-17.759062,28.767606]},"properties":{"nombre":"Mirador de S. Bartolo (La Galga).","municipio":"PUNTALLANA","tipo":"Televisión"}},{"type":"Feature","geometry":{"type":"Point","coordinates":[-17.770314,28.634568]},"properties":{"nombre":"La Polvacera 1","municipio":"BREÑA BAJA","tipo":"Televisión"}},{"type":"Feature","geometry":{"type":"Point","coordinates":[-17.759304,28.638769]},"properties":{"nombre":"Lomo El Risco (Aeropuerto 2)","municipio":"BREÑA BAJA","tipo":"Radio"}},{"type":"Feature","geometry":{"type":"Point","coordinates":[-17.786259,28.572049]},"properties":{"nombre":"Montana de Tirimaga.","municipio":"VILLA DE MAZO","tipo":"Enlace"}},{"type":"Feature","geometry":{"type":"Point","coordinates":[-17.816153,28.531535]},"properties":{"nombre":"Montes de Luna 1","municipio":"VILLA DE MAZO","tipo":"Enlace"}},{"type":"Feature","geometry":{"type":"Point","coordinates":[-17.815022,28.53118]},"properties":{"nombre":"Montes de Luna 2","municipio":"VILLA DE MAZO","tipo":"Enlace"}},{"type":"Feature","geometry":{"type":"Point","coordinates":[-17.839633,28.509017]},"properties":{"nombre":"Montana del Pino.","municipio":"FUENCALIENTE","tipo":"Enlace"}},{"type":"Feature","geometry":{"type":"Point","coordinates":[-17.852848,28.49917]},"properties":{"nombre":"Montana de Las Indias.","municipio":"FUENCALIENTE","tipo":"Televisión"}},{"type":"Feature","geometry":{"type":"Point","coordinates":[-17.82538,28.647202]},"properties":{"nombre":"Cumbrenueva","municipio":"EL PASO","tipo":"Radio"}},{"type":"Feature","geometry":{"type":"Point","coordinates":[-17.82538,28.647202]},"properties":{"nombre":"Cumbrenueva","municipio":"EL PASO","tipo":"Radio"}},{"type":"Feature","geometry":{"type":"Point","coordinates":[-17.82538,28.647202]},"properties":{"nombre":"Cumbrenueva","municipio":"EL PASO","tipo":"Telefonía movil"}},{"type":"Feature","geometry":{"type":"Point","coordinates":[-17.82538,28.647202]},"properties":{"nombre":"Cumbrenueva","municipio":"EL PASO","tipo":"Enlace"}},{"type":"Feature","geometry":{"type":"Point","coordinates":[-17.770162,28.634861]},"properties":{"nombre":"La Polvacera 2","municipio":"BREÑA BAJA","tipo":"Telefonía movil"}},{"type":"Feature","geometry":{"type":"Point","coordinates":[-17.760879,28.643661]},"properties":{"nombre":"Vista Cancajos (Aeropuerto 1)","municipio":"BREÑA BAJA","tipo":"Radio"}},{"type":"Feature","geometry":{"type":"Point","coordinates":[-17.779712,28.609568]},"properties":{"nombre":"Casco de Mazo","municipio":"VILLA DE MAZO","tipo":"Radio"}},{"type":"Feature","geometry":{"type":"Point","coordinates":[-17.88011,28.651037]},"properties":{"nombre":"El Paso 2. Edificacion.","municipio":"EL PASO","tipo":"Televisión"}},{"type":"Feature","geometry":{"type":"Point","coordinates":[-17.881265,28.650889]},"properties":{"nombre":"El Paso 1. San Martin.","municipio":"EL PASO","tipo":"Televisión"}},{"type":"Feature","geometry":{"type":"Point","coordinates":[-17.773249,28.803471]},"properties":{"nombre":"Casco de los Sauces","municipio":"SAN ANDRÉS Y SAUCES","tipo":"Televisión"}},{"type":"Feature","geometry":{"type":"Point","coordinates":[-17.77652,28.819325]},"properties":{"nombre":"La cuesta.","municipio":"BARLOVENTO","tipo":"Televisión"}},{"type":"Feature","geometry":{"type":"Point","coordinates":[-17.886466,28.820267]},"properties":{"nombre":"Montana del Tablado","municipio":"GARAFÍA","tipo":"Televisión"}},{"type":"Feature","geometry":{"type":"Point","coordinates":[-17.955275,28.710653]},"properties":{"nombre":"Casco de Tijarafe 1","municipio":"TIJARAFE","tipo":"Telefonía movil"}},{"type":"Feature","geometry":{"type":"Point","coordinates":[-17.957889,28.710703]},"properties":{"nombre":"Casco de Tijarafe 2","municipio":"TIJARAFE","tipo":"Enlace"}},{"type":"Feature","geometry":{"type":"Point","coordinates":[-17.852877,28.499159]},"properties":{"nombre":"Casco de Fuencaliente","municipio":"FUENCALIENTE","tipo":"Radio"}},{"type":"Feature","geometry":{"type":"Point","coordinates":[-17.944244,28.649652]},"properties":{"nombre":"Risco de Tazacorte","municipio":"TAZACORTE","tipo":"Enlace"}},{"type":"Feature","geometry":{"type":"Point","coordinates":[-17.992411,28.76015]},"properties":{"nombre":"Montaña de Braulio","municipio":"PUNTAGORDA","tipo":"Red Tetra"}},{"type":"Feature","geometry":{"type":"Point","coordinates":[-17.95035,28.774184]},"properties":{"nombre":"Montana de Las Tricias","municipio":"GARAFÍA","tipo":"Red Tetra"}},{"type":"Feature","geometry":{"type":"Point","coordinates":[-17.808756,28.832233]},"properties":{"nombre":"Montaña del molino","municipio":"BARLOVENTO","tipo":"Red Tetra"}},{"type":"Feature","geometry":{"type":"Point","coordinates":[-17.757445,28.740359]},"properties":{"nombre":"Montaña de Samagallo","municipio":"PUNTALLANA","tipo":"Red Tetra"}},{"type":"Feature","geometry":{"type":"Point","coordinates":[-17.789497,28.675315]},"properties":{"nombre":"Buenavista","municipio":"BREÑA ALTA","tipo":"Red Tetra"}},{"type":"Feature","geometry":{"type":"Point","coordinates":[-17.776098,28.672368]},"properties":{"nombre":"MIrador de La Concepción","municipio":"BREÑA ALTA","tipo":"Red Tetra"}},{"type":"Feature","geometry":{"type":"Point","coordinates":[-17.825774,28.647883]},"properties":{"nombre":"Cumbrenueva","municipio":"EL PASO","tipo":"Red Tetra"}},{"type":"Feature","geometry":{"type":"Point","coordinates":[-17.786255,28.572041]},"properties":{"nombre":"Montaña Tirimaga","municipio":"VILLA DE MAZO","tipo":"Red Tetra"}},{"type":"Feature","geometry":{"type":"Point","coordinates":[-17.852833,28.499158]},"properties":{"nombre":"El Calderetón","municipio":"FUENCALIENTE","tipo":"Red Tetra"}},{"type":"Feature","geometry":{"type":"Point","coordinates":[-17.94186,28.664872]},"properties":{"nombre":"El Time","municipio":"TIJARAFE","tipo":"Red Tetra"}},{"type":"Feature","geometry":{"type":"Point","coordinates":[-17.921363,28.819316]},"properties":{"nombre":"Montaña de San Antonio","municipio":"GARAFÍA","tipo":"Red Tetra"}},{"type":"Feature","geometry":{"type":"Point","coordinates":[-17.799088,28.670219]},"properties":{"nombre":"La Resina","municipio":"BREÑA ALTA","tipo":"Telefonía movil"}},{"type":"Feature","geometry":{"type":"Point","coordinates":[-17.741691,28.735451]},"properties":{"nombre":"Amador","municipio":"PUNTALLANA","tipo":"Telefonía movil"}},{"type":"Feature","geometry":{"type":"Point","coordinates":[-17.77608,28.672344]},"properties":{"nombre":"MIrador de La Concepción","municipio":"BREÑA ALTA","tipo":"Telefonía movil"}},{"type":"Feature","geometry":{"type":"Point","coordinates":[-17.786641,28.57234]},"properties":{"nombre":"Montaña Tirimaga","municipio":"VILLA DE MAZO","tipo":"Telefonía movil"}},{"type":"Feature","geometry":{"type":"Point","coordinates":[-17.847483,28.49534]},"properties":{"nombre":"El Terrero","municipio":"FUENCALIENTE","tipo":"Telefonía movil"}},{"type":"Feature","geometry":{"type":"Point","coordinates":[-17.852186,28.499346]},"properties":{"nombre":"El Calderetón","municipio":"FUENCALIENTE","tipo":"Telefonía movil"}},{"type":"Feature","geometry":{"type":"Point","coordinates":[-17.743884,28.745338]},"properties":{"nombre":"Montaña del Loral","municipio":"PUNTALLANA","tipo":"Telefonía movil"}},{"type":"Feature","geometry":{"type":"Point","coordinates":[-17.759085,28.768347]},"properties":{"nombre":"Montaña de San Bartolo","municipio":"PUNTALLANA","tipo":"Telefonía movil"}},{"type":"Feature","geometry":{"type":"Point","coordinates":[-17.80875,28.832255]},"properties":{"nombre":"Montaña del Molino","municipio":"BARLOVENTO","tipo":"Telefonía movil"}},{"type":"Feature","geometry":{"type":"Point","coordinates":[-17.772987,28.819343]},"properties":{"nombre":"La Cuesta","municipio":"BARLOVENTO","tipo":"Telefonía movil"}},{"type":"Feature","geometry":{"type":"Point","coordinates":[-17.870569,28.584562]},"properties":{"nombre":"Risco Echado","municipio":"EL PASO","tipo":"Telefonía movil"}},{"type":"Feature","geometry":{"type":"Point","coordinates":[-17.908881,28.592341]},"properties":{"nombre":"Puerto Naos","municipio":"LOS LLANOS DE ARIDANE","tipo":"Telefonía movil"}},{"type":"Feature","geometry":{"type":"Point","coordinates":[-17.942978,28.646338]},"properties":{"nombre":"Refugio Pesquero","municipio":"TAZACORTE","tipo":"Telefonía movil"}},{"type":"Feature","geometry":{"type":"Point","coordinates":[-17.939681,28.67034]},"properties":{"nombre":"El Time","municipio":"TIJARAFE","tipo":"Telefonía movil"}},{"type":"Feature","geometry":{"type":"Point","coordinates":[-17.825285,28.647234]},"properties":{"nombre":"Cumbrenueva","municipio":"BREÑA ALTA","tipo":"Telefonía movil"}},{"type":"Feature","geometry":{"type":"Point","coordinates":[-17.921583,28.819345]},"properties":{"nombre":"Montaña de San Antonio","municipio":"GARAFÍA","tipo":"Telefonía movil"}},{"type":"Feature","geometry":{"type":"Point","coordinates":[-17.949986,28.77434]},"properties":{"nombre":"Montana de Las Tricias","municipio":"GARAFÍA","tipo":"Telefonía movil"}},{"type":"Feature","geometry":{"type":"Point","coordinates":[-17.877484,28.761338]},"properties":{"nombre":"Roque de los Muchachos","municipio":"EL PASO","tipo":"Telefonía movil"}},{"type":"Feature","geometry":{"type":"Point","coordinates":[-17.761381,28.647341]},"properties":{"nombre":"San Antonio","municipio":"BREÑA BAJA","tipo":"Telefonía movil"}},{"type":"Feature","geometry":{"type":"Point","coordinates":[-17.808756,28.832227]},"properties":{"nombre":"Montana del Molino.","municipio":"BARLOVENTO","tipo":"Telefonía movil"}},{"type":"Feature","geometry":{"type":"Point","coordinates":[-17.776075,28.672343]},"properties":{"nombre":"MIrador de La Concepción","municipio":"BREÑA ALTA","tipo":"Televisión"}},{"type":"Feature","geometry":{"type":"Point","coordinates":[-17.825239,28.647093]},"properties":{"nombre":"Cumbrenueva","municipio":"BREÑA ALTA","tipo":"Televisión"}},{"type":"Feature","geometry":{"type":"Point","coordinates":[-17.757328,28.740341]},"properties":{"nombre":"Montaña de Samagallo","municipio":"PUNTALLANA","tipo":"Televisión"}},{"type":"Feature","geometry":{"type":"Point","coordinates":[-17.759315,28.746667]},"properties":{"nombre":"Montaña Siete Cejos","municipio":"PUNTALLANA","tipo":"Televisión"}},{"type":"Feature","geometry":{"type":"Point","coordinates":[-17.768246,28.6876]},"properties":{"nombre":"El Pilar","municipio":"SANTA CRUZ DE LA PALMA","tipo":"Televisión"}},{"type":"Feature","geometry":{"type":"Point","coordinates":[-17.802686,28.814585]},"properties":{"nombre":"Montaña del Colorado","municipio":"BARLOVENTO","tipo":"Televisión"}}]}