{"type":"FeatureCollection","name":"zonas-recreativas-la-palma-20260514","crs":{"type":"name","properties":{"name":"urn:ogc:def:crs:OGC:1.3:CRS84"}},"features":[{"type":"Feature","properties":{"id":1,"tipo":"instalacion_naturaleza","subtipo":"parque_tematico","nombre":"Maroparque","municipio":"","acceso":"","direccion":"C/ La cuesta, 28; 38710 - Breña alta (La Palma) (S/C Tenerife)","descripcion":"Parque Zoológico","transporte":"","figura_protegida":"","superficie_m2":"","capacidad_personas":"","accesibilidad":"","aparcamiento":"","contacto":"922417782","email":"maroparque@gmail.com","web":"http://www.maroparque.com/","permisos":"","equipamiento":"","url_imagen":"","longitud":-17.7784501138701,"latitud":28.6823503420408},"geometry":{"type":"Point","coordinates":[-17.77845,28.68235]}},{"type":"Feature","properties":{"id":2,"tipo":"instalacion_naturaleza","subtipo":"parque_tematico","nombre":"Platanológico","municipio":"","acceso":"","direccion":"Puerto Naos - Los Llanos de Aridane","descripcion":"Ecofinca Platanológico es una extensión agraria dedicada en su mayor parte al cultivo ecológico del plátano y al desarrollo de proyectos relaciona","transporte":"","figura_protegida":"","superficie_m2":"","capacidad_personas":"","accesibilidad":"","aparcamiento":"","contacto":"","email":"reservas@platanologico.es","web":"http://www.platanologico.es/","permisos":"","equipamiento":"","url_imagen":"","longitud":-17.9083037880642,"latitud":28.5836230028138},"geometry":{"type":"Point","coordinates":[-17.908304,28.583623]}},{"type":"Feature","properties":{"id":3,"tipo":"instalacion_naturaleza","subtipo":"parque_tematico","nombre":"Acropark","municipio":"","acceso":"","direccion":"Refugio El Pilar","descripcion":"Acropark es un parque de aventura que nace entre árboles. En cada uno de ellos tenemos plataformas de madera a diferentes alturas comunicadas entre s","transporte":"","figura_protegida":"","superficie_m2":"","capacidad_personas":"","accesibilidad":"","aparcamiento":"","contacto":"674041517","email":"info@acropark.es","web":"http://acropark.es/lapalma","permisos":"","equipamiento":"","url_imagen":"","longitud":-17.8334439897584,"latitud":28.6124950409945},"geometry":{"type":"Point","coordinates":[-17.833444,28.612495]}},{"type":"Feature","properties":{"id":4,"tipo":"instalacion_naturaleza","subtipo":"punto_info_ambiental","nombre":"Cubo La Galga","municipio":"San Andrés y Sauces","acceso":"Si","direccion":"","descripcion":"","transporte":"Si","figura_protegida":"No","superficie_m2":"","capacidad_personas":"","accesibilidad":"Si","aparcamiento":"Si","contacto":"","email":"","web":"","permisos":"","equipamiento":"Aparcamientos, mobiliario y jardín didáctico.","url_imagen":"http://www.senderosdelapalma.com/imagenes/pinformacionlagalga.jpg","longitud":-17.7697776966725,"latitud":28.7669959787599},"geometry":{"type":"Point","coordinates":[-17.769778,28.766996]}},{"type":"Feature","properties":{"id":5,"tipo":"instalacion_naturaleza","subtipo":"aula_naturaleza","nombre":"Casa del Monte (Cancelas)","municipio":"San Andrés y Sauces","acceso":"Ctra. general del Norte desvío por Las Lomadas","direccion":"","descripcion":"","transporte":"No","figura_protegida":"Si","superficie_m2":"80","capacidad_personas":"10","accesibilidad":"No","aparcamiento":"No","contacto":"Cabildo de La Palma, tfn: 922423100","email":"","web":"","permisos":"No","equipamiento":"Baños, 2 fogones, 2 bancos","url_imagen":"http://www.gobiernodecanarias.org/cmayot/servlet/ViewFileEquipamiento?id_archivo=3943&tipo_archivo=0","longitud":-17.7847639276092,"latitud":28.7918274271638},"geometry":{"type":"Point","coordinates":[-17.784764,28.791827]}},{"type":"Feature","properties":{"id":6,"tipo":"instalacion_naturaleza","subtipo":"aula_naturaleza","nombre":"El Riachuelo (Cumbrecita)","municipio":"El Paso","acceso":"Desde El Paso a La Cumbrecita, desvío a la dcha.","direccion":"","descripcion":"","transporte":"No","figura_protegida":"Si","superficie_m2":"5000","capacidad_personas":"81","accesibilidad":"No","aparcamiento":"Si","contacto":"Parque Nacional de la Caldera 922497277","email":"","web":"","permisos":"Si, sólo grupos organizados","equipamiento":"Duchas, baños, comedor","url_imagen":"http://www.gobiernodecanarias.org/cmayot/servlet/ViewFileEquipamiento?id_archivo=4011&tipo_archivo=0","longitud":-17.8459764608197,"latitud":28.6774136684759},"geometry":{"type":"Point","coordinates":[-17.845976,28.677414]}},{"type":"Feature","properties":{"id":7,"tipo":"instalacion_naturaleza","subtipo":"aula_naturaleza","nombre":"La Rosa","municipio":"Puntagorda","acceso":"Desvío kilómetro 79 de la carretera  LP-1","direccion":"","descripcion":"","transporte":"No","figura_protegida":"No","superficie_m2":"","capacidad_personas":"","accesibilidad":"","aparcamiento":"","contacto":"airelibre@airelibrelapalma.org 922493306","email":"","web":"","permisos":"Si","equipamiento":"Agua potable, fogones, electricidad, duchas, aseos, comedor","url_imagen":"http://www.senderosdelapalma.com/es/uso_publico/areasrecreativas_ficha.php?ID=101&tabla_datos=aulasnaturaleza","longitud":-17.9676654913851,"latitud":28.7699835391402},"geometry":{"type":"Point","coordinates":[-17.967665,28.769984]}},{"type":"Feature","properties":{"id":8,"tipo":"instalacion_naturaleza","subtipo":"centro_ambiental","nombre":"Centro Ambiental de Puntagorda.","municipio":"Puntagorda","acceso":"Frente al Ayuntamiento","direccion":"","descripcion":"","transporte":"Si","figura_protegida":"No","superficie_m2":"","capacidad_personas":"","accesibilidad":"","aparcamiento":"","contacto":"","email":"","web":"","permisos":"","equipamiento":"Exposición “Una comarca entre Barrancos” en planta baja. Auditorio en sótano. Y Oficina Comarcal en primera planta","url_imagen":"","longitud":-17.9800751370817,"latitud":28.7657670210016},"geometry":{"type":"Point","coordinates":[-17.980075,28.765767]}},{"type":"Feature","properties":{"id":9,"tipo":"instalacion_naturaleza","subtipo":"zona_acampada","nombre":"El Pilar","municipio":"El Paso","acceso":"Carretera de San Isidro El Pilar","direccion":"","descripcion":"","transporte":"No","figura_protegida":"Si","superficie_m2":"40000","capacidad_personas":"350","accesibilidad":"Si","aparcamiento":"Si","contacto":"Cabildo de La Palma, Teléfono: 922423100","email":"","web":"","permisos":"No","equipamiento":"Baños, 24 fogones, 45 mesas, zona infantil","url_imagen":"http://www.cabildodelapalma.es/portal/RecursosWeb/IMAGENES/1/0_850_1.jpg","longitud":-17.8364215421003,"latitud":28.6142392762552},"geometry":{"type":"Point","coordinates":[-17.836422,28.614239]}},{"type":"Feature","properties":{"id":10,"tipo":"instalacion_naturaleza","subtipo":"zona_acampada","nombre":"Laguna de Barlovento","municipio":"Barlovento","acceso":"Ctra. Barlovento-Embalse de La Laguna (5 km).","direccion":"","descripcion":"","transporte":"No","figura_protegida":"No","superficie_m2":"5000","capacidad_personas":"220","accesibilidad":"Si","aparcamiento":"Si","contacto":"Ayuntamiento de Barlovento","email":"","web":"","permisos":"No","equipamiento":"Baños, bar, 36 fogones, 22 mesas, zona infantil","url_imagen":"http://www.cabildodelapalma.es/portal/RecursosWeb/IMAGENES/1/0_894_1.png","longitud":-17.8036822322846,"latitud":28.8093106977877},"geometry":{"type":"Point","coordinates":[-17.803682,28.809311]}},{"type":"Feature","properties":{"id":11,"tipo":"instalacion_naturaleza","subtipo":"zona_acampada","nombre":"Caldera de Taburiente","municipio":"El Paso","acceso":"Pista Los Llanos-Los Brecitos, y caminando desde l","direccion":"","descripcion":"","transporte":"No","figura_protegida":"Si","superficie_m2":"15000","capacidad_personas":"100","accesibilidad":"No","aparcamiento":"No","contacto":"Parque Nacional de la Caldera 922497277","email":"","web":"","permisos":"Si","equipamiento":"Baños, bancos y mesas","url_imagen":"http://www.gobiernodecanarias.org/cmayot/servlet/ViewFileEquipamiento?id_archivo=3889&tipo_archivo=0","longitud":-17.8758073813506,"latitud":28.7229162372024},"geometry":{"type":"Point","coordinates":[-17.875807,28.722916]}},{"type":"Feature","properties":{"id":12,"tipo":"instalacion_naturaleza","subtipo":"zona_acampada","nombre":"La Cumbrecita","municipio":"El Paso","acceso":"Desde El Paso a La Cumbrecita, desvío a la dcha.","direccion":"","descripcion":"","transporte":"No","figura_protegida":"Si","superficie_m2":"5000","capacidad_personas":"81","accesibilidad":"No","aparcamiento":"Si","contacto":"Parque Nacional de la Caldera 922497277","email":"","web":"","permisos":"Si, sólo grupos organizados","equipamiento":"Duchas, baños, comedor","url_imagen":"http://www.gobiernodecanarias.org/cmayot/servlet/ViewFileEquipamiento?id_archivo=4011&tipo_archivo=0","longitud":-17.8459764608197,"latitud":28.6774136684759},"geometry":{"type":"Point","coordinates":[-17.845976,28.677414]}},{"type":"Feature","properties":{"id":13,"tipo":"instalacion_naturaleza","subtipo":"zona_acampada","nombre":"San Antonio del Monte","municipio":"Villa de Garafía","acceso":"LP-1 desvio San Antonio del Monte.","direccion":"","descripcion":"","transporte":"No","figura_protegida":"No","superficie_m2":"1000","capacidad_personas":"","accesibilidad":"","aparcamiento":"","contacto":"Cabildo de La Palma, tfn: 922423100","email":"","web":"","permisos":"Si","equipamiento":"Agua potable, fogones, bancos, zona infantil.","url_imagen":"http://www.senderosdelapalma.com/es/uso_publico/areasrecreativas_ficha.php?ID=104&tabla_datos=areasacampada","longitud":-17.9184004985776,"latitud":28.8170115807578},"geometry":{"type":"Point","coordinates":[-17.9184,28.817012]}},{"type":"Feature","properties":{"id":14,"tipo":"instalacion_naturaleza","subtipo":"centro_visitantes","nombre":"Canal y Los Tiles","municipio":"San Andrés y Sauces","acceso":"Ctra. Gral. del Norte desvío km. 25.8 al Barranco","direccion":"","descripcion":"","transporte":"No","figura_protegida":"Si","superficie_m2":"500","capacidad_personas":"200","accesibilidad":"No","aparcamiento":"Si","contacto":"Cabildo de La Palma, Teléfono: 922423100","email":"","web":"","permisos":"No","equipamiento":"Baños, bar, 22 fogones, 22 mesas","url_imagen":"http://www.cabildodelapalma.es/portal/RecursosWeb/IMAGENES/1/0_901_1.jpg","longitud":-17.8018764412681,"latitud":28.7901554166528},"geometry":{"type":"Point","coordinates":[-17.801876,28.790155]}},{"type":"Feature","properties":{"id":15,"tipo":"instalacion_naturaleza","subtipo":"centro_visitantes","nombre":"Caldera de Taburiente","municipio":"El Paso","acceso":"Ctra. Santa Cruz de La Palma-El Paso","direccion":"","descripcion":"","transporte":"Si","figura_protegida":"No","superficie_m2":"900","capacidad_personas":"100","accesibilidad":"Si","aparcamiento":"Si","contacto":"Parque Nacional de La Caldera, 922497277","email":"","web":"","permisos":"No","equipamiento":"Baños","url_imagen":"http://www.gobiernodecanarias.org/cmayot/servlet/ViewFileEquipamiento?id_archivo=4029&tipo_archivo=0","longitud":-17.8524763525103,"latitud":28.6538023382186},"geometry":{"type":"Point","coordinates":[-17.852476,28.653802]}},{"type":"Feature","properties":{"id":16,"tipo":"instalacion_naturaleza","subtipo":"centro_visitantes","nombre":"Cumbre Vieja El Pilar","municipio":"El Paso","acceso":"Carretera LP-301 Refugio del Pilar-San Isidro","direccion":"","descripcion":"","transporte":"No","figura_protegida":"Si","superficie_m2":"","capacidad_personas":"","accesibilidad":"","aparcamiento":"Si","contacto":"Cabildo de La Palma, Teléfono: 922423100","email":"","web":"","permisos":"No","equipamiento":"Aparcamientos, agua potable, fregaderos, electricidad, duchas, aseos, comedor, fogones, mobiliario, zona infantil y casetas., Sala Audiovisual,","url_imagen":"http://www.senderosdelapalma.com/imagenes/centro_vis_el_pilar.jpg","longitud":-17.8362321948222,"latitud":28.6134781587287},"geometry":{"type":"Point","coordinates":[-17.836232,28.613478]}},{"type":"Feature","properties":{"id":17,"tipo":"instalacion_naturaleza","subtipo":"centro_visitantes","nombre":"Fuencaliente","municipio":"Fuencaliente","acceso":"Carretera LP-209","direccion":"","descripcion":"","transporte":"Si","figura_protegida":"Si","superficie_m2":"","capacidad_personas":"","accesibilidad":"Si","aparcamiento":"Si","contacto":"Ayuntamiento de Fuencaliente","email":"","web":"","permisos":"No","equipamiento":"Aparcamientos, baños","url_imagen":"http://www.senderosdelapalma.com/es/uso_publico/areasrecreativas_ficha.php?ID=101&tabla_datos=centrosdevisitantes","longitud":-17.848434381989,"latitud":28.4867578627685},"geometry":{"type":"Point","coordinates":[-17.848434,28.486758]}},{"type":"Feature","properties":{"id":18,"tipo":"instalacion_naturaleza","subtipo":"centro_visitantes","nombre":"Cueva de Las Palomas","municipio":"Los Llanos de Aridane","acceso":"Ctra. General del Sur","direccion":"","descripcion":"","transporte":"No","figura_protegida":"Si","superficie_m2":"","capacidad_personas":"","accesibilidad":"","aparcamiento":"","contacto":"Cabildo de La Palma, Teléfono: 922423100","email":"","web":"","permisos":"","equipamiento":"","url_imagen":"","longitud":-17.8884673174514,"latitud":28.6014053948798},"geometry":{"type":"Point","coordinates":[-17.888467,28.601405]}},{"type":"Feature","properties":{"id":19,"tipo":"instalacion_naturaleza","subtipo":"centro_visitantes","nombre":"Cueva El Tendal","municipio":"San Andrés y Sauces","acceso":"Ctra. General del Norte","direccion":"","descripcion":"","transporte":"Si","figura_protegida":"Si","superficie_m2":"","capacidad_personas":"","accesibilidad":"","aparcamiento":"","contacto":"Cabildo de La Palma, Teléfono: 922423100","email":"","web":"","permisos":"","equipamiento":"","url_imagen":"","longitud":-17.7643920439461,"latitud":28.7866005409997},"geometry":{"type":"Point","coordinates":[-17.764392,28.786601]}},{"type":"Feature","properties":{"id":20,"tipo":"instalacion_naturaleza","subtipo":"area_recreativa","nombre":"Fuente de Los Roques","municipio":"Fuencaliente","acceso":"A 1 km. de Fuencaliente, en dirección a Mazo, pis","direccion":"","descripcion":"","transporte":"No","figura_protegida":"Si","superficie_m2":"20000","capacidad_personas":"136","accesibilidad":"Si","aparcamiento":"Si","contacto":"Cabildo de La Palma, tfn: 922423100","email":"","web":"","permisos":"No","equipamiento":"Baños, 9 fogones, 16 mesas","url_imagen":"http://www.cabildodelapalma.es/portal/RecursosWeb/IMAGENES/1/0_903_1.png","longitud":-17.8326812233773,"latitud":28.5194631670525},"geometry":{"type":"Point","coordinates":[-17.832681,28.519463]}},{"type":"Feature","properties":{"id":21,"tipo":"instalacion_naturaleza","subtipo":"area_recreativa","nombre":"Las Toscas","municipio":"Mazo","acceso":"Pista a 100 m. de Mazo en la ctra. a Fuencaliente.","direccion":"","descripcion":"","transporte":"No","figura_protegida":"No","superficie_m2":"2000","capacidad_personas":"60","accesibilidad":"Si","aparcamiento":"No","contacto":"Ayuntamiento de Mazo","email":"","web":"","permisos":"No","equipamiento":"Baños, 8 fogones, 8 mesas","url_imagen":"http://www.gobiernodecanarias.org/cmayot/servlet/ViewFileEquipamiento?id_archivo=3947&tipo_archivo=0","longitud":-17.7862436744342,"latitud":28.6078466771306},"geometry":{"type":"Point","coordinates":[-17.786244,28.607847]}},{"type":"Feature","properties":{"id":22,"tipo":"instalacion_naturaleza","subtipo":"area_recreativa","nombre":"El Pilar","municipio":"El Paso","acceso":"Carretera de San Isidro El Pilar","direccion":"","descripcion":"","transporte":"No","figura_protegida":"Si","superficie_m2":"40000","capacidad_personas":"350","accesibilidad":"Si","aparcamiento":"Si","contacto":"Cabildo de La Palma, tfn: 922423100","email":"","web":"","permisos":"No","equipamiento":"Baños, 24 fogones, 45 mesas, zona infantil","url_imagen":"http://www.cabildodelapalma.es/portal/RecursosWeb/IMAGENES/1/0_850_1.jpg","longitud":-17.8364215421003,"latitud":28.6142392762552},"geometry":{"type":"Point","coordinates":[-17.836422,28.614239]}},{"type":"Feature","properties":{"id":23,"tipo":"instalacion_naturaleza","subtipo":"area_recreativa","nombre":"Laguna de Barlovento","municipio":"Barlovento","acceso":"Ctra. Barlovento-Embalse de La Laguna (5 km).","direccion":"","descripcion":"","transporte":"No","figura_protegida":"No","superficie_m2":"5000","capacidad_personas":"220","accesibilidad":"Si","aparcamiento":"Si","contacto":"Ayuntamiento de Barlovento","email":"","web":"","permisos":"No","equipamiento":"Baños, bar, 36 fogones, 22 mesas, zona infantil","url_imagen":"http://www.cabildodelapalma.es/portal/RecursosWeb/IMAGENES/1/0_894_1.png","longitud":-17.8036822322846,"latitud":28.8093106977877},"geometry":{"type":"Point","coordinates":[-17.803682,28.809311]}},{"type":"Feature","properties":{"id":24,"tipo":"instalacion_naturaleza","subtipo":"area_recreativa","nombre":"Las Mimbreras","municipio":"Barlovento","acceso":"Ctra. S/C de La Palma-Garafía, pasado Barlovento","direccion":"","descripcion":"","transporte":"No","figura_protegida":"Si","superficie_m2":"2000","capacidad_personas":"60","accesibilidad":"Si","aparcamiento":"Si","contacto":"Cabildo de La Palma, tfn: 922423100","email":"","web":"","permisos":"No","equipamiento":"Baños, 5 fogones, 8 mesas","url_imagen":"http://www.cabildodelapalma.es/portal/RecursosWeb/IMAGENES/1/0_900_1.png","longitud":-17.8198731190158,"latitud":28.812773112423},"geometry":{"type":"Point","coordinates":[-17.819873,28.812773]}},{"type":"Feature","properties":{"id":25,"tipo":"instalacion_naturaleza","subtipo":"area_recreativa","nombre":"Los Tilos","municipio":"San Andrés y Sauces","acceso":"Ctra. Gral. del Norte desvío km. 25.8 al Barranco","direccion":"","descripcion":"","transporte":"No","figura_protegida":"Si","superficie_m2":"500","capacidad_personas":"200","accesibilidad":"No","aparcamiento":"Si","contacto":"Cabildo de La Palma, tfn: 922423100","email":"","web":"","permisos":"No","equipamiento":"Baños, bar, 22 fogones, 22 mesas","url_imagen":"http://www.cabildodelapalma.es/portal/RecursosWeb/IMAGENES/1/0_901_1.jpg","longitud":-17.8013453410418,"latitud":28.7905035780977},"geometry":{"type":"Point","coordinates":[-17.801345,28.790504]}},{"type":"Feature","properties":{"id":26,"tipo":"instalacion_naturaleza","subtipo":"area_recreativa","nombre":"Montaña de La Breña","municipio":"Breña Baja","acceso":"Ctra. Mazo-Breña Baja, desvío a la dcha. a la mo","direccion":"","descripcion":"","transporte":"No","figura_protegida":"Si","superficie_m2":"40000","capacidad_personas":"400","accesibilidad":"Si","aparcamiento":"Si","contacto":"Cabildo de La Palma, tfn: 922423100","email":"","web":"","permisos":"No","equipamiento":"Baños, 18 fogones, 41 mesas, zona infantil","url_imagen":"http://www.cabildodelapalma.es/portal/RecursosWeb/IMAGENES/1/0_895_1.jpg","longitud":-17.7825064507736,"latitud":28.630243986462},"geometry":{"type":"Point","coordinates":[-17.782506,28.630244]}},{"type":"Feature","properties":{"id":27,"tipo":"instalacion_naturaleza","subtipo":"area_recreativa","nombre":"Pared Vieja","municipio":"Breña Alta","acceso":"Ctra. a la cumbre por San Isidro desvío pista a l","direccion":"","descripcion":"","transporte":"No","figura_protegida":"Si","superficie_m2":"40000","capacidad_personas":"400","accesibilidad":"Si","aparcamiento":"Si","contacto":"Cabildo de La Palma, tfn: 922423100","email":"","web":"","permisos":"No","equipamiento":"Baños, 18 fogones, 41 mesas, zona infantíl","url_imagen":"http://www.cabildodelapalma.es/portal/RecursosWeb/IMAGENES/1/0_896_1.jpg","longitud":-17.8225238602161,"latitud":28.6188807299531},"geometry":{"type":"Point","coordinates":[-17.822524,28.618881]}},{"type":"Feature","properties":{"id":28,"tipo":"instalacion_naturaleza","subtipo":"area_recreativa","nombre":"Fuente del Toro","municipio":"Tijarafe","acceso":"Carretera del norte LP-1, a unos 3 kilómetros al","direccion":"","descripcion":"","transporte":"Si","figura_protegida":"No","superficie_m2":"500","capacidad_personas":"80","accesibilidad":"Si","aparcamiento":"Si","contacto":"Ayuntamiento de Tijarafe","email":"","web":"","permisos":"No","equipamiento":"6 fogones, 8 mesas","url_imagen":"http://www.gobiernodecanarias.org/cmayot/servlet/ViewFileEquipamiento?id_archivo=3950&tipo_archivo=0","longitud":-17.9498882558976,"latitud":28.6997469818232},"geometry":{"type":"Point","coordinates":[-17.949888,28.699747]}},{"type":"Feature","properties":{"id":29,"tipo":"instalacion_naturaleza","subtipo":"area_recreativa","nombre":"El Fayal","municipio":"Puntagorda","acceso":"Ctra. Garafía-Puntagorda desvío hacia barrio del","direccion":"","descripcion":"","transporte":"No","figura_protegida":"No","superficie_m2":"10000","capacidad_personas":"320","accesibilidad":"Si","aparcamiento":"Si","contacto":"Cabildo de La Palma, tfn: 922423100","email":"","web":"","permisos":"No","equipamiento":"Baños, 12 fogones, 32 mesas y zona infantil","url_imagen":"http://www.cabildodelapalma.es/portal/RecursosWeb/IMAGENES/1/0_908_1.jpg","longitud":-17.9725214425955,"latitud":28.7790577128146},"geometry":{"type":"Point","coordinates":[-17.972521,28.779058]}},{"type":"Feature","properties":{"id":30,"tipo":"instalacion_naturaleza","subtipo":"area_recreativa","nombre":"Llano del Lance","municipio":"Tijarafe","acceso":"Camino Los Riveroles","direccion":"","descripcion":"","transporte":"No","figura_protegida":"Si","superficie_m2":"10000","capacidad_personas":"200","accesibilidad":"Si","aparcamiento":"Si","contacto":"Ayuntamiento de Tijarafe","email":"","web":"","permisos":"No","equipamiento":"Baños, fogones, mesas, zona infantil","url_imagen":"http://www.cabildodelapalma.es/portal/RecursosWeb/IMAGENES/1/0_1262_1.jpg","longitud":-17.9586099445508,"latitud":28.7449250510053},"geometry":{"type":"Point","coordinates":[-17.95861,28.744925]}},{"type":"Feature","properties":{"id":31,"tipo":"instalacion_naturaleza","subtipo":"area_recreativa","nombre":"Punta Larga","municipio":"Funcaliente","acceso":"LP-207","direccion":"","descripcion":"","transporte":"No","figura_protegida":"Si","superficie_m2":"500","capacidad_personas":"50","accesibilidad":"Si","aparcamiento":"Si","contacto":"Ayuntamiento de Fuencaliente","email":"","web":"","permisos":"No","equipamiento":"Baños, 3 fogones, 10 mesas","url_imagen":"http://www.larevistadelapalma.com/wp-content/uploads/2014/10/Area-recreativa-fuencaliente-1.jpg","longitud":-17.867387921345,"latitud":28.4830575901274},"geometry":{"type":"Point","coordinates":[-17.867388,28.483058]}},{"type":"Feature","properties":{"id":32,"tipo":"instalacion_naturaleza","subtipo":"area_recreativa","nombre":"Casa del Monte","municipio":"San Andrés y Sauces","acceso":"Ctra. general del Norte desvío por pista Las Loma","direccion":"","descripcion":"","transporte":"No","figura_protegida":"Si","superficie_m2":"80","capacidad_personas":"10","accesibilidad":"No","aparcamiento":"No","contacto":"Cabildo de La Palma, tfn: 922423100","email":"","web":"","permisos":"No","equipamiento":"Baños, 2 fogones, 2 bancos","url_imagen":"http://www.gobiernodecanarias.org/cmayot/servlet/ViewFileEquipamiento?id_archivo=3943&tipo_archivo=0","longitud":-17.8118326384009,"latitud":28.7728898999194},"geometry":{"type":"Point","coordinates":[-17.811833,28.77289]}},{"type":"Feature","properties":{"id":33,"tipo":"instalacion_naturaleza","subtipo":"area_recreativa","nombre":"San Antonio del Monte","municipio":"Villa de Garafía","acceso":"LP-1 desvio San Antonio del Monte.","direccion":"","descripcion":"","transporte":"No","figura_protegida":"No","superficie_m2":"1000","capacidad_personas":"","accesibilidad":"","aparcamiento":"","contacto":"Cabildo de La Palma, tfn: 922423100","email":"","web":"","permisos":"Si","equipamiento":"Baños, fogones, bancos, zona infantil.","url_imagen":"http://www.garafia.es/galguen/wp-content/uploads/2011/12/area_recreativajpg.jpg","longitud":-17.9184004985776,"latitud":28.8170115807578},"geometry":{"type":"Point","coordinates":[-17.9184,28.817012]}}]}